,Unnamed: 0,BBBID,BusinessID,BusinessName,StreetAddress,StreetAddress2,City,StateProvince,PostalCode,Country,Phone,Email,Website,TOBID,TOBDescription,DateBusinessStarted,DateBusinessClosed,IsBBBAccredited,BBBRatingGrade,BBBRatingScore,NumberOfEmployees,NumberOfPartTimeEmployees,IsHQ,SizeOfBusiness,IsCharity,CDWLastUpdate,FoundVia,status_code,manually_checked
0,1934,704,1000001387,Continental Rehab Llc,10700 Old County Road 15 # 300,,Minneapolis,MN,55441,USA,9525460366,,https://www.yellowpages.com/minneapolis-mn/mip/continental-rehabilitation-478966991,60205-000,Chiropractors D.C.,1/1/2006 0:00,5/18/2016 0:00,FALSE,NR,0,4,,FALSE,Micro-small,FALSE,5/20/2019 4:18,Search,200,0
1,1935,704,1000002249,Campus Travel LLC,2506 Riverside Ave,,Minneapolis,MN,55454,USA,6123386705,,https://www.yellowpages.com/minneapolis-mn/mip/campus-travel-4528531,70632-000,Travel Agencies & Bureaus,,,FALSE,NR,0,1,0,FALSE,Micro-small,FALSE,1/30/2023 8:34,Search,200,0
2,1936,704,1000006506,"Crying Hill Antiques, LLC",1100 crying hill,,Fort Rice,ND,58554,USA,7016678894,,https://www.facebook.com/events/ag-building-red-river-valley-fairgrounds-west-fargo-nd/crying-hill-antique-show-and-sale/881608328616398/,50014-000,Antiques - Dealers,5/27/2008 0:00,,FALSE,A+,100,1,0,FALSE,Micro-small,FALSE,10/17/2022 7:54,Search,200,0
3,1937,704,1000004556,Aquatic Restoration,1416 10th Ave N,,Saint Cloud,MN,56303,USA,3203638328,,https://www.pca.state.mn.us/sites/default/files/wq-ws4-07a.pdf,10035-000,Contractors - General,1/1/1986 0:00,1/3/2020 0:00,FALSE,NR,0,1,,FALSE,Micro-small,FALSE,9/4/2020 4:07,Search,200,0
4,1938,704,1000006226,"W C Peterson Excavating, LLC",1115 County Road 8 NE,,Federal Dam,MN,56641,USA,2186545282,,http://federaldam.com/wordpress/?p=142,10050-000,Excavating Contractors,1/1/2011 0:00,,FALSE,A+,100,1,0,FALSE,Micro-small,FALSE,4/28/2022 8:18,Search,200,0
5,1939,704,1000004296,Glory Shine Cleaning,260 Ikola Rd,,Esko,MN,55733,USA,2188793817,,https://duluthmncoc.weblinkconnect.com/Cleaning-Services/Glory-Shine-Cleaning-1877,66002-000,Cleaning Services,2/18/1986 0:00,,FALSE,NR,0,1,0,FALSE,Micro-small,FALSE,12/4/2022 9:03,Search,200,0
6,1940,704,1000006135,Frank's Handyman & Carpenter Service,2521 60th St NE,,Rugby,ND,58368,USA,7012600789,,https://www.homeyou.com/frank39s-handyman-carpenter-service-rugby-nd,15035-000,Handyman Services,12/26/2012 0:00,,FALSE,A+,100,1,0,FALSE,Micro-small,FALSE,8/19/2021 4:22,Search,200,0
7,1941,704,1000002361,Premier Custom Homes Inc,1801 East 5th Street,,Duluth,MN,55812,USA,7632913273,,https://www.premierhomesmn.com/,10035-000,Contractors - General,9/14/2015 0:00,4/2/2018 0:00,FALSE,NR,0,1,0,FALSE,Micro-small,FALSE,4/6/2021 4:16,Search,200,1
8,1942,704,1000000054,Herzl Camp,4330 Cedar Lake Rd S,,Minneapolis,MN,55416,USA,9529274002,,https://herzlcamp.org/,60179-000,Camps,2/8/2008 0:00,,FALSE,NR,0,1,0,FALSE,Micro-small,FALSE,10/4/2022 8:07,Search,200,1
9,1943,704,1000001519,Miller Trucking,PO Box 414,,Isle,MN,56342,USA,3206763421,,https://miller-trucking.business.site/,70637-000,Trucking - Heavy Hauling,1/1/1984 0:00,,FALSE,NR,0,1,0,FALSE,Micro-small,FALSE,1/31/2023 8:46,Search,200,1
10,1944,704,1000006074,Bridge Builder Software,16449 54th St SE,,Kindred,ND,58051,USA,7014289900,,https://www.kyndryl.com/us/en,60236-000,Computer Software Publishers & Developers,7/7/2005 0:00,7/14/2021 0:00,FALSE,NR,0,1,0,FALSE,Micro-small,FALSE,7/16/2021 4:18,Search,200,0
11,1945,704,1000006153,Michael Davis Repairs,17261 Park Cir,,Eden Prairie,MN,55346,USA,6122554583,,https://www.dandb.com/businessdirectory/michaeldavisrepairs-edenprairie-mn-6717817.html,10177-000,Construction & Remodeling Services,10/15/1998 0:00,,FALSE,A+,100,1,0,FALSE,Micro-small,FALSE,1/4/2020 4:16,Search,200,0
12,1946,704,1000004821,Capital Courier,690 Wheeler St N,,Saint Paul,MN,55104,USA,6514885900,,https://www.capitalexpress.biz/locations/st-cloud-2/,70640-000,Trucking,1/1/2002 0:00,1/7/2008 0:00,FALSE,NR,0,10,,FALSE,Micro-small,FALSE,9/26/2018 4:59,Search,200,0
13,1947,704,1000002018,Locktech,PO Box 8022,,Fargo,ND,58109,USA,7017301590,,https://www.locktech.com/,60522-000,Locks & Locksmiths,1/1/2009 0:00,1/10/2020 0:00,FALSE,NR,0,1,0,FALSE,Micro-small,FALSE,1/16/2023 8:36,Search,200,1
14,1948,704,1000002436,Buggy Bath Car Wash,6251 Queensland Ln N,,Osseo,MN,55311,USA,6513301438,,https://buggybathcarwash.com/,60180-000,Car Wash & Polish,,,FALSE,NR,0,1,0,FALSE,Micro-small,FALSE,1/30/2023 8:34,Search,200,1
15,1949,704,1000005428,Bluff Creek Construction Company,1401 Hesse Farm Rd,,Chaska,MN,55318,USA,9524454552,,https://www.b2byellowpages.com/company-information/094329297-bluff-creek-construction.html,10177-000,Construction & Remodeling Services,12/31/2008 0:00,,FALSE,NR,0,1,0,FALSE,Micro-small,FALSE,12/26/2022 8:46,Search,200,0
16,1950,704,1000002972,Integrity Carpet Cleaning,15631 Darling Path,,Rosemount,MN,55068,USA,6513224935,,https://www.facebook.com/IntegrityCarpetCleaningServices/,60184-000,Carpet & Rug Cleaners,,,FALSE,NR,0,1,0,FALSE,Micro-small,FALSE,1/29/2023 8:36,Search,200,0
17,1951,704,1000004942,Lakestone Builders,12605 Ottawa Ave,,Savage,MN,55378,USA,6124790710,,https://www.facebook.com/Lakestone-Builders-1630302117085434/,10099-000,Patio & Deck Builders,12/1/2015 0:00,,FALSE,A+,100,1,0,FALSE,Micro-small,FALSE,2/12/2022 9:24,Search,200,0
18,1952,704,1000005863,Dauk Construction Inc,22274 Oriole Rd,,Madison Lake,MN,56063,USA,5073515993,,https://daukconstruction.com/,10177-000,Construction & Remodeling Services,5/23/2005 0:00,,FALSE,A+,100,1,0,FALSE,Micro-small,FALSE,1/11/2020 5:36,Search,200,1
19,1953,704,1000004957,Arnold Heberling Construction LLC,330 Maple Ave N,,Annandale,MN,55302,USA,3202741449,,https://opencorporates.com/companies/us_mn/45fdd484-97d4-e011-a886-001ec94ffe7f,10177-000,Construction & Remodeling Services,5/3/2011 0:00,1/6/2019 0:00,FALSE,NR,0,1,0,FALSE,Micro-small,FALSE,1/11/2022 9:34,Search,200,0
20,1954,704,1000001515,Mbd Merchant,25 Birch Ave S,,Maple Lake,MN,55358,USA,3209637345,,http://www.salespider.com/b-195851076/m-b-d-merchant-faith-filled-gifts,50085-000,Books - New,,,FALSE,NR,0,1,,FALSE,Micro-small,FALSE,5/24/2022 8:16,Search,200,0
21,1955,704,1000005460,"David B. Lee, CPA, LLC",5000 Mirror Lakes Dr,,Minneapolis,MN,55436,USA,9522700090,,https://taxrpo.com/preparer/david-lee-minneapolis-mn/,60005-000,Accountants,5/11/2012 0:00,,FALSE,NR,0,1,0,FALSE,Micro-small,FALSE,12/26/2022 8:45,Search,200,0
22,1956,704,1000005047,"Brady Dreyer Construction, LLC",821 Nicollet Ave,,North Mankato,MN,56003,USA,5073888047,,https://opencorporates.com/companies/us_mn/6f6a1f87-94d4-e011-a886-001ec94ffe7f,10035-000,Contractors - General,1/13/2010 0:00,,FALSE,A+,100,1,0,FALSE,Micro-small,FALSE,3/18/2021 4:08,Search,200,0
23,1957,704,1000005018,"D.L. Remodeling, LLC",6575 Killdeer Dr,,Lino Lakes,MN,55014,USA,6128010787,,https://www.facebook.com/dave.larson.501/,10177-000,Construction & Remodeling Services,,,FALSE,NR,0,1,0,FALSE,Micro-small,FALSE,2/5/2023 8:42,Search,200,0
24,1958,704,1000006766,All Metro Glass,1387 Cope Ave E,,Saint Paul,MN,55109,USA,6517771910,,https://foursquare.com/v/all-metro-glass/504f9a69e4b044b0249823fc,50110-000,Building Materials,1/1/2008 0:00,,FALSE,NR,0,50,0,FALSE,Micro-small,FALSE,2/8/2023 9:28,Search,200,0
25,1959,704,1000004746,E & L Electric,61785 Kirkwood Dr,PO Box 65,Warroad,MN,56763,USA,2183862138,,https://www.facebook.com/EandLElectric/,10049-000,Electricians,9/30/1993 0:00,,FALSE,NR,0,3,0,FALSE,Micro-small,FALSE,1/23/2023 8:35,Search,200,0
26,1960,704,1000006718,JMS Custom Services,590 Main Ave. W.,,Winsted,MN,55395,USA,3204852261,,https://www.facebook.com/jmscustomservices/,60107-700,Auto Repair - Maintenance,1/3/1979 0:00,,FALSE,A+,100,1,0,FALSE,Micro-small,FALSE,8/23/2020 3:48,Search,200,0
27,1961,704,1000001936,Aerosim Technologies,351 Cliff Rd E Ste 200,,Burnsville,MN,55337,USA,9528944694,,https://www.aerospace-technology.com/contractors/training/aerosim/,50173-000,Computers - Dealers,10/14/1993 0:00,,FALSE,A+,100,50,0,FALSE,Micro-small,FALSE,1/31/2023 15:41,Search,200,1
28,1962,704,1000003854,Doug Moe Construction LLC,360 Williams St,,Lewiston,MN,55952,USA,5075232803,,https://opencorporates.com/companies/us_mn/aec3b4f8-94d4-e011-a886-001ec94ffe7f,10035-000,Contractors - General,12/15/2009 0:00,,FALSE,NR,0,1,0,FALSE,Micro-small,FALSE,1/24/2023 8:58,Search,200,0
29,1963,704,1000005502,Edina Market & Deli,7102 Amundson Ave,,Edina,MN,55439,USA,9529425216,,https://www.menupix.com/twincities/restaurants/478674/Edina-Market-Deli-Edina-MN,50278-000,Foods - Carry Out,9/19/2016 0:00,,FALSE,NR,0,1,0,FALSE,Micro-small,FALSE,12/26/2022 8:45,Search,200,0
30,1964,704,1000005530,Goode Snow Plowing,9132 Upton Ave S,,Minneapolis,MN,55431,USA,9528885885,,https://nextdoor.com/pages/goode-snow-plowing-minneapolis-mn/,60478-000,Janitor Service,1/1/2008 0:00,,FALSE,A+,100,1,0,FALSE,Micro-small,FALSE,12/21/2022 9:22,Search,200,0
31,1965,704,1000005490,Dakota Craftsman,4011 Glendale Dr,,Excelsior,MN,55331,USA,6127600628,,https://nextdoor.com/pages/dakota-craftsman-excelsior-mn/,10019-000,Carpenters,5/1/2009 0:00,,FALSE,A+,100,1,0,FALSE,Micro-small,FALSE,3/10/2020 4:10,Search,200,0
32,1966,704,1000006240,"Acorn Builders, LLC",1303 48th St SW,,Pine River,MN,56474,USA,2185685353,,https://www.dandb.com/businessdirectory/acornbuildersllc-pineriver-mn-2121789.html,60057-000,Architects,4/12/2004 0:00,,FALSE,NR,0,1,0,FALSE,Micro-small,FALSE,1/3/2023 8:39,Search,200,0
33,1967,704,1000005193,Wildflowers Floral and Gift L. L. C.,38830 Forest Blvd,,North Branch,MN,55056,USA,6516746280,,https://www.oldhighway61.com/listings/wildflowers-floral-and-gift-llc/,50275-000,Florists - Retail,5/25/2012 0:00,,FALSE,NR,0,1,0,FALSE,Micro-small,FALSE,10/28/2022 8:24,Search,200,0
34,1968,704,1000000189,Blast Pro Contracting Inc,1016 17th St Ne,,Mandan,ND,58554,USA,7016631112,,https://www.yellowpages.com/mandan-nd/mip/blast-pro-contracting-inc-15272294,10035-000,Contractors - General,1/1/2006 0:00,,FALSE,NR,0,2,0,FALSE,Micro-small,FALSE,5/11/2022 13:48,Search,200,0
35,1969,704,1000005040,Brad Gusa Construction LLC,PO Box 205,,Kellogg,MN,55945,USA,6513804017,,https://safer.fmcsa.dot.gov/query.asp?searchtype=ANY&query_type=queryCarrierSnapshot&query_param=USDOT&query_string=1193776,10035-000,Contractors - General,5/7/2015 0:00,,FALSE,NR,0,1,0,FALSE,Micro-small,FALSE,12/20/2022 8:57,Search,200,0
36,1970,704,1000003284,Northside Motors,22285 Raven St Nw,,Cedar,MN,55011,USA,7637532972,,https://zaubee.com/biz/northside-motors-7di91z4a,60103-000,Auto Repair & Service,8/30/2010 0:00,,FALSE,A+,100,4,0,FALSE,Micro-small,FALSE,12/8/2020 4:09,Search,200,0
