,Unnamed: 0,BBBID,BusinessID,BusinessName,StreetAddress,StreetAddress2,City,StateProvince,PostalCode,Country,Phone,Email,Website,TOBID,TOBDescription,DateBusinessStarted,DateBusinessClosed,IsBBBAccredited,BBBRatingGrade,BBBRatingScore,NumberOfEmployees,NumberOfPartTimeEmployees,IsHQ,SizeOfBusiness,IsCharity,CDWLastUpdate,FoundVia,status_code,manually_checked
0,400,704,96093646,Blooming Prairie Gardens Inc,13185 W County Road B,,Hayward,WI,54843.0,USA,7156990750.0,,http://www.bloomingprairiegardens.com,50564-000,Seeds & Bulbs - Retail,9/13/01 0:00,,False,A+,100.0,1.0,0.0,False,Micro-small,False,8/4/22 8:29,BBB,200,1
1,401,704,96570444,Andy Dunphy Insurance & Financial Services Inc,3567 Sheyenne Cir,,Valley City,ND,58072.0,USA,7012811383.0,andy.dunphy@countryfinancial.com,https://representatives.countryfinancial.com/Andy.Dunphy,20085-000,Financial Services,6/2/14 0:00,,False,NR,0.0,1.0,0.0,False,Micro-small,False,5/7/22 8:20,BBB,200,1
2,402,704,96019816,"JJ Taylor Distributing Company of Minnesota, Inc.",701 Industrial Blvd NE,,Minneapolis,MN,55413.0,USA,6514821133.0,,http://www.jjtaylor.com,85084-000,Beverages - Wholesale & Distribution,1/1/84 0:00,,False,A+,100.0,170.0,,False,Medium,False,3/9/22 10:13,BBB,200,1
3,403,704,51000458,Royal Tire Inc,3955 Roosevelt Rd,,Saint Cloud,MN,56301.0,USA,3202587070.0,mike@webgemsports.com,http://www.royaltire.com,50659-000,Tire Dealers,1/1/61 0:00,,False,B-,80.0,188.0,0.0,False,Medium,False,11/17/22 9:21,BBB,200,1
4,404,704,96347243,Total Image Flooring Incorporated,51 Bell Cir,,Silver Bay,MN,55614.0,USA,9523564279.0,totalimageflooring@live.com,https://www.facebook.com/affordableflooringmn/,50273-000,Floor Materials - Retail,7/30/10 0:00,10/1/16 0:00,False,NR,0.0,2.0,,False,Micro-small,False,12/8/21 4:46,BBB,200,1
5,405,704,96383409,Amplifon Hearing Health Care Corp,150 S 5th St,Ste 2300,Minneapolis,MN,55402.0,USA,8778467074.0,sandra.hill@amplifon.com,http://www.amplifonusa.com,50337-000,Hearing Aids & Assistive Devices,12/10/03 0:00,,True,A+,100.0,82.0,,False,Small,False,1/28/23 8:47,BBB,200,1
6,406,704,96539822,J T Egner Construction,17595 Kenwood Trl,,Lakeville,MN,55044.0,USA,9529850582.0,jegner@jtegner.com,https://www.jtegner.com/,10035-000,Contractors - General,4/30/14 0:00,,False,A+,100.0,1.0,0.0,False,Micro-small,False,6/7/22 8:10,Email,200,1
7,407,704,96554000,B & G Drywall LLC,411 Lake St,,Lake Park,MN,56554.0,USA,2188413540.0,accounts.payable@bg-drywallllc.com,http://www.bg-drywallllc.com,10046-000,Drywall Contractors,10/3/14 0:00,,False,A+,100.0,1.0,0.0,False,Micro-small,False,10/26/22 8:41,BBB,200,1
8,408,704,1000051665,Blondie's Welding LLC,2955 S Co Rd 45,,Owatonna,MN,55060.0,USA,5076766728.0,blondieswelding@yahoo.com,https://www.facebook.com/blondieswelding/,60948-000,Welding,10/30/15 0:00,,False,A+,100.0,1.0,0.0,False,Micro-small,False,2/17/22 9:43,BBB,200,0
9,409,704,96537315,MJB Lock Services LLC,,,,,,,,mike@mjblockservices.com,http://www.mjblockservices.com,60522-000,Locks & Locksmiths,4/1/14 0:00,,False,NR,0.0,1.0,0.0,False,Micro-small,False,1/11/22 9:33,BBB,200,1
10,410,704,96005392,"Valley Accounting & Tax, LLC",7300 147th St W Ste 100A,,Apple Valley,MN,55124.0,USA,9524323140.0,asegna@avaat.net,http://www.avaat.net,60005-000,Accountants,11/22/13 0:00,,False,A+,100.0,10.0,0.0,False,Small,False,2/3/23 9:11,BBB,200,1
11,411,704,1000051566,"Royal Glass, LLC",853 Hale Pl,,Windom,MN,56101.0,USA,5078328333.0,royalglassmn@gmail.com,https://www.facebook.com/RoyalGlassMN/,92000-000,"Glass, Mirror & Screen Companies",2/2/19 0:00,,True,A+,99.97,2.0,,False,Large,False,1/28/23 8:48,BBB,200,1
12,412,704,1000004910,Sanford Health DL Clinic Same Day Surgery Center,1245 Washington Ave,,Detroit Lakes,MN,56501.0,USA,2188462000.0,breanna.adams@sanfordhealth.org,https://www.sanfordhealth.org/,60445-200,Outpatient Surgery Centers ,1/1/91 0:00,,False,A+,100.0,65.0,0.0,False,Medium,False,11/23/21 6:33,Email,200,1
13,413,704,96003200,KLB Financial,3300 Edinborough Way # 610,,Minneapolis,MN,55435.0,USA,9528859088.0,dana@klbfinancial.com,http://www.KLBFinancial.com,20085-000,Financial Services,11/1/90 0:00,,False,A+,100.0,9.0,,False,Small,False,1/13/21 4:45,BBB,200,0
14,414,704,96028592,Ramsey County Detox Center,402 University Ave E,,Saint Paul,MN,55130.0,USA,6512664009.0,ContactRamseyCounty@co.ramsey.mn.us,http://www.co.ramsey.mn.us/hs/mhc/ChemicalDependency.htm,60452-000,Human Services Organizations,1/1/79 0:00,,False,A+,100.0,58.0,,False,Small,False,8/26/22 8:31,BBB,200,1
15,415,704,96052273,Guild,130 Wabasha St S Ste 90,,Saint Paul,MN,55107.0,USA,6514502220.0,info@guildincorporated.org,https://guildservices.org/,61090-000,Non Profit Organizations - General Membership,4/18/90 0:00,,False,A+,100.0,120.0,0.0,False,Small,False,2/8/23 9:28,BBB,200,1
16,416,704,96005381,OBGYN West PA,14001 Ridgedale Dr Ste 200,,Minnetonka,MN,55305.0,USA,9522492000.0,chrisg@obgynwest.net,http://www.obgynwest.net,60669-000,Physicians & Surgeons - OB/GYN,1/1/84 0:00,,False,A+,100.0,43.0,,False,Small,False,8/27/21 4:04,BBB,200,1
17,417,704,96022716,"Monticello Family Dentistry, LLC",201 W Broadway St,,Monticello,MN,55362.0,USA,7632953676.0,monticellofamilydentistry@tds.net,http://www.monticellodentists.com,60289-000,Dentists,10/21/05 0:00,,False,A+,100.0,13.0,0.0,False,Small,False,4/23/20 4:01,BBB,200,1
18,418,704,1000049911,"Stretcher Transportation Services, LLC",21909 Elm Pkwy,,Rogers,MN,55374.0,USA,7634459255.0,joey@stretchertransportationservices.com,https://stretchertransportationservices.com/,55750-000,Wheelchair & Disability Transportation,6/29/21 0:00,,True,A,94.0,2.0,,False,Micro-small,False,2/3/23 9:13,BBB,200,1
19,419,704,96146595,Minnesota Disability Law Center,430 1st Ave N # 300,,Minneapolis,MN,55401.0,USA,6123345970.0,mndlc@midmnlegal.org,http://www.mndlc.org,60452-000,Human Services Organizations,1/1/04 0:00,,False,NR,0.0,50.0,0.0,False,Medium,False,3/27/21 4:08,BBB,200,1
20,420,704,96062966,United Cleaning Management,7809 Southtown Ctr,Ste 194,Minneapolis,MN,55431.0,USA,8002610271.0,info@united-clean.com,http://www.united-clean.com/contact.html,60478-000,Janitor Service,6/25/07 0:00,,False,A+,100.0,1.0,0.0,False,Micro-small,False,12/3/21 4:08,BBB,200,1
21,421,704,96000889,"Northwest Manufacturing, Inc.",600 Polk Ave SW,,Red Lake Falls,MN,56750.0,USA,2182534328.0,info@woodmaster.com,http://www.woodmaster.com,50621-000,"Stoves - Wood, Coal",1/1/90 0:00,,False,A+,100.0,73.0,,False,Small,False,5/14/21 4:11,BBB,200,1
22,422,704,24000396,Trace Design,19118 Estes Rd,,Clearwater,MN,55320.0,USA,3205582951.0,tracedesign@frontiernet.net,http://www.trace-design.com,60296-000,Desktop Publishing,6/4/92 0:00,,False,A+,100.0,2.0,,False,Micro-small,False,10/8/21 4:04,BBB,200,1
23,423,704,96538408,"Princeton Fitness, LLC",607 S 2nd St,,Princeton,MN,55371.0,USA,7636311326.0,,http://www.princetonfitness.com,60430-100,Fitness Centers,,,False,A+,100.0,,,False,Micro-small,False,8/20/20 4:00,BBB,200,1
24,424,704,1000039776,Ukrainian Treasure,8943 Windsor Terrace,,Brooklyn Park,MN,55443.0,USA,6128869810.0,,https://ukrainiantreasures.com/,60974-000,Internet Shopping,,,False,C-,73.29,1.0,,False,Micro-small,False,2/8/23 9:28,BBB,200,1
25,425,704,96351922,Skid Pro,807 Mckay Ave S,,Alexandria,MN,56308.0,USA,8773784642.0,sales@skidpro.com,http://www.skidpro.com,80201-100,Construction Equipment Sales / Services,9/10/10 0:00,,True,A+,100.0,18.0,0.0,False,Small,False,1/24/23 8:58,BBB,200,1
26,426,704,96536302,Maplewood Auto Salon,,,,,,,,mwadino@maplewoodautosalon.com,http://www.maplewoodautosalon.com,60094-100,Auto Paintless Dent Repair,3/10/14 0:00,,False,NR,0.0,,0.0,False,Micro-small,False,3/23/21 4:00,BBB,200,1
27,427,704,96099572,Meeker Memorial Hospital,612 S Sibley Ave,,Litchfield,MN,55355.0,USA,3206933242.0,,http://www.meekermemorial.org,60445-000,Hospitals,1/1/52 0:00,,False,A+,100.0,180.0,,False,Small,False,4/26/22 8:18,BBB,200,1
28,428,704,96591823,SM Website Solutions Inc,417 11th St NW,,Buffalo,MN,55313.0,USA,6123107972.0,info@redtechnologiesinc.com,http://redtechnologiesinc.com/,60980-000,Web Design,2/6/14 0:00,,False,NR,0.0,,0.0,False,Micro-small,False,6/8/21 4:14,BBB,200,0
29,429,704,96132771,Demaray Advertising,1202 12th Ave NE,,Rochester,MN,55906.0,USA,5072880440.0,demarayadco@gmail.com,https://www.facebook.com/pages/Demaray-Advertising/158182677548327,60010-000,Advertising Agencies & Counselors,1/28/13 0:00,12/6/16 0:00,False,NR,0.0,2.0,0.0,False,Micro-small,False,12/9/19 4:09,BBB,200,1
30,430,704,1000054126,"Schultze Insurance Agency, LLC",4660 Slater Rd Ste 238,,Eagan,MN,55122.0,USA,9522368610.0,leslie@schultzeinsurance.com,https://www.facebook.com/schultzeinsuranceagencyLLC/,20027-000,Insurance - Health,6/1/10 0:00,,True,A+,100.0,1.0,,False,Small,False,11/24/22 9:02,BBB,200,1
31,431,704,96095273,"Cedar Creek Landscaping, LLC",18788 Portwood Way,,Hastings,MN,55033.0,,6513248144.0,cedarcreekls@hotmail.com,http://cedarcreeklandscaping.net,10177-000,Construction & Remodeling Services,5/26/04 0:00,,False,A+,100.0,4.0,0.0,False,Micro-small,False,2/9/23 9:11,BBB,200,1
32,432,704,96235288,Evergreen Insurance,722 Demers Ave,,East Grand Forks,MN,56721.0,USA,2187734158.0,jmack.evergreen@midconetwork.com,http://Evergreeninsuranceagency.com,20080-000,Insurance Services,1/1/94 0:00,,False,NR,0.0,6.0,,False,Micro-small,False,6/14/22 8:19,BBB,200,1
33,433,704,8003719,"Precision Dental Laboratories, Inc.",6 Broadway N Ste 200,,Fargo,ND,58102.0,USA,7012809089.0,,http://www.pdlfargo.com/,60287-000,Dental Laboratories,10/21/88 0:00,,False,A+,100.0,30.0,,False,Micro-small,False,3/12/21 4:09,BBB,200,1
34,434,704,9000342,Dunn Enterprises Inc,302 Industrial Blvd NE,,Minneapolis,MN,55413.0,USA,6126230565.0,,http://www.careympls.com,70562-000,Limousine Service,1/10/74 0:00,,False,A+,100.0,100.0,,False,Small,False,7/8/22 12:20,BBB,200,1
35,435,704,96556653,Hometown Focus,401 N 6th Ave STE 1111,,Virginia,MN,55792.0,USA,2187410106.0,customerservice@hometownfocus.us,http://hometownfocus.us,85285-000,Publishers - Magazine,,,False,A+,100.0,,0.0,False,Micro-small,False,5/26/21 4:35,BBB,200,1
36,436,704,41001513,Liechty Homes Inc,PO Box 1937,501 17th St SW,Jamestown,ND,58402.0,USA,7012523081.0,info@liechtyhomes.com,http://www.liechtyhomes.com,55432-000,Modular Homes,4/1/55 0:00,,False,A+,100.0,10.0,0.0,False,Small,False,6/12/21 6:06,BBB,200,1
37,437,704,1000057789,Integrity Mechanical Services LLC,23 W Central Entrance #176,,Duluth,MN,55811.0,USA,2183415308.0,,https://integritymechanicalservices.com/,10035-500,Electricians - Residential,2/5/21 0:00,,False,A,94.99,1.0,,False,Micro-small,False,2/3/23 9:13,BBB,200,1
38,438,704,96015219,"Turpen Realty, Inc.",521 E Rum River Dr N,,Cambridge,MN,55008.0,USA,7634444820.0,beckybakken@yahoo.com,http://www.turpenrealtyinc.com/,60729-000,Real Estate,1/1/91 0:00,,False,A+,100.0,15.0,,False,Small,False,11/23/21 6:33,BBB,200,1
39,439,704,96339593,Bob's Automotive LLC,229 Harry Rich Dr,,Wadena,MN,56482.0,USA,2186324262.0,bobsautomotive@ymail.com,http://www.bobs-automotive.com,60103-000,Auto Repair & Service,10/1/09 0:00,4/25/16 0:00,False,NR,0.0,6.0,,False,Small,False,4/29/19 4:01,BBB,200,1
40,440,704,1000023993,Landmark Photography & Design LLP,1100 Zane Ave N Studio 3,,Golden Valley,MN,55422.0,USA,6123827988.0,jon@landmarkphotodesign.com,https://www.landmark.photo/,60657-000,Photographers - Commercial,4/13/95 0:00,,False,A+,100.0,2.0,0.0,False,Micro-small,False,12/1/21 4:53,BBB,200,1
41,441,704,96020944,"West Country Kennels, Inc.",11719 Major Ave,,Glencoe,MN,55336.0,USA,3208642006.0,brian@westcountrykennels.com,http://www.westcountrykennels.com,00153-000,Pet Boarding & Kennels,12/1/99 0:00,,False,A+,100.0,3.0,,False,Micro-small,False,10/19/21 3:59,BBB,200,1
42,442,704,96375548,Rochester Mazda,2955 48th St NW,,Rochester,MN,55901.0,USA,8662510270.0,mike.enke@rochestermotorcars.com,http://www.rochestermazda.com/,50039-000,Auto Dealers - New Cars,5/6/09 0:00,,False,A+,100.0,10.0,0.0,False,Small,False,10/28/20 4:01,BBB,200,1
43,443,704,96024051,USA Central Station Alarm Corp.,1380 Energy Park Dr # 200,,Saint Paul,MN,55108.0,USA,6516410744.0,mickey.fuller@usacentralstation.com,http://www.usacentralstation.com,60788-000,Security Control Equipment & System Monitors,1/1/82 0:00,,False,A+,100.0,7.0,,False,Micro-small,False,3/22/22 8:37,BBB,200,1
44,444,704,1000035556,"Cricket Wireless, LLC",2932 Chicago Ave,,Minneapolis,MN,55407.0,USA,6128230045.0,,http://www.cricketwireless.com,70535-000,Cellular Telephone Service & Supplies,,,False,NR,0.0,1.0,0.0,False,Micro-small,False,6/1/22 21:28,BBB,200,1
45,445,704,96175795,"Electric By Design, Inc.",105 Twin Lake Blvd,,Little Canada,MN,55127.0,USA,6512458307.0,drleibel@gmail.com,http://www.facebook.com/ElectricByDesignInc,10049-000,Electricians,3/17/09 0:00,,True,A+,100.0,1.0,,False,Micro-small,False,1/26/23 8:49,BBB,200,1
46,446,704,96135204,Henry Embroidery & Screen Printing,13552 School House Rd NE,,Foley,MN,56329.0,USA,3209686597.0,jodi@henryesp.com,http://henryesp.com,30198-000,Embroidery,1/1/02 0:00,,False,A+,100.0,4.0,,False,Micro-small,False,12/21/22 9:22,BBB,200,1
47,447,704,96011592,Nails Group,1351 Madison Ave,,Mankato,MN,56001.0,USA,5073454846.0,,https://www.facebook.com/NailsGroup,60603-000,Nail Salons,1/1/96 0:00,,False,A+,100.0,6.0,,False,Micro-small,False,11/23/21 6:32,BBB,200,1
48,448,704,96069487,Ted's Sign Co,5380 Gull Lake Dam Rd NW,,Brainerd,MN,56401.0,USA,2188292089.0,abcb@scicable.com,http://www.tedssigns.com,30614-000,Signs,1/1/98 0:00,,False,NR,0.0,2.0,0.0,False,Micro-small,False,1/7/22 14:11,BBB,200,1
49,449,704,1000014703,"VonFinch MN, LLC",10611 Baltimore St NE Ste 100,,Minneapolis,MN,55449.0,USA,6515043339.0,steven@vonfinch.com,https://www.vonfinch.com/,25045-000,Real Estate Investors,11/30/97 0:00,,False,A+,100.0,1.0,0.0,False,Micro-small,False,1/7/23 9:07,Email,200,1
50,450,704,96119495,"Hart Trailer Sales, LLC",22783 US 71,,Long Prairie,MN,56347.0,USA,3207326106.0,hart@hartrv.com,http://www.hartrv.com,50535-000,Recreational Vehicles - Dealers,1/1/57 0:00,,False,A+,100.0,5.0,,False,Micro-small,False,12/8/20 4:09,BBB,200,1
51,451,704,96031364,Golden Employment Group,9157 Lyndale Ave S,,Minneapolis,MN,55420.0,USA,9528818069.0,paulhughes@goldenemployment.com,http://www.goldenemployment.com,60326-000,Employment Agencies,1/1/91 0:00,,False,A+,100.0,6.0,,False,Micro-small,False,1/15/21 4:07,BBB,200,1
52,452,704,96225763,Little Falls Granite Works,10802 Highway 10,,Little Falls,MN,56345.0,USA,3206329277.0,brandon@alegacyinstone.com,http://www.lfgranite.com,50436-000,Monuments,12/6/63 0:00,,True,A+,100.0,30.0,,False,Small,False,12/6/22 9:12,BBB,200,1
53,453,704,12802,"Shakopee Marine, Inc",133 Prairie St S,,Shakopee,MN,55379.0,USA,9524454400.0,johnd@shakopeemarinemn.com,http://www.shakopeemarinemn.com,30787-000,Marine Sales & Service,1/16/84 0:00,,False,A+,100.0,2.0,0.0,False,Micro-small,False,10/25/22 8:09,BBB,200,1
54,454,704,43001105,"Quality Carpet Care, LLC",12600 Sunset Trl,,Minneapolis,MN,55441.0,USA,6129617177.0,qualityccr@yahoo.com,http://www.quickdry.com,60184-000,Carpet & Rug Cleaners,5/1/90 0:00,10/10/18 0:00,False,NR,0.0,1.0,,False,Micro-small,False,2/14/19 4:10,BBB,200,1
55,455,704,96381760,Barrett Pet Food Innovations,1348 State Highway 25,,Brainerd,MN,56401.0,USA,3202773555.0,office@barrettpetfood.com,http://www.barrettagservice.com/,30477-000,Pet Foods - Wholesale & Manufacturers,10/15/13 0:00,,False,A+,100.0,15.0,0.0,False,Small,False,4/5/22 8:23,BBB,200,1
56,456,704,96558132,Lowry Hill Psychotherapy and Assesment Center,1910 Hennepin Ave,,Minneapolis,MN,55403.0,USA,6128712544.0,timmsimondet@gmail.com,http://www.lowryhillpac.com,60710-000,Psychologists,10/1/14 0:00,,False,A+,100.0,4.0,0.0,False,Micro-small,False,5/7/20 3:59,BBB,200,1
57,457,704,1000034940,Advanced Drainage Systems,500 2nd Ave SW,,Hayfield,MN,55940.0,USA,6146580050.0,maurygraham@ads-pipe.com,http://www.ads-pipe.com,10043-000,Drainage Contractors,1/1/94 0:00,,False,NR,0.0,90.0,0.0,False,Medium,False,6/1/22 21:27,BBB,200,1
58,458,704,96082550,"Cannonball Company, Inc.",81 E 1st St,,Regent,ND,58650.0,USA,7015634411.0,canball@cannonballcompanynd.com,http://www.cannonballcompany.com,00151-300,Outfitters,1/1/91 0:00,,False,A+,100.0,3.0,0.0,False,Micro-small,False,4/28/21 4:48,BBB,200,1
59,459,704,1000031708,Joe&#39;s Auto Service,81 22nd St E,,Dickinson,ND,58601.0,USA,7014832777.0,JoesAutoservice247@gmail.com,https://joesautoservicellc.com/,60103-000,Auto Repair & Service,10/25/16 0:00,,True,A+,100.0,2.0,,False,Micro-small,False,12/7/22 9:09,BBB,200,1
60,460,704,41003273,Western Distributing,120 W Sweet Ave,,Bismarck,ND,58504.0,USA,7012230154.0,,http://www.westerndistributingco.com,50295-000,Games & Supplies,4/17/01 0:00,,False,A+,100.0,6.0,,False,Micro-small,False,2/7/23 8:59,BBB,200,1
61,461,704,1000005027,"Dawson Veterinary Clinic, LLC",827 Oak St,,Dawson,MN,56232.0,USA,3207692628.0,,http://www.dawsonvetclinic.com/,00222-000,Veterinarians,1/26/04 0:00,,False,NR,0.0,5.0,0.0,False,Micro-small,False,12/20/22 8:56,BBB,200,1
62,462,704,1000031581,Andrew Zurcher Construction,1392 Stoney Point Drive,,Duluth,MN,55804.0,USA,2183402118.0,AnDrew@AnDrewZurcherConstruction.com,https://www.andrewzurcherconstruction.com/,55525-000,Construction,9/4/19 0:00,,False,A+,97.66,1.0,0.0,False,Micro-small,False,9/27/22 8:59,BBB,200,0
63,463,704,96099877,Premier Edge Window Treatment LLC,780 Southtown Center #384,,Bloomington,MN,55431.0,USA,6123786128.0,chris@pei-wt.com,https://www.pei-wt.com/,50735-000,Window Shades,7/30/08 0:00,,False,A+,100.0,3.0,,False,Micro-small,False,11/4/20 4:21,BBB,200,1
64,464,704,1000018065,Twin City Property Sales Team: Keller Williams Integrity Realty - Roseville,2680 E Snelling Ave N. Suite #100,,Saint Paul,MN,55113.0,USA,6512031723.0,pete@tcpropertysales.com,https://www.thetophomesellers.com/,60729-000,Real Estate,3/11/05 0:00,,False,A+,100.0,1.0,0.0,False,Micro-small,False,8/6/21 4:09,BBB,200,0
65,465,704,1000020141,Jennifer Becker & Co. LLC,1161 Selby Ave,,Saint Paul,MN,55104.0,USA,6125085739.0,jbeckerviolins@gmail.com,http://www.jenniferbeckerviolins.org,50711-000,Violins,10/5/06 0:00,,False,A+,100.0,1.0,,False,Micro-small,False,8/3/22 8:42,BBB,200,1
66,466,704,96298560,Southside Auto Sport Auto Innovations,3704 Snelling Ave,,Minneapolis,MN,55406.0,USA,6129649102.0,southside101@live.com,https://www.live.com/,50040-000,Auto Dealers - Used Cars,,,False,NR,0.0,1.0,,False,Micro-small,False,12/30/22 8:56,Email,200,0
67,467,704,96175939,Anchor Wall Systems,5959 Baker Rd Ste 390,,Minnetonka,MN,55345.0,USA,9529338855.0,,https://www.anchorwall.com/,81700-000,Wall & Ceiling Texturing,,,False,A+,100.0,1.0,,False,Micro-small,False,7/23/22 8:43,BBB,200,1
68,468,704,1000017081,"Sage Landscape Design, Inc.",3338 University Ave SE,,Minneapolis,MN,55414.0,USA,6123791747.0,,http://www.sagelandscapedesign.com,00155-000,Landscape Contractors,2/16/06 0:00,,False,A+,100.0,1.0,,False,Micro-small,False,8/6/22 8:22,BBB,200,1
69,469,704,96550666,"Sasquatch Motorsports, LLC",2038 Ford Pkwy # 213,,Saint Paul,MN,55116.0,USA,6123236034.0,sales@sasquatchparts.com,http://www.sasquatchparts.com,60991-000,Auto Service - Specialty Parts,3/3/14 0:00,,True,A+,100.0,3.0,0.0,False,Micro-small,False,2/7/23 8:59,BBB,200,1
70,470,704,96294873,Ruff Start Rescue Inc,12526 319th Ave,,Princeton,MN,55371.0,USA,7633553981.0,info@ruffstartrescue.org,http://www.ruffstartrescue.org,00110-101,Animal Rescue Relocation,3/1/10 0:00,,False,NR,0.0,9.0,0.0,False,Small,False,11/18/22 9:13,BBB,200,1
71,471,704,96074850,"Stone Concepts of Minnesota, Inc.",24800 Kettle River Blvd,,Forest Lake,MN,55025.0,USA,6513432468.0,stoneconceptsofmn@gmail.com,http://www.stoneconceptsofmn.com,10089-000,Mason Contractors,11/1/04 0:00,,False,A+,100.0,1.0,0.0,False,Micro-small,False,10/26/21 3:58,BBB,200,0
72,472,704,96200663,Atlas Capital Management,120 S 6th St # 1000,,Minneapolis,MN,55402.0,USA,6123172850.0,,http://www.atlascapitalmanagement.com,20045-000,Investment Advisory Service,1/1/00 0:00,4/18/16 0:00,False,NR,0.0,3.0,,False,Small,False,4/22/19 4:07,BBB,200,1
73,473,704,96001861,Saint Paul College - A Community & Technical College,235 Marshall Ave,,Saint Paul,MN,55102.0,USA,6518461600.0,Margaret.soukup@saintpaul.edu,http://www.saintpaul.edu,60779-000,Schools - Academic - Colleges & Universities,1/1/03 0:00,,False,A+,100.0,2000.0,,False,Large,False,1/20/22 9:50,BBB,200,1
74,474,704,96366514,Motherhood Maternity,8390 Tamarack Vlg # 502,,Saint Paul,MN,55125.0,USA,6517310686.0,,http://www.motherhood.com,50418-000,Maternity Clothes,1/1/02 0:00,,False,A+,100.0,5.0,0.0,False,Micro-small,False,10/11/22 8:02,BBB,200,1
75,475,704,96158977,"R.Henry Construction, Inc.",1711 Premier Dr,,Mankato,MN,56001.0,USA,5073453007.0,info@rhenryconstruction.com,http://www.rhenryconstruction.com,10035-000,Contractors - General,4/2/99 0:00,,True,A+,97.0,12.0,0.0,False,Micro-small,False,1/27/23 9:08,BBB,200,1
76,476,704,96119542,Twin Rivers Auto Inc,16191 Round Lake Blvd NW Ste 1,,Andover,MN,55304.0,USA,7637121714.0,,http://www.twinriversauto.com,50040-000,Auto Dealers - Used Cars,,6/3/16 0:00,False,NR,0.0,,,False,Micro-small,False,6/10/19 4:04,BBB,200,1
77,477,704,1000038104,"Loan Factory, Inc. ",3015 85th Ave N,,Brooklyn Park,MN,55444.0,USA,6126666000.0,trang.le@loanfactory.com,http://www.loanfactory.com/,20053-200,Mortgage Lender,7/20/16 0:00,,False,NR,0.0,7.0,0.0,False,Micro-small,False,10/27/22 8:14,BBB,200,1
78,478,704,96131156,Pyro-Matic,6162 Olson Memorial Hwy,,Minneapolis,MN,55422.0,USA,7635400192.0,,http://www.pyromatic.com,60558-000,Manufacturers Agents & Representatives,1/1/88 0:00,,False,NR,0.0,3.0,,False,Micro-small,False,7/8/22 12:24,BBB,200,1
79,479,704,96009917,Home Sweet Home Designs Inc,27587 Xylite St NE,,Isanti,MN,55040.0,USA,7634445631.0,joelgrams@homesweethomedesigns.com,http://www.homesweethomedesigns.com,10078-000,Home Builders,1/1/89 0:00,,False,A+,100.0,1.0,,False,Micro-small,False,10/13/22 8:22,BBB,200,1
80,480,704,96086970,The Computer Store,1100 S Broadway,,Minot,ND,58701.0,USA,7018383967.0,gm@tcs-minot.com,http://www.tcs-minot.com,50173-000,Computers - Dealers,1/1/83 0:00,,False,A+,100.0,35.0,0.0,False,Small,False,12/10/21 4:11,BBB,200,1
81,481,704,1000027069,1 LLC,201 S Central Ave,,Duluth,MN,55807.0,USA,2184810615.0,info@1llcduluth.com,http://1llcduluth.com/,10078-000,Home Builders,8/2/17 0:00,,False,NR,0.0,1.0,0.0,False,Micro-small,False,2/1/23 8:58,BBB,200,1
82,482,704,1000027249,"Sun West Mortgage Company, Inc.",1330 Lagoon Ave 4th Floor Ste 132,,Minneapolis,MN,55408.0,USA,8004537884.0,complaints@swmc.com,https://www.swmc.com/,20053-000,Mortgage Brokers,4/4/97 0:00,,True,NR,0.0,1.0,0.0,False,Micro-small,False,6/1/22 21:27,BBB,200,1
83,483,704,1000051247,Northern Exposure Roofing & Sheet Metal Inc,2605 160th St W Ste 112,,Rosemount,MN,55068.0,USA,6514235599.0,,https://www.northernexposureroofing.com/,10126-200,Commercial Roofing,4/18/12 0:00,,False,A+,100.0,1.0,0.0,False,Micro-small,False,1/20/22 9:53,BBB,200,1
84,484,704,1000036504,Lowry Community Acupuncture LLC,8609 Lyndale Ave S Ste 105F,,Bloomington,MN,55420.0,USA,9529946585.0,info@lowrycommunityacupuncture.com,http://www.lowrycommunityacupuncture.com/,60007-000,Acupuncturists,12/17/09 0:00,,False,A+,100.0,1.0,0.0,False,Micro-small,False,6/12/20 4:10,BBB,200,1
85,485,704,96271470,Scan Design,110 Broadway N Ste 1,,Fargo,ND,58102.0,USA,7013650900.0,mary@scandesignnd.com,http://www.scandesignND.com,50291-000,Furniture - Retail,1/1/08 0:00,,False,A+,100.0,3.0,0.0,False,Micro-small,False,4/28/22 8:18,BBB,200,1
86,486,704,1000022122,"Jade Enterprises MN, LLC",975 Highway 10 S,,Saint Cloud,MN,56304.0,USA,6126550322.0,dmolitor@jdbyrider.com,https://www.jdbyrider.com/,44041-000,Entertainment,7/18/18 0:00,,False,NR,0.0,2.0,0.0,False,Micro-small,False,8/18/22 8:21,Email,200,0
87,487,704,96357200,Elements Therapeutic Massage,10165 Hennepin Town Rd # 103,,Eden Prairie,MN,55347.0,USA,9524056220.0,sarahwatau@elementsmassage.com,http://www.touchofelements.com,60543-000,Massage Therapists,2/29/08 0:00,7/1/19 0:00,False,NR,0.0,20.0,,False,Micro-small,False,7/8/22 12:27,BBB,200,1
88,488,704,96293209,Ethic Travel,800 23rd St SE,,Willmar,MN,56201.0,USA,6519642620.0,justin@ethictravel.com,http://www.ethictravel.com,65733-000,Vacation Rentals,11/14/09 0:00,,False,NR,0.0,1.0,,False,Micro-small,False,6/14/22 8:20,BBB,200,0
89,489,704,96075128,Orthopedic Physical Therapy Products,PO Box 47009,,Minneapolis,MN,55447.0,USA,7635530452.0,rcarlson@optp.com,http://www.optp.com,80531-000,Orthopedic Appliances,,,False,A+,100.0,1.0,,False,Small,False,8/3/22 8:41,BBB,200,1
90,490,704,96008967,Peck Construction,11255 70th Ave,,Milaca,MN,56353.0,USA,7634212201.0,MPeck@PeckConstruction.com,https://www.PeckConstruction.com/,10032-000,Concrete Contractors,1/1/83 0:00,5/12/21 0:00,False,NR,0.0,20.0,,False,Small,False,1/29/22 9:44,Email,200,0
91,491,704,96138301,South State Bedding Co,10 Slee St,,Kenyon,MN,55946.0,USA,5077896895.0,,http://www.southstatebedding.com,50069-000,Beds - Retail,1/1/87 0:00,,False,A+,100.0,4.0,0.0,False,Micro-small,False,11/24/22 9:01,BBB,200,1
92,492,704,96255551,David Pinske Design & Build,4216 Crocker Ave,,Minneapolis,MN,55416.0,USA,9529291536.0,pinskebuild@frontiernet.net,https://www.pinskedesignbuild.com/,10035-000,Contractors - General,1/1/93 0:00,,False,A+,100.0,1.0,,False,Micro-small,False,3/30/22 9:07,BBB,200,1
93,493,704,96151149,"Earl J. Holasek & Son, Inc.",8610 Galpin Blvd,,Chanhassen,MN,55317.0,USA,9524746669.0,,http://www.holasekgreenhouse.com,10072-000,Greenhouses,1/1/53 0:00,9/11/14 0:00,False,NR,0.0,7.0,,False,Small,False,3/19/18 4:34,BBB,200,0
94,494,704,17003509,"Sage&#39;s Tune & Lube, Inc.",4239 Central Ave NE,,Minneapolis,MN,55421.0,USA,7637896124.0,sagestowing@live.com,https://www.live.com/,60103-000,Auto Repair & Service,12/14/99 0:00,7/23/19 0:00,False,NR,0.0,5.0,0.0,False,Small,False,7/26/22 8:43,Email,200,0
95,495,704,96192322,Lake Region R V&#39;s Inc,7815 Riverdale Dr NW,,Ramsey,MN,55303.0,USA,7634211419.0,dale@lakeregionrvs.com,http://www.lakeregionrvs.com,50535-000,Recreational Vehicles - Dealers,1/1/06 0:00,,False,A+,100.0,11.0,,False,Micro-small,False,8/3/22 8:42,BBB,200,1
96,496,704,96090836,Downtown Minneapolis Storage,3138 Snelling Ave,,Minneapolis,MN,55406.0,USA,6123337525.0,office@mplsstorage.com,http://www.downtownstorage.com,70610-000,Storage Units - Household & Commercial,1/1/01 0:00,,False,NR,0.0,1.0,0.0,False,Micro-small,False,6/3/22 9:01,BBB,200,1
97,497,704,96026216,Royal Mechanical Inc,9294 Norell Ave N,,Stillwater,MN,55082.0,USA,6514362990.0,cals@royalmechanical.net,http://www.royalmechanical.net,10182-000,Heating & Air Conditioning,3/30/01 0:00,,False,A+,100.0,12.0,,False,Medium,False,11/18/22 9:13,BBB,200,1
98,498,704,96134527,Eugene D Longstrom Real Estate,108 2nd Ave SE,,Pipestone,MN,56164.0,USA,5078252412.0,djrjmr@wowway.com,https://www.wowway.com/,60729-000,Real Estate,2/1/02 0:00,,False,NR,0.0,1.0,,False,Micro-small,False,7/12/22 8:33,Email,200,0
99,499,704,96238799,Brian M Marsden,101 5th St E # 2626,,Saint Paul,MN,55101.0,USA,6512915100.0,brian@brianmarsden.com,http://www.brianmarsden.com,60075-117,Attorneys & Lawyers - Criminal,1/1/94 0:00,,False,A+,100.0,2.0,,False,Micro-small,False,10/30/22 8:34,BBB,200,1
100,500,704,20171,MoneyGram International,address on file with BBB,,Minneapolis,MN,55416.0,USA,9525913000.0,LegalSubpoena@moneygram.com,http://www.moneygram.com,20052-000,Money Orders & Transfers,6/12/40 0:00,,False,NR,0.0,2700.0,,False,Large,False,10/22/22 8:09,BBB,200,1
101,501,704,1000051219,Probe-Tech LLC,2990 Co Rd 2 N,,International Falls,MN,56649.0,USA,2182857400.0,hammertooth@midco.net,https://www.midco.net/,60469-000,Home Inspection Service,2/12/10 0:00,,False,A+,100.0,1.0,,False,Micro-small,False,11/30/22 9:27,Email,200,0
102,502,704,57000268,"Hesch Construction, LLC",3810 Sherman Dr NE,,Bemidji,MN,56601.0,USA,2187513425.0,mhesch@paulbunyan.net,http://heschconstructionllc.com,10035-000,Contractors - General,1/1/81 0:00,,False,A+,100.0,7.0,,False,Micro-small,False,1/27/23 9:08,BBB,200,1
103,503,704,96363955,Stop-N-Go,1225 N Union Ave,,Fergus Falls,MN,56537.0,USA,7012353472.0,,http://www.stopngo.com,50199-000,Convenience Stores,6/1/74 0:00,6/3/16 0:00,False,NR,0.0,15.0,,False,Small,False,6/10/19 4:04,BBB,200,1
104,504,704,1000020646,Houlihan Insurance & Financial Services Inc,885 Meander Ct,,Medina,MN,55340.0,USA,7634785111.0,marianne@mariannehoulihan.com,https://www.statefarm.com/agent/us/mn/hamel/marianne-houlihan-6fdr01ys000,20019-200,Insurance Agents,1/5/05 0:00,,False,A+,100.0,1.0,0.0,False,Micro-small,False,10/23/21 3:59,BBB,200,1
105,505,704,96159923,Stoen&#39;s Hydrostatic,16084 State Highway 29,,Glenwood,MN,56334.0,USA,3206344360.0,,http://www.stoens.com,50667-000,Tools - Hydraulic,1/1/98 0:00,,False,A+,100.0,5.0,0.0,False,Micro-small,False,8/4/22 8:30,BBB,200,1
106,506,704,96554344,Sunflake,5001 Edinbrook Ter Unit 431180,,Minneapolis,MN,55443.0,USA,6122132240.0,info@sunflakeelectric.com,http://sunflakeelectric.com/,10049-000,Electricians,5/5/08 0:00,,False,A+,100.0,5.0,0.0,False,Micro-small,False,9/29/22 8:50,BBB,200,1
107,507,704,96003107,Industrial Equities,321 1st Ave N,,Minneapolis,MN,55401.0,USA,6123321122.0,,http://www.industrialequities.com,60729-000,Real Estate,5/27/03 0:00,,False,A+,100.0,6.0,,False,Micro-small,False,6/17/22 8:35,BBB,200,1
108,508,704,1000054170,Gopher State Seamless Gutters Ltd.,1116 144th Ln NW,,Andover,MN,55304.0,USA,7637322342.0,gopherstateseamless@gmail.com,https://gopherstateseamless.com/,10073-400,Gutter Installation,7/18/16 0:00,,True,A+,100.0,1.0,,False,Micro-small,False,2/2/23 8:53,BBB,200,1
109,509,704,1000060925,Blessed Healthiness ,7635 148th st w #261,,Apple valley,MN,55124.0,USA,8882928811.0,Ceo@blessedhealthiness.com,https://blessedhealthiness.com/,81000-850,CBD Products,,,False,NR,0.0,1.0,,False,Micro-small,False,11/16/22 9:43,BBB,200,1
110,510,704,96005208,"Empire Today, LLC",2015 Silver Bell Rd Ste 104,,Eagan,MN,55122.0,USA,8005882300.0,customersupport@empire-today.com,http://www.empiretoday.com,50133-000,Carpet & Rug Dealers - New,1/1/56 0:00,,True,NR,0.0,8.0,,False,Micro-small,False,1/19/23 8:51,BBB,200,1
111,511,704,1000018781,China Wok,2800 27th Ave S,,Minneapolis,MN,55406.0,USA,6125058337.0,,http://www.chinawokmn.com/,50544-000,Restaurants,6/26/18 0:00,,False,NR,0.0,,0.0,False,Micro-small,False,7/29/21 4:37,BBB,200,1
112,512,704,96595854,Sweet Harvest Foods,15100 Business Parkway,,Rosemount,MN,55068.0,USA,5072638599.0,info@sweetharvestfoods.com,http://www.sweetharvestfoods.com/,30790-000,"Food Manufacturers, Wholesalers, Distributors",9/20/10 0:00,,False,A+,100.0,,0.0,False,Micro-small,False,3/7/20 4:19,BBB,200,1
113,513,704,96560726,"Lundebrek Electric, LLC",21513 255th Ave,,Starbuck,MN,56381.0,USA,3202984770.0,lundebrek48@yahoo.com,http://lundebrekelectric.com/index.htm,10049-000,Electricians,,,False,A+,100.0,1.0,0.0,False,Micro-small,False,6/8/22 8:45,BBB,200,1
114,514,704,96018964,Schmitt  Enterprises Inc,12799 County Road 24,,New Ulm,MN,56073.0,USA,5073594149.0,,http://www.schmittent.com,50679-000,Trapping Equipment & Supplies,1/1/98 0:00,,False,NR,0.0,2.0,,False,Micro-small,False,2/4/21 4:06,BBB,200,1
115,515,704,96161231,Tax-Xperts,4166 31st Ave S,,Fargo,ND,58104.0,USA,7013564370.0,,http://www.tax-xpert.net,60005-101,Accounting Services,3/14/07 0:00,,False,A+,100.0,2.0,,False,Micro-small,False,2/18/22 9:11,BBB,200,0
116,516,704,1000045258,"Black Ladder Restoration, LLC",150 32nd Ave NW,,New Brighton,MN,55112.0,USA,6122037553.0,info@blackladder.com,https://www.blackladder.com/,10126-000,Roofing Contractors,12/11/20 0:00,,True,A,95.03,1.0,,False,Micro-small,False,12/16/22 9:11,BBB,200,1
117,517,704,96051626,Lavigne Consulting Corporation,1730 New Brighton Blvd Ste 299,,Minneapolis,MN,55413.0,USA,6127810189.0,matt@lavigneconsulting.com,http://www.lavigneconsulting.com,60246-000,Computers - Sys Designers & Consult,5/20/04 0:00,,False,A+,100.0,1.0,0.0,False,Micro-small,False,10/23/21 3:59,BBB,200,0
118,518,704,1000001709,Land O&#39; Lakes Oil & Propane,22562 State Highway 15,,Saint Cloud,MN,56301.0,USA,3203985455.0,lollando@meltel.net,http://landolakesoil.com/,50464-000,Oils - Fuel,2/10/32 0:00,,False,A+,100.0,1.0,0.0,False,Micro-small,False,12/8/22 9:14,BBB,200,1
119,519,704,96003234,Farmington Bakery,212 Oak St,,Farmington,MN,55024.0,USA,6514638631.0,simplygking@aol.com,http://www.farmingtonbakery.net,50052-000,Bakers - Retail,1/1/41 0:00,,False,A+,100.0,7.0,,False,Micro-small,False,9/24/20 4:02,BBB,200,1
120,520,704,96098425,Choice Printed Products Inc,7500 Market Place Dr Ste C,,Eden Prairie,MN,55344.0,USA,9529420045.0,info@choicepp.com,https://www.facebook.com/ChoicePrintedProductsInc/,30785-000,Wholesalers & Distributors,8/1/88 0:00,,False,A+,100.0,4.0,,False,Micro-small,False,6/30/21 5:47,BBB,200,1
121,521,704,96007555,"Cy-Con, Inc.",110 Sycamore St W,,Saint Paul,MN,55117.0,USA,6514880501.0,home@cy-con.com,http://www.cy-con.com,10177-000,Construction & Remodeling Services,2/6/69 0:00,,True,A+,100.0,10.0,,False,Small,False,2/7/23 8:59,BBB,200,1
122,522,704,96552563,"The Lakeland Companies, LLC",5735 Lindsay St,,Minneapolis,MN,55422.0,USA,8555440321.0,,http://www.lakelandcompanies.com/,80266-000,Electric Equipment & Supplies - Wholesale,9/5/14 0:00,,False,NR,0.0,1.0,0.0,False,Small,False,2/27/22 9:14,BBB,200,0
123,523,704,43003323,Koch Construction Inc,1601 S 12th St,,Bismarck,ND,58504.0,USA,7012221533.0,KochConstructionInc@bis.midco.net,http://www.kochconstruction.org,10035-000,Contractors - General,1/1/84 0:00,,False,A+,100.0,7.0,,False,Small,False,9/23/20 4:48,BBB,200,1
124,524,704,96489199,Premier Patio,1873 French Trace Ave,,Shakopee,MN,55379.0,USA,6126002153.0,premierpatiosmn@yahoo.com,http://www.premierpatiosmn.com,10100-000,"Patio, Porch & Deck Enclosures",,,False,A+,100.0,,,False,Micro-small,False,9/18/20 3:49,BBB,200,0
125,525,704,96592112,"Keep Construction, LLC",1819 20th Ave NW,,Backus,MN,56435.0,USA,2189473605.0,dkeep@tds.net,http://keepconstruction.net/,10035-000,Contractors - General,1/1/87 0:00,,False,A+,100.0,3.0,0.0,False,Micro-small,False,11/24/22 9:01,BBB,200,1
126,526,704,24001210,"Focus Electrical Contractors, LLC",14220 23rd Ave N,,Minneapolis,MN,55447.0,USA,9524749077.0,info@focuscos.com,http://focuscos.com/,44035-000,Electrical,11/1/97 0:00,,True,A+,100.0,4.0,,False,Micro-small,False,7/16/22 8:36,BBB,200,1
127,527,704,96113633,"DeCook Excavating, Inc.",821 Country Club Rd SE # Se1,,Byron,MN,55920.0,USA,5073614870.0,Chris@DeCookExcavating.com,http://www.decookexcavating.com,10050-000,Excavating Contractors,1/1/04 0:00,,True,A+,100.0,4.0,0.0,False,Micro-small,False,12/14/22 9:35,BBB,200,1
128,528,704,96224198,Mid-State Tile Company,402 Lincoln Ave NE,,Saint Cloud,MN,56304.0,USA,3202521242.0,kim@mid-statetile.com,http://www.mid-statetile.com,10159-000,Tile - Ceramic - Contractors & Dealers,1/1/84 0:00,,False,A+,100.0,6.0,,False,Micro-small,False,11/30/22 9:26,BBB,200,1
129,529,704,96536992,"Dream Steam, Inc.",315 Atwater Street,,Saint Paul,MN,55117.0,USA,6513403484.0,john@dreamsteammn.com,http://www.dreamsteammn.com,60184-000,Carpet & Rug Cleaners,1/29/14 0:00,,False,A+,100.0,2.0,,False,Micro-small,False,12/16/22 9:10,BBB,200,1
130,530,704,1000011831,Reeder Home Restorations,3115 Buchanan St NE,,Minneapolis,MN,55418.0,USA,6122368230.0,marissa@reederhomerestorations.com,http://www.reederhomerestorations.com,10095-000,Painting Contractors,2/4/17 0:00,,False,A+,100.0,1.0,,False,Micro-small,False,9/30/22 8:54,BBB,200,1
131,531,704,96294308,"The Whisker Group, Inc.",14420 Woodruff,,Wayzata,MN,55391.0,USA,6129611732.0,steven@thewhiskergroup.com,http://www.thewhiskergroup.com,10177-000,Construction & Remodeling Services,1/1/97 0:00,,False,A+,100.0,1.0,0.0,False,Micro-small,False,8/24/22 18:34,BBB,200,1
132,532,704,24000993,Axel's River Grille,1318 Hwy 13,,Mendota,MN,55150.0,USA,9528531400.0,,http://www.axelsrestaurants.com,50544-000,Restaurants,1/1/96 0:00,,False,A+,100.0,60.0,,False,Medium,False,12/9/21 4:06,BBB,200,1
133,533,704,1000003354,Security Plus,2198 Clinton Dr,,Winona,MN,55987.0,USA,5074525292.0,joy@securitypluswinona.com,http://www.securitypluswinona.com,60172-109,Consultants - Security,7/23/10 0:00,,False,NR,0.0,1.0,0.0,False,Micro-small,False,1/6/23 9:12,BBB,200,1
134,534,704,96556367,Tournament Liquor,10901 Baltimore Street NE,,Blaine,MN,55449.0,USA,7637864992.0,,http://tournamentliquor.com/,50399-000,Liquor Stores,12/18/14 0:00,,False,NR,0.0,1.0,0.0,False,Small,False,8/18/21 5:25,BBB,200,1
135,535,704,96001707,1-800-Cut-Tree,3818 Pascolo Bnd,,Chaska,MN,55318.0,USA,9529372182.0,one800cuttree@yahoo.com,http://www.one800cuttree.com,00219-000,Tree Service,3/22/01 0:00,,False,A+,100.0,1.0,,False,Small,False,11/15/22 9:11,BBB,200,1
136,536,704,747,Martin Williams Advertising,150 S 5th St STE 900,,Minneapolis,MN,55402.0,USA,6123400800.0,accountspayable@martinwilliams.com,http://www.martinwilliams.com,60010-000,Advertising Agencies & Counselors,12/1/47 0:00,,True,A+,100.0,200.0,0.0,False,Medium,False,2/1/23 8:57,BBB,200,1
137,537,704,1000009867,BearFitness,1873 Buerkle Rd,,White Bear Lk,MN,55110.0,USA,6124607473.0,jake@bearfitnessmn.com,http://bearfitnessmn.com/,60430-100,Fitness Centers,11/4/16 0:00,,False,A+,100.0,1.0,0.0,False,Micro-small,False,12/31/22 8:59,BBB,200,1
138,538,704,96121530,"Summit Roofing and Construction, Inc.",1047 W Central Ave,,Minot,ND,58701.0,USA,7018335948.0,cameronb_89@hotmail.com,https://www.facebook.com/photo/?fbid=237989848024837&set=a.237989841358171,10126-000,Roofing Contractors,4/23/09 0:00,,True,A+,100.0,10.0,0.0,False,Small,False,6/7/22 8:09,BBB,200,1
139,539,704,1000039972,Massage Envy,4754 County Rd 101,,Minnetonka,MN,55345.0,USA,9523801100.0,,https://www.massageenvy.com/scheduling/css/profile/dashboard,60543-000,Massage Therapists,8/19/20 0:00,,False,A,96.09,1.0,,False,Micro-small,False,1/25/23 9:01,BBB,200,1
140,540,704,41000054,Southtown Plumbing,6636 Penn Ave S,,Minneapolis,MN,55423.0,USA,6128663057.0,stplumbing@mcleodusa.net,http://www.SouthtownPlumbing.com,10113-000,Plumbers,9/1/63 0:00,,False,A+,100.0,5.0,,False,Micro-small,False,12/15/22 9:20,BBB,200,1
141,541,704,57000342,"JKL Studios, LLC",5869 Meadowview Dr,,Saint Paul,MN,55110.0,USA,6516530811.0,retoucher@jklstudios.com,http://www.jklstudios.com,60655-000,Photo Retouching,4/14/97 0:00,,False,A+,100.0,2.0,,False,Small,False,8/15/20 3:54,BBB,200,0
142,542,704,21001463,Lakeland Services,PO Box 132,,Excelsior,MN,55331.0,,6122727000.0,calilen@msn.com,http://www.lakelandservices.biz,20060-210,Home Maintenance,12/1/87 0:00,,False,A+,97.0,1.0,,False,Micro-small,False,2/9/23 9:11,BBB,200,1
143,543,704,96381876,Vue Eye Clinic,1165 Arcade St,,Saint Paul,MN,55106.0,USA,6514140428.0,vueeyeclinic@gmail.com,https://www.facebook.com/VueEyeClinic/,60629-000,Optometrists,1/1/12 0:00,,False,A+,100.0,3.0,,False,Micro-small,False,10/16/20 4:00,BBB,200,1
144,544,704,96561286,"Discount Realty Professionals, LLC",22833 Imperial Ave N,,Forest Lake,MN,55025.0,USA,6515033790.0,discountrealtypros@gmail.com,http://www.discountrealtyprofessionals.com,60729-102,Real Estate Agents,7/16/13 0:00,,False,A+,100.0,1.0,0.0,False,Micro-small,False,10/26/21 3:58,BBB,200,1
145,545,704,38000150,Ye Olde Butcher Shoppe,902 7th St NW,,Rochester,MN,55901.0,USA,5072825908.0,terry@area51online.net,http://www.yeoldebutchershoppe.com,50421-000,Meat - Retail,6/24/98 0:00,,False,A+,100.0,15.0,0.0,False,Small,False,4/29/21 4:07,BBB,200,1
146,546,704,96156941,Annandale Monument Company,205 Myrtle Dr S,,Annandale,MN,55302.0,USA,8887865100.0,Vincent@AnnandaleMonument.com,http://www.granitemn.com,50436-000,Monuments,2/19/77 0:00,,False,A+,100.0,3.0,0.0,False,Micro-small,False,12/21/22 9:22,BBB,200,1
147,547,704,1000007457,GW Transportation,710 Johnson Dr,,Delano,MN,55328.0,USA,8772601595.0,dawn.mohler@gwtranserv.com,http://www.gwtransportation.com/,50750-000,Transportation Services,4/1/83 0:00,,False,A+,100.0,8.0,0.0,False,Micro-small,False,1/19/23 8:51,BBB,200,1
148,548,704,96592934,High Fashion & Events LLP,10732 Ilex St NW,,Coon Rapids,MN,55448.0,USA,6122053043.0,,http://www.high-fashionandevents.com,60362-000,Fashion Show Producers,10/2/14 0:00,,False,NR,0.0,,0.0,False,Micro-small,False,3/15/21 4:04,BBB,200,1
149,549,704,96157181,Deeter Dental,745 W Interstate Ave,,Bismarck,ND,58503.0,USA,7012221800.0,,http://www.deeterdental.com,60289-000,Dentists,10/19/05 0:00,,False,A+,100.0,12.0,0.0,False,Small,False,12/8/22 9:13,BBB,200,0
150,550,704,1000031744,Robert Muske-RE/MAX Synergy,920 W Broadway Ave,,Forest Lake,MN,55025.0,USA,6519821233.0,bobmuske@remax.net,http://musketeam.com,60729-102,Real Estate Agents,1/24/12 0:00,,True,A+,100.0,1.0,0.0,False,Micro-small,False,9/23/22 8:47,BBB,200,1
151,551,704,1000005448,Paul Thomas Design Build,26 Kingsview Ln,,Minnetonka,MN,55447.0,USA,6122509400.0,paul@paulthomasdesignbuild.com,http://www.paulthomasdesignbuild.com,10013-100,Design & Build Contractor,9/28/11 0:00,,False,A+,100.0,1.0,0.0,False,Micro-small,False,2/8/23 9:28,BBB,200,1
152,552,704,96114618,"King's Flooring, LLC",185 High Point Pl NE Ste 102,,Byron,MN,55920.0,USA,5076240237.0,info@kingsflooringbyronmn.com,http://www.kingsflooringbyronmn.com,50133-000,Carpet & Rug Dealers - New,1/1/08 0:00,,False,A+,100.0,1.0,,False,Micro-small,False,5/11/22 17:38,BBB,200,1
153,553,704,1000041358,"Climate Tech, LLC",14702 Excelsior Blvd,,Minnetonka,MN,55345.0,USA,6129876541.0,climatetechmn@gmail.com,https://www.climatetechmn.com/,10182-000,Heating & Air Conditioning,8/8/19 0:00,,False,A+,98.44,1.0,0.0,False,Micro-small,False,12/22/22 9:09,BBB,200,1
154,554,704,1000015365,North State Mechanical LLC,1444 14th St W,,Hastings,MN,55033.0,USA,6122070345.0,ttlogelin@yahoo.com,http://www.northstatemechanicalmn.com,10090-000,Mechanical Contractors,5/19/16 0:00,,False,A+,97.0,1.0,0.0,False,Micro-small,False,9/16/22 8:15,BBB,200,1
155,555,704,1000057642,Carpenter Law Firm PLLC,7760 France Ave S Ste 700,,Bloomington,MN,55435.0,USA,9529217340.0,mark@carpenter-law-firm.com,http://www.carpenter-law-firm.com/,60075-000,Attorneys & Lawyers,9/25/13 0:00,,False,A+,100.0,1.0,0.0,False,Micro-small,False,9/10/22 8:41,BBB,200,1
156,556,704,96271942,Clay Your Way,4600 17th Ave S,,Fargo,ND,58103.0,USA,7013569229.0,,http://www.Clayyourway.com,50341-000,Hobby & Model Construction Supplies - Retail,4/1/01 0:00,,False,NR,0.0,5.0,0.0,False,Micro-small,False,8/20/22 8:40,BBB,200,1
157,557,704,96163391,Broadway Floral,2307 S Broadway St,,Alexandria,MN,56308.0,USA,3207633300.0,contactbroadwayfloral@gmail.com,http://www.broadwayfloralalexandria.com,50275-000,Florists - Retail,1/1/75 0:00,,False,A+,100.0,10.0,0.0,False,Micro-small,False,7/14/22 8:24,BBB,200,1
158,558,704,96332900,"Fiduciary Support Services, LLC",PO Box 16210,,Saint Louis Park,MN,55416.0,USA,9529228972.0,,http://www.lorimanningfiduciary.com,20085-000,Financial Services,,,False,A+,100.0,1.0,,False,Micro-small,False,2/1/23 22:06,BBB,200,1
159,559,704,44002029,Apothecary Products LLC,11750 12th Ave S,,Burnsville,MN,55337.0,USA,9528901940.0,dneiss@apothecaryproducts.com,http://www.apothecaryproducts.com,80385-100,Medical Equipment & Supplies,1/1/75 0:00,,False,A+,100.0,101.0,,False,Small,False,9/30/22 8:53,BBB,200,1
160,560,704,1000051518,"Rhythm of Health, Inc.","8160 Coller Way, Suite A",,Saint Paul,MN,55125.0,USA,6512081084.0,,https://rhythmofhealth.com/,60007-000,Acupuncturists,2/24/10 0:00,,False,A+,100.0,1.0,,False,Micro-small,False,12/16/21 4:10,BBB,200,0
161,561,704,1000057944,House of Dance Twin Cities,7103 Ohms Ln,,Edina,MN,55439.0,USA,9524059104.0,houseofdancetc@gmail.com,https://houseofdancetwincities.com/,60278-000,Dancing Instruction,6/17/14 0:00,,False,A+,97.0,1.0,,False,Micro-small,False,10/22/22 8:10,BBB,200,1
162,562,704,96103189,Cycle Pros,2040 Highway 14 E,,Rochester,MN,55904.0,USA,5072871070.0,sirwilli@charterinternet.com,https://www.allseasonspowerandsport.com/,50442-000,Motorcycles - Supplies & Parts,1/1/91 0:00,,False,A+,100.0,4.0,,False,Micro-small,False,12/22/22 9:08,BBB,200,1
163,563,704,35000423,Totally Tan,12671 Meadowvale Rd Suite B,,Elk River,MN,55330.0,USA,7633559260.0,kimlingerchristie@totallytan.net,http://www.totallytan.net,60853-000,Tanning Salons,1/1/99 0:00,,False,F,46.0,113.0,0.0,False,Small,False,9/12/22 8:08,BBB,200,1
164,564,704,96118257,Monti 4 Theatre,137 E. Broadway St.,,Monticello,MN,55362.0,USA,,,http://www.discovermonticello.com,60874-000,Theaters,1/1/00 0:00,,False,NR,0.0,8.0,0.0,False,Micro-small,False,3/27/21 4:08,BBB,200,0
165,565,704,43001643,"A & A Electric Underground Construction, Inc.",100 9th St SE,,Kasson,MN,55944.0,USA,5076347453.0,aanda@kmtel.com,http://aaelectricunderground.com/,10049-000,Electricians,2/1/94 0:00,,True,A+,100.0,70.0,0.0,False,Micro-small,False,12/22/22 9:08,BBB,200,1
166,566,704,1000048185,"Triumph LTD, LLC",211 NW 4th St,,Brainerd,MN,56401.0,USA,2188516038.0,Jeff@triumph-ltd.com,http://www.Triumph-LTD.com,55336-000,Health & Medical Products,2/1/17 0:00,,True,A+,100.0,2.0,,False,Micro-small,False,10/25/22 8:11,BBB,200,1
167,567,704,96271411,Buhler Industries,1330 43rd St N,,Fargo,ND,58102.0,USA,7012827014.0,,http://Buhler.com,80283-000,Farm Equipment,1/1/84 0:00,,False,A+,100.0,50.0,0.0,False,Micro-small,False,4/24/22 8:09,BBB,200,1
168,568,704,96149808,Provide Care,5842 Old Main St # 1,,North Branch,MN,55056.0,USA,6516748312.0,,http://www.providecare.com,60199-000,Child Care Centers,1/1/96 0:00,,False,A+,100.0,75.0,,False,Micro-small,False,6/4/22 8:44,BBB,200,1
169,569,704,96151717,Baywood Home Care,6465 Wayzata Blvd Ste 150,,Saint Louis Park,MN,55426.0,USA,7635468899.0,henriettan@baywoodhomecare.com,http://www.baywoodhomecare.com,85273-000,In-Home Care,3/30/00 0:00,,True,A+,100.0,180.0,,False,Micro-small,False,1/5/23 9:23,BBB,200,1
170,570,704,96142605,Cashman Nursery & Landscaping,3400 E Main Ave,,Bismarck,ND,58501.0,USA,7012223333.0,,http://www.cashman-nursery.com,50299-000,Garden Centers,1/1/86 0:00,,False,A+,100.0,40.0,0.0,False,Small,False,5/19/22 8:39,BBB,200,1
171,571,704,96041736,"Carlson Asset Management, Inc.",400 Village Center Dr # 400,,Saint Paul,MN,55127.0,USA,6512872160.0,,http://www.carlsonasset.com/,20085-000,Financial Services,1/1/05 0:00,,False,A+,100.0,3.0,,False,Micro-small,False,5/3/22 8:15,BBB,200,1
172,572,704,1000014334,"Green Locksmith, LLC",10992 Cedar Lake Rd,,Minnetonka,MN,55305.0,USA,9526496163.0,greenlocksmithmn@gmail.com,http://greenlocksmith247.com/,60522-000,Locks & Locksmiths,3/28/16 0:00,,False,NR,0.0,3.0,0.0,False,Micro-small,False,2/8/23 9:28,BBB,200,1
173,573,704,1000008274,B T Contracting Services LLC,3623 Aldrich Ave North,,Minneapolis,MN,55412.0,USA,6517958671.0,bernardrturner@yahoo.com,https://www.facebook.com/BTContractingServicesLLC/,10177-000,Construction & Remodeling Services,1/5/15 0:00,,False,A+,97.0,1.0,0.0,False,Micro-small,False,6/19/20 3:47,BBB,200,0
174,574,704,96295305,Hosedragger Production,722 Martha St S,,Stillwater,MN,55082.0,USA,6512707811.0,hosedragger@bisi.com,https://www.bisi.com/,85268-000,Grant Writers,,,False,NR,0.0,1.0,,False,Micro-small,False,6/8/22 8:46,Email,200,0
175,575,704,44001284,Minnesota Recovery Bureau Inc,6781 146th St W,,Apple Valley,MN,55124.0,USA,9529537376.0,mnrecbur@prodigy.net,http://www.mnrecoverybureau.com,60750-000,Repossession Service,1/1/99 0:00,,False,A+,100.0,4.0,,False,Small,False,2/7/23 8:59,BBB,200,1
176,576,704,21003884,Czars of Tar,1354 157th Ave NE,,Ham Lake,MN,55304.0,USA,7634216417.0,office@czarsoftar.com,http://www.czarsoftar.com,10102-000,Paving Contractors,1/1/84 0:00,,False,A+,100.0,10.0,0.0,False,Small,False,7/26/22 8:43,BBB,200,1
177,577,704,41000734,Abens Financial Services,4926 Lincoln Dr,,Minneapolis,MN,55436.0,USA,9529339650.0,,http://www.abens.com,20013-000,Financing,6/20/96 0:00,,False,NR,0.0,4.0,,False,Micro-small,False,12/2/22 9:28,BBB,200,1
178,578,704,96580865,"Hansen Auto Service, Inc.",4213 Steiner St,,Saint Bonifacius,MN,55375.0,USA,9524461573.0,info@hansenautoservice.com,http://www.hansenautoservice.com,60103-000,Auto Repair & Service,3/6/14 0:00,,False,A+,100.0,2.0,0.0,False,Small,False,11/20/22 8:59,BBB,200,1
179,579,704,96364524,Mad Dog Paint Products Inc,309 Plum St N,,Northfield,MN,55057.0,,8553977463.0,info@maddogprimer.com,http://maddogprimer.com/,50475-000,Painters Equipment & Supplies,1/1/09 0:00,,False,A+,100.0,2.0,,False,Micro-small,False,2/9/23 9:11,BBB,200,1
180,580,704,96118784,"Rainbow, Inc.",7324 36th Ave N,,Minneapolis,MN,55427.0,USA,7635354041.0,jordorff@rainbowincmn.com,http://www.rainbowincmn.com,10095-000,Painting Contractors,2/8/60 0:00,,False,A+,100.0,70.0,,False,Micro-small,False,2/26/22 9:34,BBB,200,1
181,581,704,96030154,Methven-Taylor Funeral Homes-Miller Brighton Chapel,706 4th Ave NW,,Saint Paul,MN,55112.0,USA,6516369821.0,,http://www.methven-taylor.com,60388-000,Funeral Directors,9/18/52 0:00,,False,A+,100.0,6.0,,False,Micro-small,False,4/21/22 8:28,BBB,200,1
182,582,704,1000006150,Teeny Bee Boutique LLC,1560 Selby Ave,,Saint Paul,MN,55104.0,USA,6126442540.0,teenybeeboutique@gmail.com,http://www.teenybeeboutique.com,50418-000,Maternity Clothes,6/11/12 0:00,,False,A+,100.0,1.0,0.0,False,Micro-small,False,1/5/23 9:23,BBB,200,1
183,583,704,15002301,Reprocessing Products Corporation (RPC),6901 E Fish Lake Rd Ste 150,,Maple Grove,MN,55369.0,USA,8006473873.0,lhoffman@rpc-rabrenco.com,http://www.rpc-rabrenco.com,30784-000,Manufacturers & Producers,1/1/91 0:00,,True,A+,100.0,30.0,,False,Micro-small,False,1/11/23 9:00,BBB,200,1
184,584,704,96536093,Clear Day Professional Cleaning Inc,14957 Pixie Point Circ SE,,Prior Lake,MN,55372.0,USA,6123696948.0,justin@cleardaywindowcleaning.com,https://www.cleardaywindowcleaning.com/index.html,60954-000,Window Cleaning,4/2/03 0:00,,False,A+,100.0,2.0,,False,Micro-small,False,1/18/23 9:32,BBB,200,1
185,585,704,96144321,Tint-Man LLC,220 8th Ave SE,,Minot,ND,58701.0,USA,7017201519.0,tintmanmail12@yahoo.com,https://www.facebook.com/TintMan-416550168391020/timeline,60996-000,Auto Service - Window Tinting,1/1/06 0:00,,False,A+,100.0,1.0,0.0,False,Micro-small,False,2/10/22 9:44,BBB,200,1
186,586,704,96028622,Cycles for Change,2010 26th Ave S,,Minneapolis,MN,55406.0,USA,6512222080.0,,http://www.cyclesforchange.org,50074-000,Bicycle - Dealers,7/3/96 0:00,,False,A+,100.0,10.0,,False,Micro-small,False,6/3/22 9:01,BBB,200,1
187,587,704,1000026285,Swainhart Construction Services LLC,4136 Longfellow Ave,,Minneapolis,MN,55407.0,USA,6128019480.0,jeffrey@swainhart.com,http://www.swainhart.com,10035-000,Contractors - General,3/19/04 0:00,,False,A+,100.0,1.0,0.0,False,Micro-small,False,5/26/21 4:35,BBB,200,1
188,588,704,96177218,Rife's Stop 'N Shop,320 Minnesota Ave W.,,Sebeka,MN,56477.0,USA,2188375455.0,rifechevy@wcta.net,https://www.wcta.net/,50199-000,Convenience Stores,1/1/76 0:00,,False,A+,100.0,12.0,,False,Medium,False,4/8/21 4:08,Email,200,0
189,589,704,96380951,"Premium Concrete, LLC",378 Kamnic St,,Pierz,MN,56364.0,USA,3204680309.0,cm@premiumconcretemn.com,http://www.premiumconcretemn.com,10032-000,Concrete Contractors,1/14/11 0:00,,False,A+,100.0,3.0,,False,Micro-small,False,1/24/23 8:58,BBB,200,1
190,590,704,96364896,Natural Shore Technologies Inc,6275 Pagenkopf Road,,Maple Plain,MN,55359.0,USA,6127037581.0,rob.l@naturalshore.com,http://www.naturalshore.com,00155-000,Landscape Contractors,2/1/02 0:00,,False,A+,100.0,2.0,,False,Micro-small,False,4/22/21 4:10,BBB,200,1
191,591,704,1000030452,CDL America LLC,2540 4th St N Ste 201,,Dickinson,ND,58601.0,USA,7012605840.0,cdlamerica@protonmail.com,https://www.protonmail.com/,70637-000,Trucking - Heavy Hauling,8/30/19 0:00,7/22/21 0:00,False,NR,0.0,,0.0,False,Micro-small,False,7/25/21 4:13,Email,200,0
192,592,704,1000036517,Numinous Birth Services LLC,1328 Searle St.,,Saint Paul,MN,55130.0,USA,6127083761.0,,https://www.facebook.com/NuminousServices/,44102-000,Pregnancy,1/2/20 0:00,,False,A+,97.0,1.0,0.0,False,Micro-small,False,10/20/22 8:11,BBB,200,1
193,593,704,96161902,Asera Care Home Health,5001 American Blvd W # 640,,Minneapolis,MN,55437.0,USA,9528355314.0,david.sneen@aseracare.com,http://www.aseracare.com,60971-000,Health & Medical - General,8/3/05 0:00,10/28/21 0:00,False,NR,0.0,10.0,,False,Small,False,10/30/21 4:02,BBB,200,1
194,594,704,1000040040,Erdman Automation Corp,1603 14th St S,,Princeton,MN,55371.0,USA,7633899475.0,,https://www.erdmanautomation.com/,30370-000,Machinery - New,11/15/93 0:00,,False,A+,100.0,50.0,,False,Micro-small,False,3/24/22 8:32,BBB,200,1
195,595,704,96017806,Fraser-Morris Electric Co.,250 2nd Ave S Ste 109,,Minneapolis,MN,55401.0,USA,6123324328.0,rmorris@frasermorris.com,http://www.frasermorris.com/index.html,10049-000,Electricians,1/1/84 0:00,,False,A+,100.0,50.0,,False,Small,False,9/16/22 8:14,BBB,200,1
196,596,704,96378365,American Family Insurance,2110 E Thayer Ave,,Bismarck,ND,58501.0,USA,7012220768.0,,http://www.amfam.com/default.asp,20019-200,Insurance Agents,1/1/86 0:00,,False,NR,0.0,4.0,0.0,False,Micro-small,False,2/21/21 3:57,BBB,200,1
197,597,704,1000015767,Minne-Mex Construction LLC,1000 Washburn Ave N,,Minneapolis,MN,55411.0,USA,6129905435.0,marque@minnemex.com,http://minnemex.com/,10035-000,Contractors - General,,,False,A+,100.0,1.0,0.0,False,Micro-small,False,6/14/22 8:20,BBB,200,1
198,598,704,96274859,Northern Prairie Wildlife,8711 37th St SE,,Jamestown,ND,58401.0,USA,7012535500.0,npwrc@usgs.gov,http://www.npwrc.usgs.gov,60037-000,Amusement Parks & Places,1/1/00 0:00,,False,NR,0.0,10.0,,False,Small,False,4/12/22 9:15,BBB,200,1
199,599,704,96561793,"Skaalvenn Distillery, LLC",8601 73rd Ave N,,Brooklyn Park,MN,55428.0,USA,6515929195.0,media@skaalvenn.com,http://www.skaalvenn.com,30164-000,Distillers,4/3/14 0:00,,False,A+,100.0,1.0,0.0,False,Small,False,3/5/20 4:18,BBB,200,1
200,600,704,1000047625,Guardian Billing LLC,1715 Fox Run,,Shakopee,MN,55379.0,USA,6127303502.0,,https://guardianbill.com/,60548-100,Medical Billing Services,4/4/18 0:00,,False,A+,100.0,1.0,,False,Micro-small,False,9/28/22 10:19,BBB,200,1
201,601,704,96116829,Domino's Pizza,1380 9th St E # 605,,West Fargo,ND,58078.0,USA,7012828055.0,kyoung@ideaone.net,http://www.dominos.com,50502-000,Pizza ,3/1/80 0:00,,False,B-,80.0,20.0,,False,Small,False,3/30/22 9:06,BBB,200,1
202,602,704,22001231,Merritt Jewelers,31067 Front St,,Pequot Lakes,MN,56472.0,USA,2185684695.0,bmerritt913@hotmail.com,http://www.merrittjewelers.com,50367-000,Jewelers - Retail,1/1/82 0:00,,False,A+,100.0,1.0,,False,Micro-small,False,11/23/21 6:32,BBB,200,1
203,603,704,96196592,Vivid Image Inc,897 Highway 15 S # A,,Hutchinson,MN,55350.0,USA,3205878974.0,info@vimm.com,http://www.Vimm.com,60246-000,Computers - Sys Designers & Consult,1/1/96 0:00,,False,A+,100.0,12.0,0.0,False,Micro-small,False,12/21/22 9:21,BBB,200,1
204,604,704,96362136,3rd Opinion Company,7900 Chapin Dr NE,,Hawick,MN,56273.0,USA,3202352101.0,admin@3rdopinion.us,http://www.3rdopinion.us,65134-100,Medical Spa,11/1/10 0:00,5/10/19 0:00,False,NR,0.0,5.0,,False,Small,False,5/17/22 8:15,BBB,200,1
205,605,704,96230187,Stanley Widmer Associates Inc,PO Box 216,,Staples,MN,56479.0,USA,2188943466.0,,http://www.Stanleywidmerassociatesinc.com,60334-000,Engineers - Professional,7/1/72 0:00,,False,A+,100.0,6.0,0.0,False,Micro-small,False,8/17/22 20:59,BBB,200,1
206,606,704,1000022024,"Selective Insurance Agency, LLC",8001 Old Carriage Ct Ste B,,Shakopee,MN,55379.0,USA,9528004655.0,renson@selectiveagency.net,https://agency.nationwide.com/mn/shakopee/55379/selective-insurance-agency-llc,20021-000,Insurance - Auto,8/14/18 0:00,,False,A+,100.0,1.0,0.0,False,Micro-small,False,2/4/23 9:01,BBB,200,1
207,607,704,96018238,Apple Valley Dental Care,14635 Pennock Ave # 100,,Apple Valley,MN,55124.0,USA,9524325509.0,gina@applevalleydentalcare.com,http://www.applevalleydentalcare.com,60289-000,Dentists,1/1/95 0:00,,False,A+,100.0,9.0,0.0,False,Micro-small,False,1/7/23 9:07,BBB,200,1
208,608,704,1000046193,Refined Lending Corp,9240 Baltimore St NE Ste 110,,Blaine,MN,55449.0,USA,7637848700.0,nraich@refinedlending.com,https://www.refinedlending.com/,20053-200,Mortgage Lender,12/10/17 0:00,,False,A+,100.0,1.0,,False,Micro-small,False,1/21/23 8:56,BBB,200,1
209,609,704,20001666,Exclusively Yours Inc,3855 Edgewood Ave S,Ste 105,Saint Louis Park,MN,55426.0,USA,9522858850.0,exyoursinc@aol.com,http://www.exyoursinc.net,60184-000,Carpet & Rug Cleaners,1/1/73 0:00,,False,A+,100.0,5.0,,False,Micro-small,False,9/27/22 8:58,BBB,200,1
210,610,704,1000035186,"Wells Fargo Bank, NA",3201 S University Drive,,Fargo,ND,58104.0,USA,7012934200.0,judd.f.graham@wellsfargo.com,http://www.wellsfargo.com,20003-000,Banks,1870-01-01 00:00:00,,False,NR,0.0,29.0,0.0,False,Small,False,6/1/22 21:27,BBB,200,1
211,611,704,1000005705,Big Dog Sportswear,519 Lincoln County Parkway Ext,,Lincolnton,NC,28092.0,USA,8006429265.0,marymc@thewalkingcompany.com,http://www.bigdogs.com,50582-000,Shoes - Retail,3/12/04 0:00,,False,NR,0.0,1.0,0.0,False,Micro-small,False,6/1/22 21:27,BBB,200,1
212,612,704,1000015532,"Bell Medical Services, Inc",6901 78th Ave N Ste 104,,Brooklyn Park,MN,55445.0,USA,7632080975.0,emays@brooklynhealthmn.com,http://www.bellmedicalservices.com/,85273-000,In-Home Care,1/8/16 0:00,,False,A+,100.0,1.0,0.0,False,Micro-small,False,3/22/22 8:37,BBB,200,1
213,613,704,96001353,"Tom and Jeri's Construction Company, Inc.",236 96th Ln NE,,Blaine,MN,55434.0,USA,7632620115.0,TJCC55309@aol.com,http://www.tomandjerisconstructioninc.com,10035-000,Contractors - General,7/8/04 0:00,,True,A+,100.0,1.0,,False,Micro-small,False,10/21/21 3:59,BBB,200,1
214,614,704,96107698,Anytime Fitness,111 Weir Dr,,Saint Paul,MN,55125.0,USA,7632959000.0,croers@msn.com,http://www.anytimefitness.com,60430-000,Health Clubs,3/15/05 0:00,,False,A+,100.0,1.0,,False,Small,False,10/26/21 3:58,BBB,200,1
215,615,704,1000051878,Tall to Small Pet Grooming LLC,2004 Mahogany St Ste B,,Mora,MN,55051.0,USA,3206796869.0,talltosmall@outlook.com,https://www.facebook.com/talltosmallpet,00196-000,Pet Grooming,12/9/15 0:00,,False,A+,100.0,1.0,0.0,False,Micro-small,False,2/16/22 10:07,BBB,200,1
216,616,704,14003665,Blatz Automotive,7105 Highway 10 NW,,Ramsey,MN,55303.0,USA,7633230045.0,mach5blatz@gmail.com,http://www.mach5motors.com,50040-000,Auto Dealers - Used Cars,8/13/92 0:00,,False,A+,100.0,4.0,0.0,False,Small,False,10/22/22 8:09,BBB,200,1
217,617,704,96577504,Mainstream Holdings,1905 1st Ave N,,Windom,MN,56101.0,USA,5078328322.0,Support@MSHoldings.org,http://www.gomuddy.com,50489-000,Photographic Equipment & Supplies - Retail,,,False,A+,100.0,1.0,0.0,False,Micro-small,False,10/25/21 3:50,BBB,200,1
218,618,704,1000057088,Garas Remodeling LLC,504 4th Ave NE,,Byron,MN,55920.0,USA,5074054094.0,ken@garasremodeling.com,http://www.garasremodeling.com,10035-000,Contractors - General,5/16/22 0:00,,True,A-,91.46,2.0,,False,Micro-small,False,12/15/22 9:22,BBB,200,1
219,619,704,96147422,Choice Therapy PA,3835 Supreme Ct NW # 2,,Bemidji,MN,56601.0,USA,2184448280.0,cware@choicetherapy1.com,http://www.choicetherapy1.com,60685-000,Physical Therapists,1/1/09 0:00,,False,A+,100.0,10.0,0.0,False,Small,False,8/19/22 8:08,BBB,200,1
220,620,704,96142676,Discover Health Chiropractic,1136 W Divide Ave # 1,,Bismarck,ND,58501.0,USA,7012238237.0,discoverhealth@midconetwork.com,http://www.dhchiropc.com,60205-000,Chiropractors D.C.,4/1/07 0:00,,False,A+,100.0,3.0,,False,Micro-small,False,2/4/21 4:07,BBB,200,1
221,621,704,1000060857,Straight River Cable Inc,1872 NW 70th St,,Medford,MN,55049.0,USA,5074554255.0,,http://srcable.com,30752-000,Wire Products,1/1/94 0:00,,False,A+,100.0,9.0,,False,Micro-small,False,11/9/22 9:17,BBB,200,1
222,622,704,96085616,"Micalan Group, Inc",4050 Olson Memorial Hwy Ste 201,,Golden Valley,MN,55422.0,USA,7632221300.0,HR@Micalangroup.com,http://www.micalangroup.com,60538-000,Marketing Consultants,,4/29/16 0:00,False,NR,0.0,1.0,,False,Micro-small,False,5/6/19 4:21,BBB,200,1
223,623,704,1000001377,Turtle Creek Construction Inc,701 18th Ave NW Ste 300,,Austin,MN,55912.0,USA,5074381653.0,lancep@gppaustin.com,https://www.gppaustin.com/,10035-000,Contractors - General,9/12/03 0:00,,False,A+,100.0,5.0,0.0,False,Micro-small,False,12/3/22 9:06,Email,200,0
224,624,704,1000057735,Hopkins Crossroads Dental ,11300 Wayzata Blvd,,Minnetonka,MN,55305.0,USA,9523141125.0,hopkinscrossroadsdentistry@smilegeneration.com,https://www.hopkinscrossroadsdentistry.com/,60289-000,Dentists,,,False,NR,0.0,1.0,,False,Micro-small,False,9/4/22 8:29,BBB,200,1
225,625,704,1000061414,QC Kinetix - St Paul,360 Sherman St Ste 150,,Saint Paul,MN,55102.0,USA,6122547123.0,jmeans@qckinetix.com,https://qckinetix.com/twin-cities/st-paul-mn/,85346-000,Alternative Medicine,4/4/22 0:00,,False,A-,91.89,1.0,0.0,False,Micro-small,False,1/5/23 9:23,BBB,200,1
226,626,704,96226650,Lake State Industries Inc,500 Division St N,,Rice,MN,56367.0,USA,3203932200.0,Anne@mofab.net,http://Foreverstainlesssteel.com,80706-000,Surgical Instruments,1/1/88 0:00,10/14/22 0:00,False,NR,0.0,50.0,,False,Micro-small,False,10/15/22 8:19,BBB,200,0
227,627,704,96096239,BLS Repair LLC,1701 2nd Ave SE,,Rochester,MN,55904.0,USA,5072806918.0,info@BLSrepairllc.com,http://www.BLSrepairllc.com,60103-000,Auto Repair & Service,3/28/13 0:00,,False,A+,100.0,4.0,0.0,False,Small,False,11/8/22 9:18,BBB,200,1
228,628,704,96154901,"SMAVtronics, LLC",7595 Currell Blvd Unit 25728,,Saint Paul,MN,55125.0,USA,6512042545.0,admin@smavtronics.com,http://www.smavtronics.com,60974-000,Internet Shopping,6/21/07 0:00,,False,A+,100.0,2.0,,False,Small,False,1/21/21 4:05,BBB,200,1
229,629,704,96014867,"Lind, Jensen, Sullivan, & Peterson",901 Marquette Ave # 1300,,Minneapolis,MN,55402.0,USA,6123333637.0,doug.sievers@lindjensen.com,http://www.lindjensen.com,60075-000,Attorneys & Lawyers,3/15/91 0:00,,False,A+,100.0,41.0,,False,Small,False,11/23/21 6:32,BBB,200,1
230,630,704,14000530,Minnesota Marketing Center,14500 Burnhaven Dr Ste 135,,Burnsville,MN,55306.0,USA,9524351606.0,,http://www.imcgroup.com,20080-000,Insurance Services,1/1/67 0:00,4/29/16 0:00,False,NR,0.0,13.0,,False,Small,False,3/22/20 4:00,BBB,200,0
231,631,704,96380853,Live Well Chiropractic Spa & Acupuncture Center,7975 Stone Creek Dr,STE 20,Chanhassen,MN,55317.0,USA,9527468150.0,,http://livewelltwincities.com,60205-000,Chiropractors D.C.,7/10/08 0:00,,False,A+,100.0,1.0,0.0,False,Micro-small,False,10/4/22 8:07,BBB,200,1
232,632,704,1000014045,"KWN Fence, LLC",1475 Upper 55th St E Apt 201,,Inver Grove Heights,MN,55077.0,USA,6513150234.0,kwnfencellc@gmail.com,http://www.kwnfence.com/,50252-000,Fence Contractors,4/6/12 0:00,,False,A+,100.0,1.0,0.0,False,Micro-small,False,2/1/23 8:58,BBB,200,1
233,633,704,3000503,CottageCare of MN,9013 Penn Ave S,,Minneapolis,MN,55431.0,USA,9529294556.0,jsulciner@cottagecare.com,http://www.cottagecare.com,60449-000,House Cleaning,1/1/96 0:00,,False,A+,100.0,40.0,,False,Micro-small,False,1/11/23 9:00,BBB,200,1
234,634,704,1000032098,"Kennedy Property Development, LLC",2136 Ford Pkwy # 8004,,Saint Paul,MN,55116.0,USA,6515295593.0,rashad@kennedypropertydevelopment.com,https://kennedypropertydevelopment.com/,10035-200,Contractor - Remodel & Repair,12/4/19 0:00,,True,A+,97.53,1.0,,False,Micro-small,False,12/8/22 9:14,BBB,200,1
235,635,704,14003993,Columbia Heights Rental,3901 Central Ave NE,,Minneapolis,MN,55421.0,USA,7637813351.0,,http://www.columbiaheightsrental.com,50481-000,Party Supplies - Renting,1/1/84 0:00,,False,A+,100.0,10.0,,False,Micro-small,False,11/11/22 9:28,BBB,200,1
236,636,704,96198483,"Eagle Creek Wellness Center, LLC",14180 Commerce Ave NE Ste 100,,Prior Lake,MN,55372.0,USA,9524473395.0,information@eaglecreekchiro.com,http://www.eaglecreekwellness.com,60205-000,Chiropractors D.C.,12/11/02 0:00,,False,NR,0.0,4.0,,False,Micro-small,False,11/12/21 4:01,BBB,200,1
237,637,704,1000046239,"TopNotch Construction, LLC",503 15th Ave,,Two Harbors,MN,55616.0,USA,2188309929.0,topnotchconstruction218@gmail.com,http://topnotch218construction.com,10035-000,Contractors - General,2/28/19 0:00,,True,A+,98.68,1.0,,False,Micro-small,False,8/18/22 8:20,BBB,200,1
238,638,704,96181220,Anderson Legal Service,226 Myrtle St E,,Stillwater,MN,55082.0,USA,6514391389.0,andersonlegal@stillwater-attorney.com,http://www.stillwater-attorney.com,60075-000,Attorneys & Lawyers,1/1/05 0:00,,False,A+,100.0,1.0,,False,Micro-small,False,1/12/23 8:54,BBB,200,1
239,639,704,96367973,S2 Distribution Inc,15140 N Point Dr,,Rogers,MN,55374.0,USA,7633906838.0,sales@ptacsolutions.com,http://www.ptacsolutions.com,80014-000,Air Conditioning Supplies & Parts,,,False,A+,100.0,1.0,,False,Small,False,1/7/22 14:13,BBB,200,1
240,640,704,96367090,Massage Envy Spa,7949 Southtown Ctr,,Minneapolis,MN,55431.0,USA,9524631000.0,clinic0098@massageenvy.com,https://www.massageenvy.com/,65134-000,Day Spas,1/13/12 0:00,,False,C,74.0,28.0,,False,Micro-small,False,12/16/22 9:10,Email,200,1
241,641,704,96563303,Mid States Wireless,55 North 3rd Street,,Fargo,ND,58102.0,USA,7012939561.0,,http://www.midstateswireless.com,50142-000,"Cell Phone & Tablet Equipment, Supplies & Repair",5/15/97 0:00,,False,A+,100.0,1.0,0.0,False,Micro-small,False,2/4/23 9:01,BBB,200,1
242,642,704,96072078,Minnesota Retailers Association,400 Robert St N # 1540,,Saint Paul,MN,55101.0,USA,6512276631.0,mnra@mnretail.org,http://www.mnretail.org,60071-000,Associations,1/1/52 0:00,,False,NR,0.0,4.0,,False,Micro-small,False,5/23/22 8:18,BBB,200,1
243,643,704,96557748,"Ultimate Brick Looks Masonry, LLC",19464 4th St NE,,Cedar,MN,55011.0,USA,7634824205.0,ublmasonry@gmail.com,http://ublmasonry.com,10089-000,Mason Contractors,9/18/14 0:00,,False,B-,80.0,2.0,0.0,False,Micro-small,False,3/7/22 9:21,BBB,200,1
244,644,704,96133341,Land Services Unlimited,130 Copper Mountain Dr,,Mankato,MN,56001.0,USA,5079959311.0,,http://www.landservicesunlimited.com,60729-000,Real Estate,1/1/07 0:00,,False,A+,100.0,1.0,,False,Micro-small,False,6/3/22 9:01,BBB,200,1
245,645,704,96557778,"Bayview Resort, LLC",7414 46th ST. NE,,Devils Lake,ND,58301.0,USA,7016623961.0,bayview@gondtc.com,http://www.bayviewrvdevilslake.com,60752-000,Resorts,3/27/07 0:00,,False,A+,100.0,1.0,0.0,False,Micro-small,False,10/8/22 8:10,BBB,200,1
246,646,704,96000202,"Sauve's Outdoor Services, Inc.",2566 Ariel St N,,North Saint Paul,MN,55109.0,USA,6517484157.0,soservicesinc@qwestoffice.net,http://sauvesos.com/,00157-000,Lawn Maintenance,4/1/99 0:00,,False,A+,100.0,2.0,,False,Micro-small,False,6/9/22 8:18,BBB,200,1
247,647,704,96157933,Dive Sportswear,3414 Outer Dr,,Hibbing,MN,55746.0,USA,2182624112.0,,http://www.diversclubhouse.com,50609-000,Sportswear - Retail,4/21/10 0:00,7/16/19 0:00,False,NR,0.0,,0.0,False,Micro-small,False,7/18/19 4:24,BBB,200,1
248,648,704,15002367,T D S Telecom,7901 Chapin Dr NE,,New London,MN,56273.0,USA,3203547700.0,beth.gjerde@tdstelecom.com,http://www.tdstelecom.com,70618-000,Telephone Communications,6/1/64 0:00,,False,A+,100.0,27.0,,False,Micro-small,False,6/14/22 8:18,BBB,200,1
249,649,704,1000005301,M & M Express Sales & Service,600 Highway 55 E,,Buffalo,MN,55313.0,USA,7636825252.0,brent@mmexpresssales.com,http://mmexpresssales.com,50298-000,Lawn & Garden Equipment & Supplies,1/1/05 0:00,,False,A+,100.0,5.0,0.0,False,Micro-small,False,12/29/22 9:05,BBB,200,1
250,650,704,17002217,"American Home Improvement, LLC",2648 Mickey Ln,,Maplewood,MN,55119.0,USA,6127013849.0,revdburd@aol.com,http://www.mndeck.com,85349-100,Deck Cleaning & Sealing,1/1/80 0:00,6/9/21 0:00,False,NR,0.0,2.0,0.0,False,Small,False,4/20/22 8:34,BBB,200,1
251,651,704,1000005396,"Coffer Custom Remodeling, LLC",9221 Davenport St NE,,Blaine,MN,55449.0,USA,7637864630.0,nate@ccr-mn.com,http://coffercustomremodeling.com,10177-000,Construction & Remodeling Services,3/16/15 0:00,,True,A+,100.0,1.0,0.0,False,Small,False,1/6/23 9:13,BBB,200,1
252,652,704,8000985,"David R. Bossart Law Firm, P.C.",1220 Main Ave Ste 123,,Fargo,ND,58103.0,USA,8667817420.0,david@bossartlaw.com,http://www.bossartlaw.com,60509-000,Legal Services Plans,9/26/97 0:00,,False,A+,100.0,2.0,,False,Micro-small,False,5/18/22 8:55,BBB,200,1
253,653,704,96010281,"Down To Earth Technologies, Inc.",11257 Ironwood Ct N,,Champlin,MN,55316.0,USA,7632868616.0,downtoearthtechinc@comcast.net,http://www.downtoearthtech.com,80404-000,Irrigation Systems & Equipment,7/10/03 0:00,,False,A+,100.0,1.0,0.0,False,Micro-small,False,10/30/20 4:09,BBB,200,1
254,654,704,1000016773,"Vital Tree Service, LLC",474 Bluebird Ln,,Woodbury,MN,55125.0,USA,6126168698.0,vitalnewfeld@yahoo.com,https://www.vitaltreeservice.com/,00219-000,Tree Service,5/9/16 0:00,,False,A+,100.0,3.0,,False,Micro-small,False,2/4/23 9:01,BBB,200,1
255,655,704,96007150,Hazeltine National Golf Club,1900 Hazeltine Blvd,,Chaska,MN,55318.0,USA,9525565400.0,,http://www.hngc.com,60409-000,Golf Courses - Private,1/1/61 0:00,,False,A+,100.0,75.0,,False,Medium,False,4/14/21 5:07,BBB,200,1
256,656,704,1000011409,Dietrich Construction LLC,4041 36th Ave S,,Fargo,ND,58104.0,USA,7012351853.0,,http://www.dietrichconstructionllc.com,10035-000,Contractors - General,4/18/06 0:00,,False,A+,100.0,24.0,0.0,False,Micro-small,False,4/28/22 8:18,BBB,200,1
257,657,704,96082214,Pureplay.com,PO Box 294,660 4th St,San Francisco,CA,94104.0,USA,8008044817.0,,http://www.pureplay.com,60473-000,Internet Services,,,False,A+,100.0,,,False,Micro-small,False,8/10/21 4:19,BBB,200,1
258,658,704,1000007240,Speer-Bast Land & Construction LLC,400 2nd St S,,Hudson,WI,54016.0,USA,6513241147.0,jasonedinarealty@yahoo.com,http://www.speerbastconstruction.com/,10078-000,Home Builders,5/10/11 0:00,,False,A+,100.0,1.0,0.0,False,Micro-small,False,8/4/22 8:31,BBB,200,1
259,659,704,96234760,Lundberg Forest Products,3833 Centerline Rd NW,,Solway,MN,56678.0,USA,2184673291.0,plndberg@paulbunyan.net,https://www.paulbunyan.net/,30547-000,Pulp & Pulp Products,1/1/88 0:00,,False,A+,100.0,10.0,,False,Micro-small,False,11/3/20 4:15,Email,200,0
260,660,704,96563449,Epic Homes,840 43rd Ave NE Ste 203,,Bismarck,ND,58503.0,USA,7012906734.0,epichomesnd@gmail.com,https://www.epichomesnd.com/,10078-000,Home Builders,3/23/11 0:00,,False,A+,100.0,4.0,0.0,False,Micro-small,False,9/2/21 3:56,BBB,200,1
261,661,704,96563347,Club Reduce,3410 Federal Dr STE 100,,Eagan,MN,55122.0,USA,6519058272.0,pamper.acc@gmail.com,https://drgustafson.clubreduce.com/?fbclid=IwAR05C1ngvcP9HDGdTcyWYE-gDgA4XuosuSsxMNM4iXEyCLLbeqh4WbOYe-U,60205-000,Chiropractors D.C.,,,False,A+,100.0,,0.0,False,Micro-small,False,7/8/21 4:21,BBB,200,0
262,662,704,1000026907,Jillian Rd Llc,234 Mississippi River Blvd N,#304,St. Paul,MN,55104.0,USA,,,https://www.jillianrd.com/contact/,60618-000,Nutritionists,1/15/18 0:00,,False,NR,0.0,1.0,,False,Micro-small,False,8/18/22 8:21,BBB,200,1
263,663,704,1000033480,SagePresence LLC,309 Clifton Ave Fl 3,,Minneapolis,MN,55403.0,USA,6123840763.0,info@sagepresence.com,https://www.sagepresence.com/,60539-100,Brand Development,3/28/07 0:00,,False,NR,0.0,1.0,0.0,False,Micro-small,False,2/3/23 9:12,BBB,200,1
264,664,704,1000017896,Minnesota Medical Solutions,14133rd Ave South,,Saint Cloud ,MN,56301.0,USA,,patientcare@minnmed.com,https://minnesotamedicalsolutions.com/,60665-000,Physicians & Surgeons - Medical-M.D.,,,False,A+,97.03,,0.0,False,Micro-small,False,2/25/21 4:08,BBB,200,1
265,665,704,96013555,American Dream Services,10021 305th St W,,Northfield,MN,55057.0,USA,6517749200.0,ron.williams@adsmn.com,http://www.adsmn.com,20053-000,Mortgage Brokers,10/1/03 0:00,10/30/15 0:00,False,NR,0.0,2.0,,False,Small,False,11/5/18 3:54,BBB,200,0
266,666,704,96134519,Delux Motel,516 E Main St,,Marshall,MN,56258.0,USA,5075324441.0,deluxmotel@gmail.com,http://www.deluxmotelmarshallmn.com,60573-000,Motels,1/1/84 0:00,,False,A+,100.0,8.0,,False,Micro-small,False,5/23/22 8:18,BBB,200,1
267,667,704,45000418,Bay Street Shoes & Accessories,3001 Hennepin Ave # B104,,Minneapolis,MN,55408.0,USA,6128245574.0,Darrel@Baystreetshoes.com,http://www.kennethcole.com,50582-000,Shoes - Retail,1/1/75 0:00,,False,A+,100.0,6.0,,False,Small,False,10/15/21 4:11,BBB,200,1
268,668,704,96503473,"Custom Woodcraft Etc, Inc.",6250 County Road 10,,Chaska,MN,55318.0,USA,6124144703.0,bobstevermer@gmail.com,http://customwoodcraftetc.com,10035-200,Contractor - Remodel & Repair,11/15/01 0:00,,False,A+,100.0,,,False,Micro-small,False,8/12/21 6:08,BBB,200,1
269,669,704,96189199,M & M Hydraulic Company,2505 County Road B W,,Roseville,MN,55113.0,USA,6516359414.0,sales@mmhydraulic.com,http://www.mmhydraulic.com,30370-000,Machinery - New,1/12/78 0:00,,False,A+,100.0,5.0,0.0,False,Micro-small,False,4/14/21 5:07,BBB,200,1
270,670,704,96387503,NES Spray Foam and Insulation,824 127th Ln NE,,Blaine,MN,55434.0,USA,7632386310.0,swaste@nesbuildingsolutions.com,http://nesbuildingsolutions.com/,10081-100,Contractor - Spray Foam Insulation,,,False,A-,92.0,1.0,,False,Micro-small,False,10/20/22 8:10,BBB,200,1
271,671,704,96129598,Aztec Coin & Precious Metals,2872 Knollridge Dr NW,,Prior Lake,MN,55372.0,USA,9522335151.0,darb1001@aol.com,http://www.AzTecCoinCo.Com,50167-000,"Coin Dealers, Supplies",4/1/79 0:00,1/1/13 0:00,False,NR,0.0,2.0,,False,Small,False,1/6/20 4:08,BBB,200,0
272,672,704,1000035506,National Tire and Battery,5501 Xerxes Ave N,,Brooklyn Ctr,MN,55430.0,USA,7635617811.0,m868@tirekingdom.com,http://www.tirekingdom.com,50659-000,Tire Dealers,11/8/10 0:00,,False,NR,0.0,250.0,0.0,False,Medium,False,6/1/22 21:28,BBB,200,1
273,673,704,1000048093,Legacy Printwear,1224 Atlantic Ave,,Benson,MN,56215.0,USA,3203683860.0,joel@legacyprintwear.com,https://www.legacyprintwear.com/,50576-000,Shirts - Custom Made,11/27/18 0:00,,False,A+,97.0,1.0,,False,Micro-small,False,9/15/21 4:36,BBB,200,1
274,674,704,214,Centraire Heating & Air Conditioning Inc,7402 Washington Ave S,,Eden Prairie,MN,55344.0,USA,9529411044.0,tpacker@centraire.com,http://www.centraire.com,10182-000,Heating & Air Conditioning,11/2/67 0:00,,False,B-,80.0,29.0,0.0,False,Small,False,1/31/23 8:45,BBB,200,1
275,675,704,1000020282,Foot and Ankle Clinic,2768 Superior Dr NW Ste B,,Rochester,MN,55901.0,USA,5072821053.0,,https://www.rochesterfootclinic.com/,60698-000,Podiatrists ,1/21/94 0:00,,False,A+,100.0,1.0,0.0,False,Micro-small,False,9/16/21 4:15,BBB,200,1
276,676,704,96100637,"Pitney Bowes, Inc.",1 Elmcroft Rd,Location 2700,Stamford,CT,6926.0,USA,2033565000.0,jim.decker@pb.com,http://www.PB.com,80455-000,Mailing Machines & Equipment,,,False,NR,0.0,1.0,,False,Micro-small,False,6/1/22 21:25,BBB,200,1
277,677,704,96162211,Garrison Memorial Hospital & Nursing Facility,407 3rd Ave SE,,Garrison,ND,58540.0,USA,7014632275.0,tgraeber@primecare.org,https://www.chistalexiushealth.org/,60617-000,Nursing Homes,1/1/84 0:00,,False,A+,100.0,125.0,,False,Small,False,3/5/21 4:00,BBB,200,1
278,678,704,1000036228,Heartlight Chiropractic PA,13955 W Preserve Blvd Ste 200,,Burnsville,MN,55337.0,USA,9528905694.0,,https://www.heartlightchiropractic.com/,60205-000,Chiropractors D.C.,1/15/08 0:00,,False,A+,100.0,1.0,0.0,False,Micro-small,False,10/19/21 4:00,BBB,200,1
279,679,704,96151960,Absolute Service Co,1100 19th Ave N # 115,,Fargo,ND,58102.0,USA,7012979623.0,,http://www.ndprocesserver.com,60509-000,Legal Services Plans,1/1/84 0:00,,False,A+,100.0,1.0,0.0,False,Micro-small,False,8/20/21 4:25,BBB,200,1
280,680,704,96379826,"Plan B Industries, Inc",5200 Thotland Rd,,Golden Valley,MN,55422.0,USA,7634430500.0,tomc@planbindustries.com,http://www.planbindustries.com,60235-300,Computer Business Services,10/7/05 0:00,,False,NR,0.0,1.0,,False,Micro-small,False,5/20/21 4:20,BBB,200,0
281,681,704,1000021929,Arctic Defense Insulation LLC,631A Woodduck Dr Unit A,,Saint Paul,MN,55125.0,USA,6127503758.0,chadadi@q.com,https://www.facebook.com/pages/category/Heating--Ventilating---Air-Conditioning-Service/Arctic-Defense-Insulation-167433377227221/,10081-000,Contractor - Insulation,11/17/17 0:00,,False,A+,100.0,1.0,0.0,False,Micro-small,False,2/4/23 9:01,BBB,200,1
282,682,704,96193516,Kuzma Chiropractic,105 Center Dr,,Buffalo,MN,55313.0,USA,7636841111.0,,http://www.kuzmachiro.com,60205-000,Chiropractors D.C.,1/1/07 0:00,,False,NR,0.0,5.0,,False,Micro-small,False,6/3/22 9:02,BBB,200,0
283,683,704,96004512,"Digital Lake, Inc.",6259 100th St SW,,Howard Lake,MN,55349.0,USA,3205432699.0,,http://digitallakeinc.com,60245-000,Computers - Service & Repair,10/29/98 0:00,,False,A+,100.0,,0.0,False,Micro-small,False,4/10/20 4:13,BBB,200,1
284,684,704,1000004067,JP Corporation,164 East 4th Street ,Suite 4,Winona,MN,55987.0,USA,5074746420.0,jp@hbci.com,https://www.hbci.com/,60494-000,Land Companies,9/9/96 0:00,,False,A+,100.0,1.0,0.0,False,Micro-small,False,12/24/22 8:49,Email,200,0
285,685,704,96562007,"Bridal Aisle Wedding Consignment, LLC",308 5th Ave SE,,Osseo,MN,55369.0,USA,7632202319.0,info@bridalaislemn.com,http://www.bridalaislemn.com,50730-000,Wedding Supplies & Services,12/20/13 0:00,,False,A+,100.0,1.0,0.0,False,Micro-small,False,1/7/22 14:14,BBB,200,1
286,686,704,1000004075,Backhaus Appraisals,1713 Nokomis St,,Alexandria,MN,56308.0,USA,3207628280.0,LeeBackhaus@wisper-wireless.com,https://www.yelp.com/biz/backhaus-appraisals-alexandria,60730-000,Real Estate Appraisers,1/1/06 0:00,,False,NR,0.0,2.0,0.0,False,Micro-small,False,1/5/23 9:23,BBB,200,0
287,687,704,96086587,ArchiveSafe,PO Box 3254,,Burnsville,MN,55337.0,USA,6126058438.0,sales@polyvector.com,https://www.polyvector.com/,60974-000,Internet Shopping,,,False,NR,0.0,1.0,,False,Micro-small,False,9/28/22 10:19,Email,200,0
288,688,704,1000003836,Inver Grove Sanitation,3662 73rd St E,,Inver Grove Heights,MN,55076.0,USA,6514571615.0,igsanitation@aol.com,http://invergrovesanitation.com,70592-000,Rubbish & Garbage Removal,7/21/97 0:00,,True,A+,100.0,5.0,0.0,False,Small,False,7/26/22 8:43,BBB,200,1
289,689,704,96199322,Shakopee Veterinary Clinic,12675 Marystown Rd,,Shakopee,MN,55379.0,USA,9524454765.0,shakopeevet@msn.com,http://www.shakopeevetclinic.com,00222-000,Veterinarians,1/1/74 0:00,,False,A+,100.0,11.0,0.0,False,Micro-small,False,4/9/22 8:44,BBB,200,1
290,690,704,96129805,Creation Audio Recording Inc,2543 Nicollet Ave,,Minneapolis,MN,55404.0,USA,6128700028.0,,https://www.facebook.com/profile.php?id=158525860845476&paipv=0&eav=AfZD2ckceN451DIZBW02k1T5vCi64zvadwseRkAdUAYjIGZlHFPvGjHOhVNnXHbCl7s&_rdr,60736-000,Recording Service - Sound & Video,1/1/94 0:00,,False,A+,100.0,5.0,0.0,False,Micro-small,False,1/6/23 9:12,BBB,200,1
291,691,704,1000023908,Kale Hassan LLC,7550 France Ave S Ste 300,,Edina,MN,55435.0,USA,6514864860.0,kale@kalehassan.com,http://www.kalehassan.com/,60729-102,Real Estate Agents,12/2/97 0:00,,False,NR,0.0,1.0,0.0,False,Micro-small,False,12/3/22 9:06,BBB,200,1
292,692,704,96357277,NAPA Auto Parts,3610 Lyndale Ave S,,Minneapolis,MN,55409.0,USA,6128272561.0,fred_hentges@genpt.com,https://www.genpt.com/,50043-000,Auto Parts & Supplies - New,1/1/84 0:00,,False,A+,100.0,6.0,,False,Micro-small,False,12/23/20 12:20,Email,200,1
293,693,704,96543484,Wise Planning,1650 W 82nd St Ste 775,,Bloomington,MN,55431.0,USA,8002184588.0,Christopher.Wagner@LPL.com,http://www.wiseplanning.us/,20045-000,Investment Advisory Service,4/30/14 0:00,,False,A+,100.0,,0.0,False,Micro-small,False,5/15/21 4:10,BBB,200,1
294,694,704,1000048243,"Stoltz Home Solutions, LLC",1040 106th Ave NW,,Coon Rapids,MN,55433.0,USA,6125582485.0,jacobstoltzenergysaver@gmail.com,https://www.facebook.com/StoltzHomeSolutionsLLC/,10177-200,Remodeling Services,11/12/20 0:00,,False,A,95.55,1.0,,False,Micro-small,False,2/1/23 8:58,BBB,200,1
295,695,704,96314724,"Greenwell Home Improvement, Inc.",13750 Crosstown Dr NW STE 104,,Andover,MN,55304.0,USA,7637850785.0,jim@greenwellrealty.com,http://www.greenwellhomeimprovement.com,20060-000,Property Maintenance,5/29/09 0:00,,False,A+,100.0,2.0,,False,Micro-small,False,10/7/21 3:58,BBB,200,0
296,696,704,8002558,Krolls Diner Inc of Fargo West,1033 45th St S,,Fargo,ND,58103.0,USA,7014922319.0,,http://www.sitdownandeat.com/,50544-000,Restaurants,1/1/00 0:00,,False,A+,100.0,30.0,0.0,False,Micro-small,False,4/1/22 8:39,BBB,200,1
297,697,704,1000013705,Bravo Protection Products,15620 Wayzata Blvd,,Wayzata,MN,55391.0,USA,9524767025.0,info@bravoprotection.com,https://bravoprotectionmn.com/,60996-000,Auto Service - Window Tinting,7/2/09 0:00,,False,A+,100.0,5.0,0.0,False,Micro-small,False,12/21/22 9:22,BBB,200,1
298,698,704,96363742,"Today&#39;s Bed of Minnesota, Inc.",7828 Hudson Rd Ste 100,,Woodbury,MN,55125.0,USA,6517396336.0,samichelsen@todaysbed.com,http://www.todaysbed.com,50419-000,Mattresses,2/3/06 0:00,,True,A+,100.0,2.0,0.0,False,Small,False,1/5/23 9:23,BBB,200,1
299,699,704,96023657,Canteen Vending Services,700 24th Ave SE,,Minneapolis,MN,55414.0,USA,6514880515.0,sam.steffen@compass-usa.com,http://www.canteen.com,50701-000,Vending Machines,1/1/98 0:00,,False,A+,100.0,50.0,0.0,False,Micro-small,False,2/8/23 9:27,BBB,200,1
300,700,704,15002350,CITI,399 Park Avenue,,New York,NY,10043.0,USA,8002853000.0,,http://www.citi.com,20003-000,Banks,,,False,NR,0.0,1.0,,False,Micro-small,False,9/1/22 8:30,BBB,200,1
301,701,704,1000024026,Asher Cable Contracting Inc.,1965 Eastway Ave,,Shakopee,MN,55379.0,USA,9524964027.0,,http://www.ashercable.com,10155-000,Telephone & Television Cable Contractors,3/5/04 0:00,6/26/20 0:00,False,NR,0.0,1.0,0.0,False,Micro-small,False,3/23/22 8:48,BBB,200,0
302,702,704,1672,"McKenzie Repair, Inc.",725 Curfew St,,Saint Paul,MN,55114.0,USA,6516466501.0,info@mckenzierepair.com,http://www.mckenzierepair.com,60950-000,Welding Equipment - Repair,1/1/43 0:00,,True,A+,100.0,8.0,,False,Small,False,8/23/22 8:26,BBB,200,1
303,703,704,96270575,Colonial Rental,1981 9th St N,,Wahpeton,ND,58075.0,USA,7016425452.0,,http://Colonialrental.com,50651-000,Television & Radio - Dealers,1/1/94 0:00,,False,NR,0.0,3.0,,False,Micro-small,False,6/18/22 8:22,BBB,200,1
304,704,704,1000005229,Burn Boot Camp,1300 Salem Rd SW Ste 850,,Rochester,MN,55902.0,USA,5072189713.0,rochester@burnbootcamp.com,http://burnbootcamp.com/rochester-mn/,60430-100,Fitness Centers,4/11/16 0:00,,False,A+,97.0,1.0,0.0,False,Micro-small,False,10/5/22 8:45,BBB,200,1
305,705,704,96567362,"Inspired Life Wellness Clinic, PLLC",200 E Main Ave STE 204,,Bismarck,ND,58501.0,USA,7019894354.0,kristen@inspired-lifewellness.com,http://www.inspired-lifewellness.com,60551-000,Mental Health Services,6/5/13 0:00,,False,NR,0.0,2.0,0.0,False,Small,False,4/24/22 8:09,BBB,200,1
306,706,704,96089415,Cutting Edge Construction & Concrete,28750 113th Ave,,Eagle Bend,MN,56446.0,USA,3208153321.0,admin@hotmarketingdeals.com,https://www.hotmarketingdeals.com/,10032-000,Concrete Contractors,1/1/03 0:00,,False,A+,100.0,3.0,,False,Micro-small,False,12/30/22 8:56,Email,200,0
307,707,704,1000049734,Happy House Organizer,1690 Blackhawk Grove,,Eagan,MN,55122.0,USA,6515037004.0,happyhouseorganizer@gmail.com,https://happyhouseorganizer.com/,60632-000,Organizing Services - Household & Business,1/1/17 0:00,,False,A+,100.0,1.0,,False,Micro-small,False,10/27/21 4:18,BBB,200,1
308,708,704,14000392,Working Woman Clothing Company,5637 Manitou Rd,,Excelsior,MN,55331.0,USA,9524744285.0,suzanne@shopheartbreaker.com,https://www.shopheartbreaker.com/,55093-000,Clothing - Retail,2/6/79 0:00,,False,A+,100.0,21.0,,False,Large,False,6/14/22 8:18,Email,200,1
309,709,704,96130897,Augie&#39;s Drain Cleaning,13570 Grove Dr Ste 284,,Maple Grove,MN,55311.0,USA,7634259461.0,augiesdrain@tjkplumbinginc.com,http://www.augiesdrain.com/,10043-010,Drain Cleaning,5/29/03 0:00,,True,A+,100.0,2.0,0.0,False,Small,False,2/8/23 9:27,BBB,200,1
310,710,704,96297432,"Professional Periodontics & Dental Implants, PLLC",13998 Maple Knoll Way,Ste Ll103,Maple Grove,MN,55369.0,USA,7634203537.0,info@profperio.com,https://profperio.com/,60292-000,Dentistry - Cosmetic,1/1/00 0:00,,False,A+,100.0,6.0,,False,Small,False,10/18/22 19:56,BBB,200,1
311,711,704,96294889,CIT Relay & Switch,14680 James Road,,Rogers,MN,55374.0,USA,7635352339.0,sales@citrelay.com,http://www.citrelay.com,80602-000,Relays,7/19/99 0:00,,False,A+,100.0,10.0,,False,Small,False,12/19/22 8:51,BBB,200,1
312,712,704,96120925,Viacom,1515 Broadway,,New York,NY,10036.0,USA,2122586000.0,,http://www.viacom.com,70624-000,Television Stations & Broadcast Companies,1/1/02 0:00,,False,NR,0.0,4000.0,,False,Large,False,5/21/16 2:46,BBB,200,0
313,713,704,1000009227,Tondryk Wealth Management,17601 Highway 7 Ste 100,,Minnetonka,MN,55345.0,USA,9524011671.0,,http://www.tondrykfinancial.com,20045-000,Investment Advisory Service,1/1/06 0:00,,False,A+,100.0,2.0,0.0,False,Micro-small,False,2/16/21 3:57,BBB,200,1
314,714,704,1000016361,Convenient Contraptions LLC,16400 Limerick Ln,,Minnetonka,MN,55345.0,USA,6127169940.0,,https://convenientcontraptions.com/,10035-000,Contractors - General,9/26/12 0:00,,False,A+,100.0,1.0,0.0,False,Micro-small,False,12/16/22 9:11,BBB,200,1
315,715,704,96579633,Farmers Insurance,4680 Wilshire Blvd,,Los Angeles,CA,90010.0,USA,7018382011.0,klatendresse@farmersagent.com,https://www.farmersagent.com/klatendresse,20019-100,Insurance Agency,9/1/11 0:00,,False,NR,0.0,3.0,0.0,False,Micro-small,False,6/1/22 21:26,BBB,200,1
316,716,704,1000057096,ProFusion CBD + Wellness of Sauk Center,965 Main St S Suite #103,,Sauk Centre,MN,56378.0,USA,3207666567.0,,https://www.profusion-cbd.com/,81000-850,CBD Products,,,False,NR,0.0,1.0,0.0,False,Micro-small,False,8/2/22 8:45,BBB,200,1
317,717,704,96578502,A & C Farm Service Inc,412 Bridge St,,Paynesville,MN,56362.0,USA,3202433736.0,randy@acfarmservices.com,http://www.acfarmservice.com,80283-000,Farm Equipment,4/28/77 0:00,,False,A+,100.0,1.0,0.0,False,Micro-small,False,11/17/22 9:21,BBB,200,1
318,718,704,96000652,"All-Ways Hauling, Inc",8460 Scandia Trl N,,Forest Lake,MN,55025.0,USA,6519821475.0,,http://www.allways.com/,70592-000,Rubbish & Garbage Removal,8/1/00 0:00,3/13/18 0:00,False,NR,0.0,2.0,,False,Micro-small,False,3/16/21 4:00,BBB,200,1
319,719,704,96016524,Turtle Cove Dental,14000 Northdale Blvd Ste J,,Rogers,MN,55374.0,USA,7634282300.0,lisa.bdcmn@gmail.com,http://www.turtlecovedental.com,60289-000,Dentists,1/1/04 0:00,,False,A+,100.0,7.0,,False,Micro-small,False,6/25/21 4:15,BBB,200,1
320,720,704,96007599,Detroit Lakes Regional Chamber of Commerce,700 Summit Ave,,Detroit Lakes,MN,56501.0,USA,2188479202.0,dlchamber@visitdetroitlakes.com,https://visitdetroitlakes.com/,60194-000,Chambers Of Commerce,1/1/21 0:00,,True,A+,100.0,4.0,0.0,False,Micro-small,False,12/13/22 9:02,BBB,200,1
321,721,704,96022645,North Central International LLC.,375 33rd Ave S,,Saint Cloud,MN,56301.0,USA,3202519511.0,,http://www.northcentralintl.com,50684-000,Truck Dealers,1/1/84 0:00,,False,A+,100.0,36.0,,False,Small,False,9/13/22 15:05,BBB,200,1
322,722,704,1000041849,Goss Plumbing INC,8105 CEDAR ST,,Rockford,MN,55373.0,USA,6122935140.0,carlton@gossplumbing.com,https://www.gossplumbing.com/,10113-010,Plumbing and Heating,2/26/19 0:00,,False,A+,98.07,1.0,,False,Micro-small,False,5/19/22 21:15,Email,200,1
323,723,704,96384149,Poet Biorefining Lake Crystal,19600 499th Ave,,Lake Crystal,MN,56055.0,USA,5077262645.0,chris.oehler@poet.com,https://www.poet.com/,80294-000,Feed - Wholesale & Manufacturers,1/1/09 0:00,,False,A+,100.0,,,False,Small,False,6/16/21 4:55,Email,200,1
324,724,704,1000008382,HHM Creative,716 4th St NE,,Minneapolis,MN,55413.0,USA,6128450168.0,info@hhmcreative.com,http://www.hhmcreative.com,60413-000,Graphic Designers,4/20/16 0:00,,False,A+,100.0,1.0,0.0,False,Micro-small,False,4/24/20 3:48,BBB,200,1
325,725,704,1000012837,Bluff Creek Golf Course,1025 Creekwood Street,,Chanhassen,MN,55317.0,USA,9524455685.0,proshop@bluffcreek.com,http://www.bluffcreek.com,60410-000,Golf Courses - Public,12/29/93 0:00,,False,A+,100.0,1.0,0.0,False,Micro-small,False,12/9/21 4:07,BBB,200,1
326,726,704,96570086,"Toftness & Houk, PLLC",1935 County Road B2 W Ste 400,,Roseville,MN,55113.0,USA,6516332516.0,john@hktklaw.com,http://www.hktklaw.com,60075-000,Attorneys & Lawyers,6/1/12 0:00,,False,A+,100.0,2.0,0.0,False,Micro-small,False,11/4/22 8:21,BBB,200,1
327,727,704,1000001961,EFS Advisors,1995 E Rum River Dr S,,Cambridge,MN,55008.0,USA,7636899023.0,kents@efsadvisors.com,http://www.efsadvisors.com,20085-000,Financial Services,12/1/11 0:00,,False,A+,100.0,15.0,,False,Small,False,12/9/22 9:20,BBB,200,1
328,728,704,96168581,Orchard Estates,1900 Ford Ave N,,Glencoe,MN,55336.0,USA,3208647798.0,,http://www.grhsonline.org,85296-200,Senior Housing/Living,6/1/91 0:00,,False,A+,100.0,12.0,,False,Micro-small,False,7/16/22 8:36,BBB,200,1
329,729,704,1000039694,Luce Line lodge,305 lewis Ave S,,Watertown ,MN,55388.0,USA,9529551305.0,,http://lucelinelodge.com,50544-000,Restaurants,7/27/20 0:00,,False,NR,0.0,1.0,,False,Micro-small,False,3/2/22 10:33,BBB,200,1
330,730,704,96297763,Aminoacids.com,1804 Dionne Ave,,Saint Paul,MN,55113.0,USA,6514898939.0,jeff@aminoacids.com,http://www.aminoacids.com,85160-000,Biomedical Products - Research,11/4/94 0:00,,False,A+,100.0,7.0,,False,Micro-small,False,8/4/21 5:08,BBB,200,1
331,731,704,96347720,Venture Technologies LLC,7760 France Ave S Ste 1165,,Bloomington,MN,55435.0,USA,6514729418.0,,http://www.venturetechmn.com,60987-000,Business Services - General,2/1/08 0:00,,False,NR,0.0,1.0,0.0,False,Small,False,7/11/21 4:10,BBB,200,0
332,732,704,96142077,Herman Manufacturing Co,650 3rd St NW,,Wells,MN,56097.0,USA,5075536241.0,jphm@bevcomm.net,http://www.hermanmfg.com,30366-000,Machine Shops,1/1/75 0:00,,False,A+,100.0,40.0,0.0,False,Small,False,1/28/23 8:47,BBB,200,1
333,733,704,96021837,Lake Area Bank,12790 N 1st Ave,,Lindstrom,MN,55045.0,USA,6516539619.0,klindstrom@lakeareabank.com,http://www.lakeareabank.com,20003-000,Banks,1/1/15 0:00,,False,A+,100.0,110.0,,False,Small,False,6/8/22 8:45,BBB,200,1
334,734,704,1000024269,MHC Imports Inc,315 W Main St,,Anoka,MN,55303.0,USA,7637104830.0,INFO@MHCIMPORTS.COM,http://MHCIMPORTS.COM,50039-100,Automobile Dealers - Imported Cars,6/25/15 0:00,,False,NR,0.0,6.0,0.0,False,Small,False,1/14/23 8:57,BBB,200,1
335,735,704,51001514,"LBC, Inc.",5653 N Shore Dr,,Duluth,MN,55804.0,USA,2185253364.0,jim@lbcduluth.com,https://www.lbcduluth.com/,85360-000,Garage Doors & Openers,4/21/98 0:00,,True,A+,100.0,1.0,,False,Micro-small,False,8/25/22 8:35,BBB,200,1
336,736,704,96174842,Gifts of Gaia,210 N 2nd St Apt 403,,Minneapolis,MN,55401.0,USA,6127037399.0,jane.walrath@giftsofgaia.com,http://www.giftsofgaia.com,60974-000,Internet Shopping,9/6/07 0:00,,False,A+,100.0,1.0,,False,Small,False,1/22/21 3:49,BBB,200,1
337,737,704,96075456,Eagan Pet Clinic,4395 Rahn Rd,,Saint Paul,MN,55122.0,USA,6514545684.0,eaganpetclinic@eaganpetclinic.com,http://www.eaganpetclinic.com,00222-000,Veterinarians,1/1/79 0:00,,False,A+,100.0,3.0,,False,Small,False,11/11/21 4:02,BBB,200,1
338,738,704,1000041486,Design Filter LLC,3101 E Franklin Ave,,Minneapolis,MN,55406.0,USA,9522709233.0,andrew@dsnfltr.com,https://www.dsnfltr.com/,60057-000,Architects,7/11/14 0:00,,False,A+,100.0,1.0,0.0,False,Micro-small,False,8/20/21 4:26,BBB,200,0
339,739,704,96161334,The Gary Vacuum,PO Box 9169,,Van Nuys,CA,91409.0,USA,8885443279.0,customerservice@garryvac.com,http://www.garryvac.com,80765-000,Vacuum Equipment & Systems,6/9/10 0:00,,False,NR,0.0,1.0,0.0,False,Micro-small,False,12/5/21 3:58,BBB,200,0
340,740,704,17001736,Bud's Service Center,5932 53rd Ave S,Suite A,Fargo,ND,58104.0,USA,7015321674.0,budsservice@gomoorhead.com,https://www.facebook.com/BudsServiceCenterFgo/,60103-000,Auto Repair & Service,1/1/84 0:00,,False,C+,77.0,4.0,0.0,False,Small,False,4/6/22 8:59,BBB,200,1
341,741,704,96036032,Northstar Capital Markets Service,444 Cedar St Ste 800,,Saint Paul,MN,55101.0,USA,6517269284.0,bcparker@northstar.org,https://www.northstar.org/,20047-000,Loans,3/1/00 0:00,,False,A+,100.0,75.0,,False,Micro-small,False,8/10/21 4:19,Email,200,1
342,742,704,96036335,Architecture Technology Corporation,9971 Valley View Rd,,Eden Prairie,MN,55344.0,USA,9528295864.0,redin@atcorp.com,http://www.atcorp.com,60235-000,"Computers Hardware, Software & Services",2/1/81 0:00,,False,A+,100.0,57.0,,False,Micro-small,False,12/17/22 9:00,BBB,200,1
343,743,704,96115057,I & S Engineers,115 E Hickory St Ste 300,,Mankato,MN,56001.0,USA,5073876651.0,amber.power@is-grp.com,http://www.is-grp.com,60057-000,Architects,1/1/73 0:00,,False,A+,100.0,40.0,,False,Small,False,8/3/22 8:42,BBB,200,1
344,744,704,96110373,Physicians Group LLC,1600 University Ave W # 306,,Saint Paul,MN,55104.0,USA,8666002778.0,,http://www.physiciansgroupllc.com,60218-000,Clinics,1/1/08 0:00,,False,A+,100.0,5.0,,False,Micro-small,False,12/1/21 4:53,BBB,200,1
345,745,704,1000007677,Brightwater Clothing & Gear,256 Water St,,Excelsior,MN,55331.0,USA,9524740256.0,brightwaterclothing@gmail.com,http://www.brightwaterclothing.com/,55093-000,Clothing - Retail,7/1/10 0:00,,False,A+,100.0,1.0,0.0,False,Micro-small,False,4/29/22 8:16,BBB,200,1
346,746,704,96191761,"Greg Foote Jewelers, Inc.",1075 Hadley Ave N Ste 100,,Oakdale,MN,55128.0,USA,6512277324.0,footeprints@q.com,http://www.gregfootejewelers.com,50367-000,Jewelers - Retail,1/1/08 0:00,,False,A+,100.0,1.0,,False,Micro-small,False,7/31/22 8:23,BBB,200,1
347,747,704,1000044919,Shannon Rose Consulting LLC,2525 W 65th St,,Richfield,MN,55423.0,USA,9523345616.0,shannon@shannonroseconsulting.com,http://shannonroseconsulting.com/,60172-100,Coaching - Business,9/11/18 0:00,,False,A+,97.52,1.0,0.0,False,Micro-small,False,9/14/21 4:03,BBB,200,1
348,748,704,96097948,Freestyle Photographic Supplies,5124 W Sunset Blvd,,Los Angeles,CA,90027.0,USA,3236603460.0,,http://www.freestylephoto.biz,50489-000,Photographic Equipment & Supplies - Retail,1/1/97 0:00,,False,NR,0.0,60.0,,False,Medium,False,9/20/16 4:28,BBB,200,1
349,749,704,1000005072,BrittneyKate Builds LLC,4515 155th Ave NE,,Ham Lake,MN,55304.0,USA,6127798868.0,,https://brittneykatebuilds.com,10177-000,Construction & Remodeling Services,1/5/16 0:00,,False,NR,0.0,1.0,0.0,False,Micro-small,False,1/21/23 8:56,BBB,200,1
350,750,704,96043485,The Brittanys Townhomes and Apartments,3093 25th St NW Apt J,,Rochester,MN,55901.0,USA,5072808859.0,Inquiry@TheBrittanys.com,http://www.thebrittanys.com,61003-000,Real Estate - Rentals by Individuals,3/1/01 0:00,,False,A+,100.0,2.0,0.0,False,Micro-small,False,3/3/22 9:50,BBB,200,1
351,751,704,1000015575,Erickson Homes Services LLC,PO Box 424,,West Concord,MN,55985.0,USA,5076763716.0,erickson@ericksonhomeservices.net,https://ericksonhomeservices.net/,10035-000,Contractors - General,,,False,A+,100.0,1.0,0.0,False,Micro-small,False,1/14/22 9:30,BBB,200,1
352,752,704,1000044943,Spotnik LLC,"250 2nd Ave S, Ste 225",,Minneapolis,MN,55401.0,USA,6123777903.0,pat@spotnikcuts.com,https://www.spotnikcuts.com/,60318-000,Editorial Services,12/15/03 0:00,,False,A+,100.0,1.0,0.0,False,Micro-small,False,2/11/21 4:05,BBB,200,1
353,753,704,96008959,Anderson&#39;s Cove,11246 Portside Ct NW,,Walker,MN,56484.0,USA,2185473762.0,acr@eot.com,https://www.andersonsleech-lake.com,60752-000,Resorts,1/1/96 0:00,,False,A+,100.0,5.0,,False,Micro-small,False,10/20/22 8:10,BBB,200,1
354,754,704,96580742,"Coating Specialities, LLC",PO Box 363,,Montevideo,MN,56265.0,USA,3202696421.0,brady@coatingspec.com,http://coatingspec.com/,10095-000,Painting Contractors,7/21/08 0:00,,False,A+,100.0,1.0,0.0,False,Micro-small,False,3/25/22 8:41,BBB,200,1
355,755,704,96374713,"88 Graphics, Inc.",2066 College Way,,Fergus Falls,MN,56537.0,USA,2187703642.0,chad@88graphics.com,http://www.88graphics.com,60979-100,E-Mail Marketing,8/6/07 0:00,,False,A+,100.0,1.0,,False,Micro-small,False,4/27/22 8:41,BBB,200,1
356,756,704,1765,Jerry&#39;s Blacktopping Inc,6531 E Fish Lake Rd,,Osseo,MN,55369.0,USA,7634243131.0,jerry@jerrysblacktop.com,http://www.jerrysblacktop.com,10102-000,Paving Contractors,1/1/79 0:00,,False,A+,100.0,4.0,0.0,False,Micro-small,False,11/8/22 9:17,BBB,200,1
357,757,704,96200354,Aircare Heating & Air LLC,12535 3201/2 Ave,,Princeton,MN,55371.0,USA,7636344100.0,Aircareheating@hotmail.com,http://www.aircareheatingandair.com,10182-300,Air conditioning & Heating Contractors - Commercial,1/1/07 0:00,3/4/16 0:00,False,NR,0.0,4.0,,False,Micro-small,False,5/17/22 8:15,BBB,200,0
358,758,704,96130796,Red Cricket Acupuncture,3747 Minnehaha Ave,,Minneapolis,MN,55406.0,USA,6128240037.0,,http://www.redcricket.com,60007-000,Acupuncturists,1/1/08 0:00,,False,A+,100.0,1.0,,False,Micro-small,False,3/30/22 9:06,BBB,200,1
359,759,704,1000046434,Eisenman Services,995 1st Ave SE,,Rochester,MN,55904.0,USA,5079939532.0,info@eisenmanservices.com,http://eisenmanservices.com/,10035-000,Contractors - General,2/17/11 0:00,,True,A+,100.0,4.0,,False,Micro-small,False,8/12/22 8:33,BBB,200,1
360,760,704,96026123,Cove Development Company,11343 39th St N,,Lake Elmo,MN,55042.0,USA,6517733000.0,info@4dmsi.com,http://www.4dmsi.com,60010-000,Advertising Agencies & Counselors,6/26/02 0:00,,False,A+,100.0,4.0,,False,Micro-small,False,11/23/22 9:42,BBB,200,0
361,761,704,24000617,Dotcom Printing Inc,11996 Waterford Rd,,Eden Prairie,MN,55347.0,USA,7635591185.0,info@dotcomprinting.com,http://www.dotcomprinting.com,60771-300,Promotional Products,3/23/99 0:00,,False,A+,100.0,1.0,0.0,False,Micro-small,False,5/5/22 8:22,BBB,200,1
362,762,704,1000014232,New Perspective | Woodbury,2195 Century Ave S,,Saint Paul,MN,55125.0,USA,6514591400.0,info@npseniorliving.com,https://npseniorliving.com/communities/woodbury/,85296-200,Senior Housing/Living,10/31/08 0:00,,True,A+,100.0,10.0,0.0,False,Small,False,10/21/22 8:07,BBB,200,1
363,763,704,1000034996,Big Dog Sportswear,12723 Wayzata Blvd,,Hopkins,MN,55305.0,USA,9525930676.0,marymc@thewalkingcompany.com,http://www.bigdogs.com,50582-000,Shoes - Retail,3/12/04 0:00,,False,NR,0.0,1.0,0.0,False,Micro-small,False,6/1/22 21:27,BBB,200,1
364,764,704,4000487,"Preserve Painting, Inc.",6125 Eden Prairie Rd,,Minnetonka,MN,55345.0,USA,9529340934.0,rick@preserve-painting.com,http://www.preserve-painting.com,10095-000,Painting Contractors,4/1/00 0:00,,False,A+,100.0,10.0,,False,Micro-small,False,6/16/22 8:33,BBB,200,1
365,765,704,96296760,Mnsofa,PO Box 237,,Maple Plain,MN,55359.0,USA,7632281800.0,,http://www.mnsofa.com,50419-000,Mattresses,,7/13/17 0:00,False,NR,0.0,,,False,Micro-small,False,7/20/20 3:39,BBB,200,0
366,766,704,6000634,Y M C A,3760 Lexington Ave N,,Saint Paul,MN,55126.0,USA,6514832671.0,courtney.harrness@ymcamn.org,http://www.ymcatwincities.org,60353-000,Exercise & Physical Fitness Programs,1/1/94 0:00,,False,A+,100.0,200.0,,False,Medium,False,12/14/21 4:08,BBB,200,1
367,767,704,96009618,"JTH Lighting Alliance, Inc.",6885 146th St W,,Apple Valley,MN,55124.0,USA,9522236300.0,support@jthlighting.com,http://www.jthlighting.com,80432-000,Lighting Fixtures - Wholesale & Manufacturers,1/1/88 0:00,,True,A+,100.0,37.0,,False,Small,False,1/10/23 8:48,BBB,200,1
368,768,704,1000005351,Outdoor Living & Spas,1905 Burdick Expy W,,Minot,ND,58701.0,USA,7018527252.0,chris@ohdminot.com,http://www.outdoorlivingandspas.com,50602-000,Spas & Hot Tubs - Dealers,2/21/08 0:00,,False,A+,100.0,1.0,0.0,False,Micro-small,False,6/12/21 6:08,BBB,200,1
369,769,704,1443,Buerkle Acura,7925 Brooklyn Blvd,,Brooklyn Park,MN,55445.0,USA,7634244545.0,dave.buerkle@buerkle.com,http://www.buerkleacura.com,50039-000,Auto Dealers - New Cars,7/1/86 0:00,,True,A+,100.0,40.0,0.0,False,Small,False,1/7/23 9:06,BBB,200,1
370,770,704,96130334,DIP STIX,2010 E Hennepin Ave Ste 71,,Minneapolis,MN,55413.0,USA,6123791677.0,,http://www.dipstix.com,30790-000,"Food Manufacturers, Wholesalers, Distributors",1/1/96 0:00,3/1/21 0:00,False,NR,0.0,1.0,,False,Micro-small,False,7/15/21 4:16,BBB,200,1
371,771,704,1000052797,"Reps Service, LLC",8811 Research Center Rd E,,New Hope,MN,55428.0,USA,7637034150.0,rayrepsservices@gmail.com,http://www.raysindependenceauto.com,44010-000,Auto,3/4/17 0:00,,True,A+,100.0,3.0,,False,Large,False,11/30/22 9:27,BBB,200,1
372,772,704,96127940,Ingersoll Rand Co. - Security Technologies,11819 N Pennsylvania St,,Carmel,IN,46032.0,USA,3178103700.0,jared_gehle@irco.com,http://www.ingersollrand.com,80190-100,Air Compressors,10/1/06 0:00,,False,A+,100.0,40.0,,False,Small,False,8/4/22 8:30,BBB,200,1
373,773,704,96005160,The UPS Store #6160,2038 Ford Pkwy,,Saint Paul,MN,55116.0,USA,6516981685.0,store6160@theupsstore.com,http://www.theupsstorelocal.com/6160,60531-000,Mailing Services,12/1/09 0:00,,False,A+,100.0,6.0,,False,Small,False,11/15/22 9:10,BBB,200,1
374,774,704,96378144,America&#39;s Best Value Inn & Suites,1625 S Broadway,,Rochester,MN,55904.0,USA,5072812211.0,,http://www.americasbestvalueinn.com,60447-000,Hotels,1/1/12 0:00,,False,NR,0.0,6.0,0.0,True,Micro-small,False,9/17/22 8:23,BBB,200,1
375,775,704,1000018984,Millennial Communications LLC,900 5th Ave N,,Minneapolis,MN,55405.0,USA,6124583291.0,Triciemartin@icloud.com,https://www.facebook.com/millennialcllc/,60172-111,Consultants - Telecommunication,3/30/18 0:00,,False,A+,100.0,1.0,0.0,False,Micro-small,False,1/28/23 8:48,BBB,200,1
376,776,704,96562256,Top Talent Solutions,7600 Boone Ave N,,Brooklyn Park,MN,55428.0,USA,9528322032.0,ekubitschek@toptalentmn.com,https://www.toptalentmn.com/,60569-000,Modeling & Talent Agencies,3/31/15 0:00,11/18/22 0:00,False,NR,0.0,1.0,0.0,False,Micro-small,False,11/20/22 8:59,Email,200,0
377,777,704,1000016612,"CAT Plumbing and Heating, LLC",405 Oxford St,,Northfield,MN,55057.0,USA,9523933257.0,tbauer927@yahoo.com,http://www.CATPlumbingAndHeating.com,10113-000,Plumbers,7/24/00 0:00,,True,A+,100.0,1.0,0.0,False,Micro-small,False,6/16/22 8:34,BBB,200,1
378,778,704,96539114,Arnold's of Kimball,701 Hwy 55,,Kimball,MN,55353.0,USA,3203983800.0,,http://www.arnoldsinc.com/,80283-000,Farm Equipment,4/30/14 0:00,,False,A+,100.0,,0.0,False,Micro-small,False,4/2/21 4:01,BBB,200,1
379,779,704,96099015,Highway Dept-Garage,1400 Adams St SE,,Hutchinson,MN,55350.0,USA,3202340234.0,john.brunkhorst@co.mcleod.mn.us,https://www.co.mcleod.mn.us/,30772-000,Government - County,,,False,NR,0.0,20.0,,False,Micro-small,False,10/27/16 3:56,Email,200,1
380,780,704,96348247,Kutzer Construction,912 N 29th St,,Bismarck,ND,58501.0,USA,7012550481.0,,http://www.kutzerconstruction.com,10035-000,Contractors - General,,,False,NR,0.0,2.0,,False,Micro-small,False,10/18/22 8:16,BBB,200,1
381,781,704,1000035477,Dollar Tree Stores Inc,3001 Nicollet Ave,,Minneapolis,MN,55408.0,USA,6128254092.0,customerservice@dollartree.com,http://www.dollartree.com,50203-000,Discount Stores,1/1/05 0:00,,False,NR,0.0,15.0,0.0,False,Small,False,6/1/22 21:28,BBB,200,1
382,782,704,57000107,"Streamline Design, Inc.",4598 Chatsworth St N,,Shoreview,MN,55126.0,USA,6516889137.0,streamline@usinternet.com,http://streamlinedesignusa.com,30588-000,Screen Printing ,1/1/88 0:00,,False,A+,100.0,5.0,,False,Small,False,10/19/22 8:27,BBB,200,1
383,783,704,1000045435,The House Dudes,403 8th St S Suite A 194,,Moorhead,MN,56560.0,USA,7014014820.0,,https://www.housedudes.com/contact-us/,60729-000,Real Estate,,,False,C,74.0,1.0,,False,Micro-small,False,10/27/22 8:14,BBB,200,1
384,784,704,23000116,Lake Country Chevrolet,1101 State Ave NE,,Warroad,MN,56763.0,USA,2183861554.0,,http://www.lakecountrychev.com,50039-000,Auto Dealers - New Cars,1/1/56 0:00,,False,NR,0.0,20.0,,False,Small,False,10/28/22 8:23,BBB,200,1
385,785,704,96041536,At Home Title,1960 Cliff Lake Rd Ste 119,,Eagan,MN,55122.0,USA,9524057474.0,jody@athometitle.com,http://www.athometitle.com,20072-000,Title Companies & Agents,4/1/04 0:00,,False,A+,100.0,5.0,,False,Micro-small,False,7/20/22 9:10,BBB,200,1
386,786,704,96134429,Zahrbock Funeral Chapel,108 2nd Ave Ste 1,,Madison,MN,56256.0,USA,3205983339.0,,http://www.zahrbockfuneralhome.com,61013-000,Funeral Related Services,1/1/84 0:00,,False,A+,100.0,4.0,0.0,False,Micro-small,False,3/1/22 9:57,BBB,200,1
387,787,704,96345969,Now Boarding,6002 28th Ave S,,Minneapolis,MN,55450.0,USA,6124544850.0,stay@nowboardingpets.com,http://www.nowboardingpets.com,00153-000,Pet Boarding & Kennels,3/20/08 0:00,,False,A+,100.0,25.0,,False,Small,False,8/27/22 8:25,BBB,200,1
388,788,704,96092578,University of Minnesota Dental Clinics Moos Tower,515 Delaware St SE,,Minneapolis,MN,55455.0,USA,6126252495.0,umdentcl@umn.edu,https://dentistry.umn.edu/,60289-000,Dentists,1852-01-01 00:00:00,,False,A+,100.0,1000.0,,False,Large,False,12/14/22 9:35,BBB,200,0
389,789,704,1000042940,"Maki Tax and Accounting, INC.",26061 Main St ,,Zimmerman,MN,55398.0,USA,7638560897.0,robin@makitax.com,http://www.makitax.com/,60005-000,Accountants,12/17/99 0:00,,False,A+,100.0,1.0,,False,Micro-small,False,11/16/22 9:43,BBB,200,1
390,790,704,96011036,"Knickrehm Electric, LLC",69672 340th St,,Saint James,MN,56081.0,USA,5073753483.0,,https://www.knickrehmelectric.com/home,10049-000,Electricians,1/1/98 0:00,,False,A+,100.0,3.0,,False,Micro-small,False,10/7/22 8:30,BBB,200,1
391,791,704,96190668,Cedarberg Industries,1960 Seneca Rd,,Saint Paul,MN,55122.0,USA,6514525012.0,,http://Cedarberg.com,30370-000,Machinery - New,6/21/73 0:00,,False,A+,100.0,12.0,,False,Micro-small,False,7/31/22 8:22,BBB,200,1
392,792,704,1000061277,The Cookie Cups LLC,600 Market St Ste 105,,Chanhassen,MN,55317.0,USA,6129997422.0,,https://www.thecookiecups.com/,30034-000,Bakers Supplies,4/14/18 0:00,,False,A+,100.0,1.0,,False,Micro-small,False,2/7/23 9:01,BBB,200,1
393,793,704,96593485,Lindsey Trenda Photography,20490 Orlando Ave,,Hastings,MN,55033.0,USA,6124248829.0,,https://500px.com/lindseytrendaphotography,60655-100,Photographers,2/10/16 0:00,,False,NR,0.0,1.0,0.0,False,Micro-small,False,11/9/21 3:56,BBB,200,1
394,794,704,1000002231,Unison Comfort Technologies,60 28th Ave N Ste 100,,Minneapolis,MN,55411.0,USA,6128774800.0,support@unisoncomfort.com,https://www.unisoncomfort.com/,10182-300,Air conditioning & Heating Contractors - Commercial,9/13/11 0:00,,False,A+,100.0,1.0,0.0,False,Micro-small,False,12/9/22 9:20,BBB,200,1
395,795,704,1000049863,Grand Stone Design,108 N 59th Ave W #3,,Duluth,MN,55807.0,USA,2183937275.0,,https://grandstonedesign.com/,10089-000,Mason Contractors,6/18/19 0:00,,False,A+,97.0,1.0,,False,Micro-small,False,4/6/22 9:01,BBB,200,1
396,796,704,1000061461,Northstar Regional ,7945 Stone Creek Dr Ste 140,,Chanhassen,MN,55317.0,USA,9529743999.0,info@northstarregional.com,https://northstarregional.com/locations/chanhassen/,60218-000,Clinics,,,False,D+,67.25,1.0,,False,Micro-small,False,2/2/23 8:53,BBB,200,1
397,797,704,96502338,White Bear Yacht Club,56 Dellwood Ave,,Dellwood,MN,55110.0,USA,6514294567.0,membership@wbyc.com,http://www.wbyc.com,70566-000,Marinas,,,False,A+,100.0,,,False,Small,False,9/17/20 4:03,BBB,200,1
398,798,704,96120865,Presbyterian Homes-SummerWood,525 Lake Dr,,Chanhassen,MN,55317.0,USA,9522945500.0,,http://www.summerwoodchanhassen.org,61002-000,Assisted Living Centers & Adult Family Homes,1/1/04 0:00,,False,NR,0.0,80.0,,False,Micro-small,False,11/25/22 9:02,BBB,200,1
399,799,704,1000038292,JP Handyman & Remodeling,34178 Jackal Ct NW,,Princeton,MN,55371.0,USA,6123630398.0,JPhandyman@mac.com,http://www.jphandyman.net,15035-000,Handyman Services,5/8/08 0:00,,False,F,59.0,1.0,0.0,False,Micro-small,False,8/26/20 4:59,BBB,200,1
