,BBBID,BusinessID,BusinessName,StreetAddress,StreetAddress2,City,StateProvince,PostalCode,Country,Phone,Email,Website,TOBID,TOBDescription,DateBusinessStarted,DateBusinessClosed,IsBBBAccredited,BBBRatingGrade,BBBRatingScore,NumberOfEmployees,NumberOfPartTimeEmployees,IsHQ,SizeOfBusiness,IsCharity,CDWLastUpdate,FoundVia,status_code,manually_checked
1200,704,1000005401,"Chateau Brick & Repair, Inc.",2450 W 150th Street,,Shakopee,MN,55379,USA,9524960134,,https://nextdoor.com/pages/chateau-brick-repair-shakopee-mn/,60201-000,Chimney Cleaning,2/2/87 0:00,,False,NR,0,1,0,False,Micro-small,False,12/26/22 8:45,Search,200,1
1201,704,1000003783,Turf Masters,4551 253rd Ave NW,,Isanti,MN,55040,USA,6122213222,,https://nextdoor.com/pages/turf-masters-isanti-mn/,00155-000,Landscape Contractors,1/1/03 0:00,,False,NR,0,1,0,False,Micro-small,False,1/28/23 8:48,Search,200,1
1202,704,1000005179,Grand Health Chiropractice and Wellness Center,1025 Selby Ave Ste 101,,Saint Paul,MN,55104,USA,6512289000,,https://grandhealthchiro.com/,60205-000,Chiropractors D.C.,11/5/14 0:00,,False,A+,100,1,0,False,Micro-small,False,12/6/20 3:57,Search,200,1
1203,704,1000004970,Casterton Title & Closing Company,38814 3rd Ave,,North Branch,MN,55056,USA,6512577202,,https://www.superpages.com/north-branch-mn/title-companies,20072-000,Title Companies & Agents,12/28/01 0:00,1/3/20 0:00,False,NR,0,1,0,False,Micro-small,False,1/4/20 4:16,Search,200,0
1204,704,1000006264,Corey Hulke Construction,51377 460th Ln,,Courtland,MN,56021,USA,5073591050,,https://opencorporates.com/companies/us_mn/fe70ab67-8dd4-e011-a886-001ec94ffe7f,10035-000,Contractors - General,4/6/06 0:00,,False,A+,100,1,0,False,Micro-small,False,3/20/21 4:04,Search,200,1
1205,704,1000003022,Scherrcom,2032 119th Ave Se,,Valley City,ND,58072,USA,7018455180,,https://www.finduslocal.com/computer-related-services-special-warehousestorage/north-dakota/valley-city/scherrcom_213-central-ave-n/,60235-000,"Computers Hardware, Software & Services",,,False,NR,0,1,0,False,Micro-small,False,1/29/23 8:36,Search,200,1
1206,704,1000006694,"Nadine Julson, LLC",7177 county rd 81 ,,Wahpeton,ND,58075,USA,7016428146,,https://www.julsoncpa.com/,60005-000,Accountants,12/4/97 0:00,,False,A+,100,1,0,False,Micro-small,False,4/28/21 4:48,Search,200,1
1207,704,1000005551,Treasures in Town,206 S Main St,,Le Sueur,MN,56058,USA,5076654923,,https://www.facebook.com/treasuresintown/,50655-000,Thrift Shops,4/5/06 0:00,,False,NR,0,1,0,False,Micro-small,False,12/26/22 8:45,Search,200,1
1208,704,1000000194,"Jespersen Excavating, Inc.",7911 County Road 15 W,,Minot,ND,58703,USA,7018336063,,https://www.facebook.com/jespersenexc/,10035-000,Contractors - General,3/31/04 0:00,,False,NR,0,2,0,False,Micro-small,False,8/11/22 8:30,Search,200,1
1209,704,1000006252,Helen Wood MD,7400 Metro Blvd Ste 235,,Edina,MN,55439,USA,9522367623,,https://www.helenwoodmd.com/,60970-000,Physicians - Specialists,10/21/09 0:00,,False,A+,100,1,0,False,Micro-small,False,1/5/20 4:18,Search,200,1
1210,704,1000005087,Dean Burzinski Construction,2500 2nd Ave NW,,Nicolville,MN,55912,USA,5073962785,,https://southgate.austin.k12.mn.us/staff-directory,10177-000,Construction & Remodeling Services,6/20/00 0:00,,False,NR,0,1,0,False,Micro-small,False,6/29/21 3:57,Search,200,0
1211,704,1000005076,Brovold Home Services Inc,4055 133rd Ln NE,,Ham Lake,MN,55304,USA,6126854371,,https://www.superpages.com/andover-mn/bpp/brovold-home-services-inc-25644486,10177-000,Construction & Remodeling Services,,,False,NR,0,1,0,False,Micro-small,False,1/24/23 8:58,Search,200,1
1212,704,1000005088,Roger Busiahn Construction,5563 120th Ave,,Wood Lake,MN,56297,USA,5078280247,,https://homeflock.com/contractor/12829880,10177-000,Construction & Remodeling Services,4/27/11 0:00,,False,A+,100,1,0,False,Micro-small,False,1/5/21 3:58,Search,200,1
1213,704,1000005065,Brian Lagergren LLC,5735 Co Rd 1,,Littlefork,MN,56653,USA,2182784327,,https://opencorporates.com/companies/us_mn/f0360bf9-7310-e111-aff2-001ec94ffe7f,10177-000,Construction & Remodeling Services,12/17/11 0:00,,False,NR,0,1,0,False,Micro-small,False,12/20/22 8:57,Search,200,1
1214,704,1000005550,Aqua Shine Car Wash,728 N Main St,,Le Sueur,MN,56058,USA,5076656500,,https://www.keyc.com/2022/04/28/le-sueur-police-release-aqua-shine-car-wash-burglary-update/,60180-000,Car Wash & Polish,3/28/96 0:00,,False,A+,100,2,0,False,Micro-small,False,12/28/19 4:25,Search,200,0
1215,704,1000002439,Traditions 1,195 24th Pl NW,,Owatonna,MN,55060,USA,5074550700,,https://www.facebook.com/traditionsofowatonna/,61002-100,Assisted Living & Adult Family Homes,1/25/05 0:00,,False,NR,0,1,0,False,Micro-small,False,7/8/22 12:29,Search,200,1
1216,704,1000006246,Kingston Construction,3905 Donway Dr NE,,Alexandria,MN,56308,USA,3207627274,,https://www.houzz.com/professionals/home-builders/kingston-construction-llc-pfvwus-pf~2048732018,10035-000,Contractors - General,1/1/97 0:00,,False,A+,100,2,0,False,Micro-small,False,6/15/21 4:23,Search,200,1
1217,704,1000006030,Dale&#39;s Handy Service,213 4th Ave NW,,Dilworth,MN,56529,USA,2187900769,,https://www.showmelocal.com/profile.aspx?bid=23579465,10178-000,Windows - Installation & Service,1/1/00 0:00,,False,NR,0,1,0,False,Micro-small,False,1/10/23 8:49,Search,200,0
1218,704,1000002781,Black Plains Buffalo Ranch,870 50th St NW,,Danvers,MN,56231,USA,3205672242,,https://www.kaffmandu.com/danversmgh,00204-000,Ranches,,,False,NR,0,1,0,False,Micro-small,False,1/29/23 8:36,Search,200,0
1219,704,1000002341,Thelen Appraisals ,3633 17th St S Southpionte,,Fargo,ND,58104,USA,7017295038,,https://thelenappraisal2.appraiserxsites.com/,60045-000,Appraisers,,,False,NR,0,1,0,False,Micro-small,False,1/30/23 8:34,Search,200,1
1220,704,1000005311,Pilgrimage Cafe,3233 dakota ave s,,Minneapolis,MN,55416,USA,6127290034,,https://foursquare.com/v/pilgrimage-cafe/54d4d53d498e6a2031e89f36,50544-000,Restaurants,9/18/14 0:00,9/20/17 0:00,False,NR,0,1,0,False,Micro-small,False,9/21/20 4:02,Search,200,1
1221,704,1000001591,TK Construction Management Services LLC,1920 Whitetail Ridge Ct,,Excelsior,MN,55331,USA,6123631835,,https://www.dandb.com/businessdirectory/t.k.constructionmanagementservicesllc-excelsior-mn-7626972.html,10177-000,Construction & Remodeling Services,1/4/10 0:00,,False,A+,100,1,0,False,Micro-small,False,1/31/23 19:08,Search,200,1
1222,704,1000001903,Country Pride True Value,1100 3rd Ave,,Birmingham Lake,MN,56159,USA,5074272333,,https://stores.truevalue.com/mn/mountain-lake/10094/,50333-000,Hardware - Retail,,,False,NR,0,20,0,False,Micro-small,False,1/30/23 8:33,Search,200,1
1223,704,1000002920,G Salk Inc,34938 County Road 4,,Saint Joseph,MN,56374,USA,3202595708,,https://www.salkinc.com/,50173-000,Computers - Dealers,,7/18/12 0:00,False,NR,0,,,False,Micro-small,False,8/20/18 4:52,Search,200,1
1224,704,1000005736,"Clancy's Enterprise, Inc.",18755 babcock ave,,Lester Pr,MN,55354,USA,9522506666,,https://www.dandb.com/businessdirectory/clancyenterpriseinc-lesterprairie-mn-21498648.html,10177-000,Construction & Remodeling Services,3/5/02 0:00,,False,A+,100,1,0,False,Micro-small,False,4/6/22 9:01,Search,200,1
1225,704,1000004989,Hampton Inn,2812 University Ave SE,,Minneapolis,MN,55454,USA,6122598797,,https://www.hilton.com/en/hotels/mspmdhx-hampton-suites-minneapolis-downtown/,60447-000,Hotels,,,False,NR,0,1,0,False,Micro-small,False,6/1/22 21:26,Search,200,1
1226,704,1000005492,Arlington Liquors,418 W Main St,,Arlington,MN,55307,USA,5079642727,,https://arlington-liquors.com/,50399-000,Liquor Stores,6/21/05 0:00,,False,A+,100,1,0,False,Micro-small,False,3/4/20 5:16,Search,200,1
1227,704,1000005582,Tai Commercial+Residential Build+Remodel & Repair Company,14844 Creditview Dr,,Savage,MN,55378,USA,9522105790,,https://www.homeyou.com/tai-commercial-residential-build-remodel-and-repair-company-savage-mn,10177-101,Bathroom Remodeling,4/27/09 0:00,,False,NR,0,1,0,False,Micro-small,False,12/26/22 8:45,Search,200,1
1228,704,1000003298,JL James Construction Services,2041 4th St E,,Saint Paul,MN,55119,USA,6513294478,,https://jljameshomes.com/,10177-000,Construction & Remodeling Services,9/29/15 0:00,,False,NR,0,1,0,False,Micro-small,False,10/25/22 8:10,Search,200,1
1229,704,1000004269,Original Coney Island Diner,107 E Superior St,,Duluth,MN,55802,USA,2187271077,,https://www.coneyislanddeluxe.com/,50544-000,Restaurants,8/25/08 0:00,2/1/18 0:00,False,NR,0,1,0,False,Micro-small,False,2/2/21 4:01,Search,200,1
1230,704,1000006158,Costin Brothers Construction,707 N 7th,,Hallock,MN,56728,USA,2188432651,,https://www.homeyou.com/costin-brothers-construction-hallock-mn,10177-000,Construction & Remodeling Services,4/26/99 0:00,,False,A+,100,1,0,False,Micro-small,False,7/14/22 8:24,Search,200,1
1231,704,1000000214,Lakewinds Food Co-op ,6321 Bury Dr Suite 21,,Eden Prairie,MN,55346,USA,9522398497,,https://www.lakewinds.coop/,80320-000,Food Products,5/7/14 0:00,,False,NR,0,1,0,False,Micro-small,False,4/24/22 8:09,Search,200,1
1232,704,1000002942,D & M Auto Body,1123 15th Ave NE,,East Grand Forks,MN,56721,USA,2187737797,,https://www.autobody-review.com/shop/i30468/d-m-auto-body,60094-000,Auto Body Repair & Painting,1/1/84 0:00,7/14/16 0:00,False,NR,0,1,,False,Micro-small,False,7/16/19 4:29,Search,200,1
1233,704,1000005459,Bode & Lieske Construction Inc,501 Moreland Ave,,Mankato,MN,56001,USA,,,https://gmg.greatermankato.com/Construction-Companies/Bode-Lieske-Construction-4593,10177-000,Construction & Remodeling Services,3/16/99 0:00,7/1/19 0:00,False,NR,0,1,0,False,Micro-small,False,7/8/22 12:29,Search,200,1
1234,704,1000005390,Bruegger&#39;s Bagels,3450 Pilot Knob Rd,,Eagan,MN,55122,USA,6516880400,,https://locations.brueggers.com/us/mn/eagan/2149a-cliff-road,50051-000,Bagels,11/23/09 0:00,,False,NR,0,1,0,False,Micro-small,False,1/17/23 8:46,Search,200,1
1235,704,1000005580,Top Level Detail LLC,519 2nd St NE,,Hopkins,MN,55343,USA,6124240402,,https://www.facebook.com/topleveldtl/,60096-000,Auto Detailing,3/28/16 0:00,,False,NR,0,1,0,False,Micro-small,False,2/7/23 9:00,Search,200,1
1236,704,1000003805,Isle Bowl & Pizza,4831 171st Ave NW,,Ham Lake,MN,55304,USA,3206768804,,https://www.islebowlandpizza.com/,60016-000,Advertising - Newspaper,1/1/02 0:00,,False,NR,0,4,0,False,Micro-small,False,1/28/23 8:48,Search,200,1
1237,704,1000002179,Bagley Bakery,23 Main Ave S,,Bagley,MN,56621,USA,2186946114,,https://www.menupix.com/minnesota/restaurants/368081/Bagley-Bakery-Bagley-MN,50052-000,Bakers - Retail,1/1/84 0:00,,False,NR,0,2,0,False,Micro-small,False,1/30/23 8:33,Search,200,1
1238,704,1000002917,Mt Olivet Rolling Acres,42037 248th Pl,,Mcgregor,MN,55760,USA,2187683069,,https://www.facebook.com/100870439992086/posts/therapeuticrecreationalweekmcgregor-property-was-donated-to-mount-olivet-rolling/2114645055281271/,60179-000,Camps,1/1/98 0:00,,False,NR,0,6,0,False,Micro-small,False,1/29/23 8:36,Search,200,1
1239,704,1000000133,YMG Home Care,5811 Cedar Lake Rd S,,Minneapolis,MN,55416,USA,9523036025,,https://www.minnesotahelp.info/Providers/YMG_Home_Care_Services_Inc/Personal_Care_Assistant_PCA/1?returnUrl=%2FSpecialTopics%2FSeniors%2F19352%3F%253fstart%3D2701%26start%3D921,60441-000,Home Health Services,8/17/07 0:00,,False,NR,0,1,0,False,Micro-small,False,7/30/22 8:29,Search,200,1
1240,704,1000005539,Gregs Lawn Care Service,125 Fairway Dr,,Albany,MN,56307,USA,3208454623,,https://www.gregslawn.com/,00155-000,Landscape Contractors,12/31/13 0:00,,False,NR,0,1,0,False,Micro-small,False,12/26/22 8:46,Search,200,1
1241,704,1000004996,Cutting Edge Power Equipment,110 2nd St S Ste 218,,Waite Park,MN,56387,USA,,,https://www.cuttingedgemower.com/,50229-000,Drawing Materials,,8/31/16 0:00,False,NR,0,1,,False,Micro-small,False,9/3/19 4:20,Search,200,1
1242,704,1000004208,Scenic View Campground Resort & RV,4957 County Road 91 SW,,Alexandria,MN,56308,USA,3207609395,,https://www.exploreminnesota.com/profile/scenic-view-rv-campground/3512,60177-000,Campgrounds & RV Parks,5/12/09 0:00,,False,A+,100,1,0,False,Micro-small,False,2/8/23 18:32,Search,200,1
1243,704,1000003074,Boe&#39;s Tree Care LLC,2141 24th St NE,,Mekinock,ND,58258,USA,7013305342,,https://www.facebook.com/boestreecare/,00219-000,Tree Service,11/13/15 0:00,,False,NR,0,1,0,False,Micro-small,False,2/4/23 9:01,Search,200,1
1244,704,1000003874,Adams Siding LLC,31024 Murry School Rd NE,,Blackduck,MN,56630,USA,2184074402,,http://www.adamssidingandwindows.com/,10135-000,Siding Contractors,3/6/14 0:00,,False,NR,0,1,0,False,Micro-small,False,1/10/23 8:49,Search,200,1
1245,704,1000002077,MN Advocates for Patients,21370 John Milless Dr,,Rogers,MN,55374,USA,9522122900,,https://seniorcommunity.org/mn-advocates-patients-celebrates-one-year-anniversary/,85296-000,Elderly/Senior Specialty Services,6/4/15 0:00,,False,NR,0,1,0,False,Micro-small,False,1/31/23 8:46,Search,200,1
1246,704,1000005549,The Employment Poole,113 N Main St,,Le Sueur,MN,56058,USA,5076653720,,https://employment-agencies.cmac.ws/the-employment-poole-inc/20171/,60326-100,Staffing - Technical,10/14/96 0:00,,False,A+,100,1,0,False,Micro-small,False,4/26/20 3:54,Search,200,1
1247,704,1000004931,American Pride Remodeling Inc,716 N Evergreen St,,Royalton,MN,56373,USA,3205845043,,https://pr.business/american-pride-remodeling-inc-royalton-minnesota,10177-000,Construction & Remodeling Services,5/11/99 0:00,,False,NR,0,1,0,False,Micro-small,False,8/31/19 4:14,Search,200,0
1248,704,1000005029,Aho Lawn & Snow,930 Klyva Rd Se,,Cokato,MN,55321,USA,3202865094,,https://www.dandb.com/businessdirectory/aholawnsnow-cokato-mn-16767823.html,00155-000,Landscape Contractors,1/1/03 0:00,1/2/20 0:00,False,NR,0,4,,False,Micro-small,False,1/9/23 8:32,Search,200,1
1249,704,1000001855,Kaz Hardware & Rental Center,19 Oak Ave Ste A,,Annandale,MN,55302,USA,3202745214,,https://kazhardware.doitbest.com/,50333-000,Hardware - Retail,12/4/74 0:00,,False,NR,0,1,0,False,Micro-small,False,6/3/22 9:03,Search,200,1
1250,704,1000006243,"Lake City Septic Service, Inc.",28451 712th St,,Lake City,MN,55041,USA,6513455495,,https://www.septic.com/septic-services/minnesota/lake-city/lake-city-septic-service/,10129-000,Septic Tanks & Systems Contractors & Dealers,2/9/05 0:00,,False,A+,100,1,0,False,Micro-small,False,1/29/20 6:33,Search,200,1
1251,704,1000005703,Cedar City Builders LLC,51770 160th St,,Austin,MN,55912,USA,5074337764,,https://www.bizapedia.com/mn/cedar-city-builders-llc.html,10035-000,Contractors - General,1/24/02 0:00,,False,NR,0,1,0,False,Micro-small,False,12/27/22 8:49,Search,200,1
1252,704,1000001873,"Good Domus, LLC",510 Evergreen Ln N,,Minneapolis,MN,55441,USA,7635139940,,https://www.dandb.com/businessdirectory/gooddomusllc-plymouth-mn-35190460.html,60732-000,Property Management,7/14/08 0:00,,False,NR,0,1,0,False,Micro-small,False,6/30/21 5:47,Search,200,1
1253,704,1000001944,Rodent & Wildlife Management,1391 County Road 7 NE,,Longville,MN,56655,USA,2183633324,,https://www.yellowpages.com/longville-mn/mip/rodent-wildlife-management-466145606,60650-000,Pest Control Services,1/1/06 0:00,6/8/16 0:00,False,NR,0,1,0,False,Micro-small,False,10/12/21 3:56,Search,200,1
1254,704,1000002425,Acacia Construction LLC,7900 Excelsior Blvd Ste 282,,Hopkins,MN,55343,USA,9524261627,,http://www.acaciallc.net/contact.html,10177-000,Construction & Remodeling Services,4/23/12 0:00,,False,NR,0,1,0,False,Micro-small,False,8/9/22 8:29,Search,200,1
1255,704,1000000111,America&#39;s Best Contacts & Eyeglasses,12940 Riverdale Dr NW,,Coon Rapids,MN,55448,USA,9526561005,,https://www.americasbest.com/location/mn/coon-rapids/riverdale-crossing,50467-000,Optical Goods - Retail,,,False,NR,0,1,0,False,Micro-small,False,1/31/23 8:46,Search,200,1
1256,704,1000000109,Mike Scheveck Painting LLC,5908 Halifax Pl,,Minneapolis,MN,55429,USA,7635049768,,https://nextdoor.com/pages/mike-scheveck-painting-llc-golden-valley-mn/,10095-000,Painting Contractors,6/19/09 0:00,,False,NR,0,2,0,False,Micro-small,False,12/6/22 9:13,Search,200,1
1257,704,1000005525,Bohnsack Construction LLC,49155 Co Rd 182,,Osakis,MN,56360,USA,3207667100,,https://en-gb.facebook.com/Bohnsack-Construction-LLC-228105033876890/,10177-000,Construction & Remodeling Services,6/27/03 0:00,,False,A+,100,1,0,False,Micro-small,False,9/22/22 8:57,Search,200,1
1258,704,1000003272,Cokato Wine & Spirits,500 Cokato St W,,Cokato,MN,55321,USA,3205590112,,https://www.facebook.com/profile.php?id=100057060476543,50399-000,Liquor Stores,9/27/12 0:00,,False,NR,0,1,0,False,Micro-small,False,10/10/22 7:59,Search,200,1
1259,704,1000003623,"Dui Bail Bonds, LLC",8200 Humboldt Ave S,STE 120,Bloomington,MN,55431,USA,6512431019,,https://www.ffldealernetwork.com/bloomington/midwest/dui-bail-bonds-llc,60119-000,Bail Bonds,1/7/09 0:00,11/20/19 0:00,False,NR,0,1,0,False,Micro-small,False,11/21/22 8:39,Search,200,1
1260,704,1000005668,Con-Tak Construction LLC,1975 Oak Dr SW,,Pine City,MN,55063,USA,3202376061,,https://www.dandb.com/businessdirectory/contakconstructionllc-pinecity-mn-11187673.html,10177-000,Construction & Remodeling Services,9/1/05 0:00,,False,NR,0,1,0,False,Micro-small,False,12/26/22 8:46,Search,200,1
1261,704,1000003078,1976 Enterprises,302 4th St NW Apt 101,,Wadena,MN,56482,USA,2183712193,,https://vymaps.com/US/1976-Enterprises-Apartments-507263496085465/,60042-000,Apartments,7/18/16 0:00,,False,NR,0,1,0,False,Micro-small,False,1/29/23 8:36,Search,200,1
1262,704,1000005590,Cosgrove House,228 S 2nd St,,Le Sueur,MN,56058,USA,5076652500,,https://www.roadtripsandhistory.com/2022/smith-cosgrove-house-in-le-sueur/,60136-000,Bed & Breakfast,6/19/02 0:00,,False,NR,0,1,0,False,Micro-small,False,12/26/22 8:45,Search,200,1
1263,704,1000004639,Aaron&#39;s Exterior Services,2397 Sparrow Dr,,Dickinson,ND,58601,USA,7013001033,,https://www.facebook.com/AaronsDickinson/,60940-000,Pressure Washing,3/1/16 0:00,,False,NR,0,1,0,False,Micro-small,False,12/6/22 9:13,Search,200,1
1264,704,1000005335,"Handley Enterprises, Inc.",6569 158th St W Apt 220D,,Apple Valley,MN,55124,USA,6125162444,,https://www.bizapedia.com/mn/handley-enterprises-inc.html,10035-000,Contractors - General,4/10/14 0:00,,False,NR,0,1,0,False,Micro-small,False,1/7/23 9:07,Search,200,1
1265,704,1000004635,Pub West,3140 Blue Stem Drive,,West Fargo,ND,58078,USA,7013569378,,https://pubwest.pub/,50643-000,Bars & Taverns,12/15/14 0:00,,False,A+,100,,0,False,Micro-small,False,1/29/20 6:34,Search,200,1
1266,704,1000005015,Rapids Lawn Care LLC,320 8th Ave S,,Sauk Rapids,MN,56379,USA,3202920826,,https://www.dandb.com/businessdirectory/rapidslawncarellc-saukrapids-mn-34019084.html,00157-000,Lawn Maintenance,5/3/11 0:00,,False,A+,100,1,0,False,Micro-small,False,4/13/21 4:06,Search,200,1
1267,704,1000002446,Knollwood Builders,PO Box 203,,Pennock,MN,56279,USA,3205994231,,https://www.whereorg.com/knollwood-builders-8221326,30760-000,Woodworking,1/1/94 0:00,10/18/19 0:00,False,NR,0,1,,False,Micro-small,False,7/12/22 8:33,Search,200,1
1268,704,1000006776,Bertram Bldg & Remodeling,7002 Fernbrook Ln N,,Osseo,MN,55311,USA,7634206772,,https://nextdoor.com/pages/bertram-building-remodeling-osseo-mn/,10035-000,Contractors - General,1/20/98 0:00,,False,NR,0,1,0,False,Micro-small,False,1/10/23 8:49,Search,200,1
1269,704,1000000016,Live Tree Nursery,146 Wilderness Way,,Good Thunder,MN,56037,USA,5072783414,,https://gmg.greatermankato.com/Tree-and-Stump-Service-and-Removal/Live-Tree-Nursery-2925,00155-000,Landscape Contractors,1/1/84 0:00,,False,NR,0,1,0,False,Micro-small,False,4/13/22 8:06,Search,200,1
1270,704,1000001401,American Mortgage,,,Lakeville,MN,55044,USA,6122001052,,https://yellow.place/en/american-mortgage-equity-consultants-inc-lakeville-lakeville-usa,20053-200,Mortgage Lender,,10/16/19 0:00,False,NR,0,1,0,False,Micro-small,False,7/10/21 4:23,Search,200,1
1271,704,1000002929,A & D Storage,34901 County Rd,,Albany,MN,56307,USA,3208452466,,https://www.showmelocal.com/profile.aspx?bid=1068616,70644-000,Warehouses - Merchandise,1/1/96 0:00,,False,NR,0,2,0,False,Micro-small,False,1/29/23 8:36,Search,200,1
1272,704,1000005431,"Bluhm Contracting & Construction, LLC",11673 WILTON BRIDGE RD,,Waseca,MN,56093,USA,6122554583,,http://bcimn.com/,10177-000,Construction & Remodeling Services,4/24/09 0:00,,False,NR,0,1,0,False,Micro-small,False,2/7/23 9:00,Search,200,1
1273,704,1000006333,Jeremy Seifert Electric,45458 442nd St,,Perham,MN,56573,USA,2183466580,,https://www.facebook.com/JeremySeifertElectricInc/,10049-000,Electricians,1/1/06 0:00,,False,A+,100,1,0,False,Micro-small,False,3/13/21 4:07,Search,200,1
1274,704,1000005930,"Foot & Ankle Medical Clinic, P.A.",1504 White Bear Ave N,,Saint Paul,MN,55106,USA,6517712513,,https://www.footandankleclinics.com/,60698-000,Podiatrists ,10/3/16 0:00,,False,NR,0,1,0,False,Micro-small,False,1/24/23 8:58,Search,200,1
1275,704,1000001815,Scott Powers Investment Corp.,18210 141st St NE,,Hawick,MN,56273,USA,3202178078,,http://scottpowersconsulting.com/,20085-200,Investment Management,1/27/10 0:00,,False,NR,0,1,0,False,Micro-small,False,11/29/22 9:07,Search,200,1
1276,704,1000005961,No Worry Lawn & Yard Service,122 Redstone Dr,,Bismarck,ND,58503,USA,7012021315,,https://bismarcktribune.com/places/agriculture/landscaping_garden_services/miscellaneous/no-worry-lawn-yard-service/business_4000067562.html,00157-000,Lawn Maintenance,8/11/15 0:00,,False,A+,100,1,0,False,Micro-small,False,6/14/20 3:55,Search,200,1
1277,704,1000005789,CNY Construction LLC,721 Heritage Ln,,Belle Plaine,MN,56011,USA,6129408520,,https://www.superpages.com/belle-plaine-mn/bpp/cny-construction-22506200,10078-000,Home Builders,2/18/10 0:00,,False,A+,100,1,0,False,Micro-small,False,11/10/22 9:23,Search,200,1
1278,704,1000002829,Feathers & Foam Framing,5540 Dundee Rd,,Minneapolis,MN,55436,USA,9529204065,,https://commercial-construction-consultants.cmac.ws/feathers-foam-framing/7862/,10177-000,Construction & Remodeling Services,1/1/09 0:00,,False,NR,0,1,0,False,Micro-small,False,10/16/22 8:03,Search,200,1
1279,704,1000002633,"Valley Concrete, Inc",7755 Leeward Ave N,,Stillwater,MN,55082,USA,6514394711,,https://www.thebluebook.com/iProView/386951/valley-concrete-inc/subcontractors/,10032-000,Concrete Contractors,3/15/93 0:00,,False,NR,0,6,0,False,Micro-small,False,11/25/22 9:02,Search,200,1
1280,704,1000006156,AAA Striping LLC,404 Main St N,,Velva,ND,58790,USA,7017200286,,https://opencorporates.com/companies/us_nd/0000154740,10177-000,Construction & Remodeling Services,6/17/16 0:00,5/10/18 0:00,False,NR,0,1,0,False,Micro-small,False,5/11/21 4:04,Search,200,1
1281,704,1000005223,Charles Berg Construction,23504 830TH AVE,,Albert Lea,MN,56007,USA,5073838070,,https://www.albertleatribune.com/2019/02/1-arrested-for-drunk-driving-and-other-reports-6/,10177-000,Construction & Remodeling Services,12/10/03 0:00,,False,A+,100,1,0,False,Micro-small,False,3/16/22 8:54,Search,200,0
1282,704,1000005071,Brian Sand Construction LLC,721 2nd Ave,,Albany,MN,56307,USA,3202505047,,https://opencorporates.com/companies/us_mn/9ae90af6-92d4-e011-a886-001ec94ffe7f,10177-000,Construction & Remodeling Services,11/25/09 0:00,,False,A+,100,1,0,False,Micro-small,False,4/14/21 5:06,Search,200,1
1283,704,1000005642,Derek Krebs Construction,502 N Van Buren Ave,,Springfield,MN,56087,USA,3207608669,,https://www.facebook.com/Derek-Krebs-Construction-LLC-122766641448235/,10177-000,Construction & Remodeling Services,3/9/15 0:00,,False,A+,100,1,0,False,Micro-small,False,1/8/20 5:24,Search,200,1
1284,704,1000006280,"Warrior Specialty Contracting, LLC",17825 30th St,,Mayer,MN,55360,USA,6122397699,,https://www.bizapedia.com/mn/warrior-specialty-contracting-l-l-c.html,10050-000,Excavating Contractors,4/17/14 0:00,,False,A+,100,1,0,False,Micro-small,False,7/8/22 12:29,Search,200,1
1285,704,1000006797,Scofield Homeworks,5601 Wooddale Ave,,Edina,MN,55424,USA,6127013968,,https://radaris.com/p/Craig/Scofield/,10035-000,Contractors - General,4/17/09 0:00,,False,A+,100,1,0,False,Micro-small,False,4/22/21 4:11,Search,200,0
1286,704,1000006081,A G Repair and Sales,821 14th St SE,,Fort Rice,ND,58554,USA,7014719071,,https://www.baribeauimplement.com/,60343-000,Engines - Rebuild & Exchange,9/18/14 0:00,,False,NR,0,1,0,False,Micro-small,False,1/2/23 8:49,Search,200,0
1287,704,1000004855,"Globus Transport, Inc","12800 Hwy 13 S, Suite 400",,Savage,MN,55378,USA,9523453233,,https://globustransport.com/,50750-000,Transportation Services,7/2/10 0:00,,False,NR,0,1,0,False,Micro-small,False,12/18/22 9:03,Search,200,1
1288,704,1000006661,Thomas E. Goven,117 3rd St NW Ste 8,,Valley City,ND,58072,USA,7018454081,,https://lawyers.justia.com/lawyer/thomas-e-goven-955665,60075-000,Attorneys & Lawyers,,,False,A+,100,1,0,False,Micro-small,False,4/15/22 8:42,Search,200,1
1289,704,1000001286,Ultra Industries,26467 Fallbrook Ave,,Wyoming,MN,55092,USA,6514088861,,https://www.mfg.com/manufacturer/ultra-industries-inc-wyoming-minnesota-878789,10145-000,Steel Erectors,4/25/16 0:00,,False,NR,0,5,0,False,Micro-small,False,5/3/22 8:15,Search,200,1
1290,704,1000002616,Little Falls Mini Storage,PO Box 149,,Little Falls,MN,56345,USA,3206324988,,https://www.sparefoot.com/Little-Falls-MN-self-storage/Little-Falls-Mini-Storage-74501.html,70644-000,Warehouses - Merchandise,1/1/04 0:00,,False,NR,0,1,0,False,Micro-small,False,1/30/23 8:34,Search,200,1
1291,704,1000002697,Alms Home Inspections,1636 Ridgewood Ln,,Red Wing,MN,55066,USA,6513885617,,https://www.olanderhomeinspections.com/,60469-000,Home Inspection Service,4/13/04 0:00,2/26/20 0:00,False,NR,0,,0,False,Micro-small,False,2/27/20 4:12,Search,200,1
1292,704,1000003448,"Party Papers and Costumes, LLC",222 E Main St,,Anoka,MN,55303,USA,7634275137,,https://www.yasabe.com/en/anoka-mn/d-52400853-party-papers-costumes-costume-shops-costumes-masquerade.html,70519-000,Balloons - Manned,3/26/09 0:00,,False,NR,0,1,0,False,Micro-small,False,1/6/23 9:13,Search,200,1
1293,704,1000001749,Big Stone Cellular,74611 Ridgeview Dr,,Ortonville,MN,56278,USA,3208393264,,https://www.showmelocal.com/profile.aspx?bid=1164545,70618-000,Telephone Communications,1/1/01 0:00,5/27/16 0:00,False,NR,0,1,,False,Micro-small,False,6/3/19 4:09,Search,200,1
1294,704,1000004651,H & R Block,129 S mill Street,,Fergus falls,MN,56537,USA,2187362870,,https://www.hrblock.com/local-tax-offices/minnesota/fergus-falls/129-s-mill-st/22859/,60857-000,Tax Return Preparation,,,False,NR,0,1,0,False,Micro-small,False,6/1/22 21:26,Search,200,1
1295,704,1000004407,"Clear Construction, LLC",4139 119th Ave NW,,Coon Rapids,MN,55433,USA,6129688691,,https://opencorporates.com/companies/us_mn/19a3c9f4-e9c1-e411-b14d-001ec94ffe7f,10177-000,Construction & Remodeling Services,3/3/15 0:00,12/21/18 0:00,False,NR,0,1,0,False,Micro-small,False,3/2/19 4:10,Search,200,1
1296,704,1000005482,Edina Grill,5028 France Ave S,,Minneapolis,MN,55410,USA,9529277933,,https://www.edinagrill.com/,50544-000,Restaurants,1/1/93 0:00,,False,NR,0,1,0,False,Micro-small,False,1/13/23 9:01,Search,200,1
1297,704,1000004636,Thunder Built Concrete & Hardscapes LLC,23079 Plateau Drive,,Lakeville,MN,55044,USA,9522103820,,https://www.houzz.com/professionals/stone-pavers-and-concrete/thunder-built-concrete-and-hardscapes-pfvwus-pf~221439125,10032-101,Concrete - Custom,2/18/15 0:00,,False,NR,0,1,0,False,Micro-small,False,2/8/23 9:28,Search,200,1
1298,704,1000000003,Vetter Homes Inc,Po Box 7142,,Bismarck,ND,58507,USA,7012233236,,https://vetterhomes.com/,10035-000,Contractors - General,3/29/16 0:00,,False,NR,0,1,0,False,Micro-small,False,4/13/22 8:06,Search,200,1
1299,704,1000006799,Countryside Cabinets of Buffalo Inc,1002 1st St NE,,Buffalo,MN,55313,USA,7636826509,,https://countryside-cabinets-of-buffalo.business.site/,50120-100,Cabinet Maker,4/15/88 0:00,,False,NR,0,1,0,False,Micro-small,False,1/22/23 8:40,Search,200,1
1300,704,1000001456,Franklin City Shop,320 2nd Ave E,,Franklin,MN,55333,USA,5075572728,,https://www.franklintn.gov/our-city/shopping,99998-000,Government Offices,8/30/10 0:00,,False,NR,0,3,0,False,Micro-small,False,2/1/20 4:31,Search,200,1
1301,704,1000001732,Tom Campion Construction,5390 Lake Sarah Heights Dr,,Loretto,MN,55357,USA,7634796155,,https://tomcampionconstructionllc.com/,10035-000,Contractors - General,1/1/04 0:00,,False,NR,0,3,0,False,Micro-small,False,10/9/22 8:05,Search,200,1
1302,704,1000005189,"WebDuck Designs, LLC",PO Box 38,,North Branch,MN,55056,USA,6516743834,,https://webduckdesigns.com/,60980-000,Web Design,10/20/09 0:00,,False,A+,100,1,0,False,Micro-small,False,7/8/22 12:29,Search,200,1
1303,704,1000006730,Leadership Vision Consulting,2723 Dean Parkway,,Minneapolis,MN,55416,USA,6128452175,,https://www.leadershipvisionconsulting.com/,60172-113,Coaching - Leadership,9/16/02 0:00,,False,A+,100,1,0,False,Micro-small,False,1/24/23 8:58,Search,200,1
1304,704,1000005808,Ray Young Handyman Services,3406 45th Ave S,,Fargo,ND,58104,USA,7017150275,,https://www.facebook.com/ygcconstruction/,15035-000,Handyman Services,,11/7/16 0:00,False,NR,0,,,False,Micro-small,False,8/11/20 3:56,Search,200,1
1305,704,1000002150,Vics Log Homes,PO Box 26,,Halliday,ND,58636,USA,7019384558,,https://www.yellowpages.com/halliday-nd/mip/vics-log-homes-481724788,10078-000,Home Builders,,,False,NR,0,1,0,False,Micro-small,False,1/30/23 8:33,Search,200,1
1306,704,1000004548,Affordable Autobody,170 Main NW,,West Union,MN,56389,USA,3208592812,,https://nextdoor.com/pages/affordable-autobody-west-union-mn/,60094-000,Auto Body Repair & Painting,1/4/15 0:00,,False,NR,0,1,0,False,Micro-small,False,1/29/23 8:37,Search,200,1
1307,704,1000001525,Chris Robichaud Painting,2081 Fairmount Ave,,Saint Paul,MN,55105,USA,6514504340,,https://www.chrisrobichaudpaintingco.com/,10095-300,Painters - Commercial or Residential,9/8/92 0:00,7/28/21 0:00,False,NR,0,1,0,False,Micro-small,False,7/30/21 4:16,Search,200,1
1308,704,1000005572,Froggy&#39;s Liquor,750 S Elmwood Ave,,Le Sueur,MN,56058,USA,5076656016,,https://www.restaurantji.com/mn/le-sueur/froggy-liquor-/,50399-000,Liquor Stores,4/12/00 0:00,,False,NR,0,1,0,False,Micro-small,False,12/26/22 8:45,Search,200,1
1309,704,1000006112,American Family Insurance ,209 3rd Ave N,,Sauk Rapids,MN,56379,USA,3202530981,,https://www.amfam.com/agents/minnesota/sauk-rapids/jennifer-ramos,20019-100,Insurance Agency,,,False,A+,100,1,0,False,Micro-small,False,1/26/23 8:50,Search,200,1
1310,704,1000005215,Adonai Constructions LLC,406 Lowry Ave N,,Minneapolis,MN,55411,USA,6127355330,,https://adonaiconstructions.com/,10177-000,Construction & Remodeling Services,11/4/09 0:00,,False,NR,0,1,0,False,Micro-small,False,12/24/22 8:49,Search,200,1
1311,704,1000005002,Gabiano Jewelers,4124 Quebec Ave N Ste 301,,New Hope,MN,55427,USA,7637172298,,https://gabiano-cad.business.site/,50367-000,Jewelers - Retail,6/23/09 0:00,,False,NR,0,1,0,False,Micro-small,False,1/10/23 8:49,Search,200,1
1312,704,1000006477,Niewoehner Funeral Home,213 2nd Ave SW,,Rugby,ND,58368,USA,7017766222,,https://www.niewoehnerfh.com/,62000-000,Funeral Homes,5/2/86 0:00,,False,A+,100,1,0,False,Micro-small,False,3/18/20 4:21,Search,200,1
1313,704,1000002919,Freedom Computer Service,16349 Marble St NW,,Anoka,MN,55303,USA,7637534929,,https://www.datafusion.net/computer-services/Anoka/MN/web-developers/services-11664643.html,85320-000,Computer Consultant,11/6/01 0:00,,False,NR,0,1,0,False,Micro-small,False,11/7/20 4:08,Search,200,0
1314,704,1000001801,Nordic Pest Control,31471 141st St NW,,Princeton,MN,55371,USA,7632034245,,https://www.facebook.com/mornelsnordic/,60650-000,Pest Control Services,5/23/16 0:00,,False,NR,0,2,0,False,Small,False,2/1/23 8:58,Search,200,1
1315,704,1000004719,Rondeau Husky Home,4226 James Ave N,,Minneapolis,MN,55412,USA,,,https://www.tiktok.com/@durry.music/video/7114805509441588526,05195-000,Dog Breeders,,,False,NR,0,1,0,False,Micro-small,False,6/14/22 8:20,Search,200,0
1316,704,1000005917,Alber√¢??s A A Restroom Rental,10485 Albers Trail,,Cannon Falls,MN,55009,USA,5076631000,,https://www.aawsi.com/states/mn/cannon-falls-portable-toilet-rentals.php,60885-000,Toilets - Portable,10/3/16 0:00,,False,NR,0,1,0,False,Micro-small,False,5/5/21 4:27,Search,200,1
1317,704,1000005995,"Don Orr Home Improvement, LLC",722 Cherry St,,Owatonna,MN,55060,USA,5073041327,,https://opencorporates.com/companies/us_mn/7d6139d2-92d4-e011-a886-001ec94ffe7f,10177-000,Construction & Remodeling Services,12/8/08 0:00,,False,A+,100,1,0,False,Micro-small,False,8/17/21 4:06,Search,200,1
1318,704,1000004995,Van Koevering & Van Koevering,12789 County Road 131,,Holdingford,MN,56340,USA,3203630533,,https://www.superpages.com/holdingford-mn/bpp/van-koevering-van-koevering-315024,00155-000,Landscape Contractors,8/30/10 0:00,,False,A+,100,2,0,False,Micro-small,False,3/4/22 9:46,Search,200,1
1319,704,1000001946,Rusty&#39;s Up North Realty,2600 46th St NE,,Longville,MN,56655,USA,2186757800,,https://rustysupnorthrealty.com/,60729-000,Real Estate,1/1/04 0:00,,False,NR,0,1,0,False,Micro-small,False,10/9/22 8:05,Search,200,1
1320,704,1000005057,Brent the Builder,16806 Taconite St NE,,Ham Lake,MN,55304,USA,6123880188,,https://www.parentcustomhomes.com/about-us/,10177-000,Construction & Remodeling Services,1/22/07 0:00,,False,NR,0,1,0,False,Micro-small,False,12/20/22 8:56,Search,200,0
1321,704,1000006086,Linex Liners,20725 Howland Ave,,Lakeville,MN,55044,USA,9524696009,,https://linextwincities.com/lakeville-mn/,85343-000,Truck Bedliner,1/1/02 0:00,,False,NR,0,3,0,False,Micro-small,False,1/24/23 8:58,Search,200,1
1322,704,1000002276,J3 Realty Group,7800 Metro Parkway Suite 300,,Bloomington,MN,55437,USA,9527674923,,https://www.realtor.com/realestateagency/56d6654db5cc660100bd41f8,60729-105,Real Estate Brokers,,,False,NR,0,1,0,False,Micro-small,False,1/31/23 8:46,Search,200,1
1323,704,1000000163,A & J Roofing,3916 2nd St E,,West Fargo,ND,58078,USA,7018668266,,https://www.jjroofingfargo.com/,10126-000,Roofing Contractors,4/13/16 0:00,,False,NR,0,1,0,False,Micro-small,False,8/16/22 8:20,Search,200,1
1324,704,1000002989,Mahon Group,13831 28th St N,,Stillwater,MN,55082,USA,6514307067,,https://www.attorneyunion.org/company-mahon-group-in-stillwater-mn-94152,60075-000,Attorneys & Lawyers,8/30/10 0:00,,False,NR,0,1,0,False,Micro-small,False,3/23/21 4:00,Search,200,1
1325,704,1000006337,Jerry Bothun Construction,10430 First Timberlane Dr,,Northfield,MN,55057,USA,5076455903,,https://bothunbrothersconstruction.com/,10035-000,Contractors - General,,,False,A+,99.49,,0,False,Micro-small,False,8/4/20 4:10,Search,200,1
1326,704,1000005146,Natural Balance Bodywork Therapy,6448 Main St,,North Branch,MN,55056,USA,6512959931,,https://www.facebook.com/NaturalBalanceBodyworkTherapy/,60543-000,Massage Therapists,3/27/13 0:00,,False,NR,0,1,0,False,Micro-small,False,12/24/22 8:49,Search,200,1
1327,704,1000002702,Bob's Circle Plumbing,52 East Rd,,Circle Pines,MN,55014,USA,7637842267,,https://septic-tanks-installation-and-repair-services.cmac.ws/bobs-circle-plumbing/4060/,10114-000,Plumbing Drains & Sewer Cleaning,7/12/16 0:00,,False,NR,0,1,0,False,Micro-small,False,5/18/21 4:06,Search,200,1
1328,704,1000006036,Outside Insights Consulting LLC,10337 Linda Ln N,,Greenfield,MN,55357,USA,7633704704,,https://opencorporates.com/companies/us_mn/5e5f39d2-92d4-e011-a886-001ec94ffe7f,60172-100,Coaching - Business,12/3/08 0:00,,False,A+,100,1,0,False,Micro-small,False,9/25/21 4:01,Search,200,1
1329,704,1000002544,Radiance Spine Injury-Wellness,8583 Lyndale Ave S,,Minneapolis,MN,55420,USA,9524442131,,https://radiancespine.com/eng,60685-000,Physical Therapists,11/5/15 0:00,,False,NR,0,1,0,False,Micro-small,False,11/26/22 8:48,Search,200,1
1330,704,1000006616,Big Wood's Construction LLC,1813 32nd Ave S Apt B,,Fargo,ND,58103,USA,2183937449,,https://www.facebook.com/bigwoodsLLC/,10035-000,Contractors - General,7/13/15 0:00,7/12/21 0:00,False,NR,0,1,0,False,Micro-small,False,7/14/21 4:26,Search,200,1
1331,704,1000002036,Sibley Court,484 Temperance St,,Saint Paul,MN,55101,USA,6512249003,,https://www.oahssibleycourt.com/,60042-000,Apartments,1/1/08 0:00,,False,NR,0,4,0,False,Micro-small,False,1/30/23 8:33,Search,200,1
1332,704,1000000171,Parlor7 LLC,1597 Highway 7,,Hopkins,MN,55305,USA,9529333594,,https://www.yellowpages.com/hopkins-mn/mip/parlor-7-523713726,60420-000,Hair Styling and Services,9/28/15 0:00,,False,NR,0,1,0,False,Micro-small,False,2/2/23 8:52,Search,200,1
1333,704,1000006040,Coolen Brothers Tree Service,3723 Eaken Ave NE,,Buffalo,MN,55313,USA,7636824439,,https://landscape-services.cmac.ws/coolen-brothers-tree-service/90234/,00219-000,Tree Service,10/7/16 0:00,,False,A+,100,1,0,False,Micro-small,False,8/3/22 8:42,Search,200,1
1334,704,1000005768,"Classic Custom Homes, Inc.",10801 Hackberry Ln N,,Champlin,MN,55316,USA,6122214754,,https://classic-customhomes.com/,10078-000,Home Builders,3/10/99 0:00,9/26/16 0:00,False,NR,0,1,0,False,Micro-small,False,8/4/21 5:08,Search,200,1
1335,704,1000000124,"Kerker, Inc.",7709 Pillsbury Ave S,,Minneapolis,MN,55423,USA,6128693232,,https://www.facebook.com/kerkerinc.residentialdesign/,00155-000,Landscape Contractors,4/22/91 0:00,,False,NR,0,10,0,False,Micro-small,False,11/15/22 9:12,Search,200,1
1336,704,1000002975,J M Bruhn Plumbing Co,48801 County Highway 17,,Vergas,MN,56587,USA,2183422475,,https://www.showmelocal.com/profile.aspx?bid=1160963,10003-000,Air Conditioning Contractors & Systems,1/1/87 0:00,,False,NR,0,1,0,False,Micro-small,False,1/29/23 8:36,Search,200,1
1337,704,1000005248,Advance Construction Services LLC,4215 Waville Rd NE,,Bemidji,MN,56601,USA,2185564996,,https://advancedconstructionmn.com/,10177-000,Construction & Remodeling Services,6/4/07 0:00,,False,A+,100,1,0,False,Micro-small,False,8/6/22 8:22,Search,200,1
1338,704,1000005573,R & Z Enterprises,3800 Restwood Rd,,Circle Pines,MN,55014,USA,6514644894,,https://www.showmelocal.com/profile.aspx?bid=1152308,00155-103,Landscape Maintenance,1/1/95 0:00,,False,A+,100,30,0,False,Small,False,6/3/22 9:04,Search,200,1
1339,704,1000003416,"Endeavor Archival Services, LLC",15465 5th St NE,,Ham Lake,MN,55304,USA,7632020155,,https://clustrmaps.com/a/7brcl/,82400-000,Records Management,6/25/14 0:00,,False,NR,0,1,0,False,Micro-small,False,11/1/22 8:13,Search,200,0
1340,704,1000003731,Grabinger&#39;s Marine,8227 33rd St SE,,Jamestown,ND,58401,USA,7012524824,,https://local.jamestownsun.com/jamestown-nd/grabingers-marine-701-252-4824,50082-000,Boat Dealers,1/1/06 0:00,,False,NR,0,4,0,False,Micro-small,False,1/28/23 8:48,Search,200,1
1341,704,1000001524,The Cut Above,524 Washington St,,Brainerd,MN,56401,USA,2188291234,,https://www.facebook.com/thecutabove218/,60134-000,Beauty Salons,1/1/84 0:00,,False,NR,0,7,0,False,Micro-small,False,8/15/21 4:22,Search,200,1
1342,704,1000006722,  H&G Cabinets & Construction,3769 215th St,,Winsted,MN,55395,USA,3204854233,,https://www.crowrivermedia.com/marketplace/business_professional_services/consultants/construction/h-g-cabinets-construction/business_03a521ed-0313-58ef-9c2e-073da51e057e.html,50121-000,Cabinets,4/18/08 0:00,,False,A+,100,1,0,False,Micro-small,False,1/22/21 3:49,Search,200,1
1343,704,1000000078,Jeff Mohr Siding,820 11th St Sw,,Pine City,MN,55063,USA,3202791365,,https://www.buildzoom.com/contractor/jeff-mohr-siding-llc-pine-city-mn,10126-000,Roofing Contractors,4/6/16 0:00,,False,NR,0,1,0,False,Micro-small,False,4/13/22 8:07,Search,200,1
1344,704,1000003815,Sakura,9 Washington St NE,,Brainerd,MN,56401,USA,2182703777,,http://places.singleplatform.com/sakura-express-9/menu,50544-000,Restaurants,5/26/15 0:00,,False,A+,100,1,0,False,Micro-small,False,4/1/22 8:40,Search,200,1
1345,704,1000002034,"MB Realty, Inc.",100 S 5th St Fl 19,,Minneapolis,MN,55402,USA,6122564719,,https://mbrealtymn.com/,61004-101,Timeshare Resale and Rental Marketing,,,False,NR,0,1,0,False,Micro-small,False,1/31/23 14:13,Search,200,1
1346,704,1000005838,Delaney Homes Inc,1830 40th Avenue South #108,,Moorhead,MN,56560,USA,2187903946,,https://www.houzz.com/professionals/home-builders/delaney-homes-inc-pfvwus-pf~127804100,10078-000,Home Builders,9/23/14 0:00,,False,A+,100,1,0,False,Micro-small,False,2/10/22 9:45,Search,200,1
1347,704,1000004860,Stage Left Dance Company,1830 Wooddale Dr,,Woodbury,MN,55125,USA,6516515783,,http://www.stageleftdanceco.com/,60277-000,Dance Companies,,,False,A+,99.55,,0,False,Micro-small,False,6/21/20 3:49,Search,200,1
1348,704,1000001805,Progressive Rail,21778 Highview Ave,,Lakeville,MN,55044,USA,6514231800,,https://www.progressiverail.com/rrpgr/lakeville.html,70587-000,Railroads,1/4/96 0:00,,False,NR,0,1,0,False,Micro-small,False,7/8/22 12:27,Search,200,1
1349,704,1000002772,Bcb Exteriors,635 17th Ave N,,South Saint Paul,MN,55075,USA,6515547774,,https://start.cortera.com/company/research/l3l0pso0r/bcb-exteriors/,60478-000,Janitor Service,2/25/08 0:00,,False,A+,100,2,0,False,Micro-small,False,4/24/21 4:07,Search,200,1
1350,704,1000002546,Sharp 360,3001 Hennepin Ave. S,,Minneapolis,MN,55408,USA,6123454093,,https://www.facebook.com/sharp360menswear/,50422-000,Mens Clothing & Furnishings - Retail,2/22/16 0:00,,False,NR,0,1,0,False,Micro-small,False,10/11/22 8:02,Search,200,1
1351,704,1000005056,Brent Pavelko LLC,73929 470th Ave,,Jackson,MN,56143,USA,5076625810,,https://safer.fmcsa.dot.gov/query.asp?searchtype=ANY&query_type=queryCarrierSnapshot&query_param=USDOT&query_string=3644972,10177-000,Construction & Remodeling Services,6/4/13 0:00,,False,NR,0,1,0,False,Micro-small,False,12/20/22 8:57,Search,200,1
1352,704,1000005664,Design Line Construction,12490 Blanca Ave W,,Rosemount,MN,55068,USA,6514235138,,https://www.superpages.com/rosemount-mn/bpp/design-line-construction-25726403,10177-000,Construction & Remodeling Services,4/10/00 0:00,,False,A+,100,1,0,False,Micro-small,False,3/24/22 8:31,Search,200,1
1353,704,1000005948,Anliker Construction LLC,220 First Ave S,,Forbes,ND,58439,USA,7013577831,,https://opencorporates.com/companies/us_nd/0000142562,10177-000,Construction & Remodeling Services,12/5/14 0:00,,False,NR,0,1,0,False,Micro-small,False,1/2/23 8:49,Search,200,1
1354,704,1000005735,"CJC Properties, LLC",7468 Norris Lake Rd NW,,Elk River,MN,55330,USA,6122211853,,https://opencorporates.com/companies/us_mn/71038033-8bd4-e011-a886-001ec94ffe7f,10177-000,Construction & Remodeling Services,3/4/05 0:00,,False,NR,0,1,0,False,Micro-small,False,1/7/23 9:07,Search,200,1
1355,704,1000006775,"Ambulance Service, Inc. ",120 Minnesota Ave,,Breckenridge,MN,56520,USA,2186435595,,https://www.asirichlandwilkin.com/,60445-300,Emergency Rooms,8/16/84 0:00,,False,A+,100,1,0,False,Micro-small,False,3/22/22 8:36,Search,200,1
1356,704,1000005326,Fossil Construction,833 Winnetka Ave N,,New Hope,MN,55427,USA,9524842571,,https://www.remax.com/pa/new-hope/home-details/2472-river-rd-new-hope-pa-18938/1786755206819453190,10177-000,Construction & Remodeling Services,12/27/04 0:00,5/23/18 0:00,False,NR,0,1,0,False,Micro-small,False,5/25/21 3:56,Search,200,0
1357,704,1000004793,Schewe Time Service,22352 840th Ave,,Hayward,MN,56043,USA,5072564233,,https://www.worlein.com/obituaries/glenn-schewe,60005-101,Accounting Services,7/3/95 0:00,,False,A+,100,1,0,False,Micro-small,False,7/12/20 3:50,Search,200,1
1358,704,1000002070,SCR ,3400 37th Ave SE,,Minot,ND,58701,USA,7018520934,,http://nspe.org/nf_router?loc=//sischoilym.ga/113nspeorglxQ651,10032-101,Concrete - Custom,8/3/11 0:00,,False,NR,0,1,0,False,Micro-small,False,10/9/22 8:05,Search,200,0
1359,704,1000005449,Golle Enterprises LLC,12903 Pioneer Trl,,Eden Prairie,MN,55347,USA,9529449859,,https://opencorporates.com/companies/us_mn/1df03714-7978-e311-8e3a-001ec94ffe7f,60553-000,Merchandise Brokers,1/7/14 0:00,1/29/20 0:00,False,NR,0,1,0,False,Micro-small,False,1/30/23 8:34,Search,200,1
1360,704,1000004624,Village Drug,108 2nd Ave S,,Sauk Rapids,MN,56379,USA,3202521303,,https://villagemn.com/,50488-000,Pharmacies,12/8/69 0:00,,False,NR,0,1,0,False,Micro-small,False,12/6/22 9:12,Search,200,1
1361,704,1000001597,Ron's Service of Dassel Inc,150 Parker Ave W,,Dassel,MN,55325,USA,3202753149,,https://www.dandb.com/businessdirectory/ronsserviceofdasselinc-dassel-mn-15018935.html,50567-000,Service Stations - Gasoline & Oil,10/1/73 0:00,,False,NR,0,6,0,False,Micro-small,False,5/23/22 8:19,Search,200,1
1362,704,1000006070,Andrew&#39;s Lawn Care and Snow Removal ,1705 1ST ST N,,Fargo,ND,58102,USA,7013671853,,https://andrewslawnandsnow.com/,70605-000,Snow Removal Service,5/13/16 0:00,,False,NR,0,1,0,False,Micro-small,False,1/2/23 8:49,Search,200,1
1363,704,1000003621,Partners in Grime,1131 County Road B W,,Roseville,MN,55113,USA,6512635458,,https://www.facebook.com/partnersingrime92/,66002-000,Cleaning Services,,,False,NR,0,1,0,False,Micro-small,False,6/8/22 8:46,Search,200,1
1364,704,1000002239,Balance Women's Fitness,2261 Tioga Blvd,,Mounds View,MN,55112,USA,6516364601,,https://www.wellnessliving.com/state-mn/mounds_view/,60430-100,Fitness Centers,11/15/06 0:00,,False,NR,0,1,0,False,Micro-small,False,8/29/19 4:14,Search,200,1
1365,704,1000002602,KDUZ,20132 Highway 15 N,,Hutchinson,MN,55350,USA,3205872140,,https://kduz.com/,70583-000,Radio Stations & Broadcast Companies,1/1/96 0:00,,False,NR,0,15,0,False,Micro-small,False,1/30/23 8:34,Search,200,1
1366,704,1000003952,"Vinehurst, Inc.",11670 Fountains Drive,,Maple Grove,MN,55369,USA,7634452669,,https://opencorporates.com/companies/us_mn/5a2c1ceb-373d-e611-816b-00155d01c56d,20085-000,Financial Services,6/28/16 0:00,,False,A+,100,1,0,False,Micro-small,False,2/2/23 20:45,Search,200,1
1367,704,1000005583,Henry's Auto Repair,7570 Highway 65 NE,,Fridley,MN,55432,USA,6124234262,,https://maps.roadtrippers.com/us/fridley-mn/services/henrys-auto-repair-fridley,60107-700,Auto Repair - Maintenance,8/1/14 0:00,,False,A+,100,1,0,False,Micro-small,False,5/27/22 8:35,Search,200,1
1368,704,1000002974,Its Marketing Inc,220 W Washington Ave Ste 103,,Fergus Falls,MN,56537,USA,2187395742,,https://www.localpx.com/v/en/its-marketing-inc-fergus-falls-mn.html,60533-000,Management Consultants,1/1/00 0:00,,False,NR,0,3,0,False,Micro-small,False,1/29/23 8:36,Search,200,1
1369,704,1000003295,O&#39;leary Construction,Highway 11,,International Falls,MN,56649,USA,2182839451,,https://www.showmelocal.com/profile.aspx?bid=1233231,10035-000,Contractors - General,1/1/03 0:00,,False,NR,0,9,0,False,Micro-small,False,1/29/23 8:37,Search,200,1
1370,704,1000002779,Bill Skeesick Jr,12303 71st Ave SW,,Motley,MN,56466,USA,2183526479,,https://www.dnr.state.mn.us/woodlands/pine-moraines.html,60729-000,Real Estate,1/1/02 0:00,,False,NR,0,1,0,False,Micro-small,False,1/29/23 8:36,Search,200,1
1371,704,1000003679,Fidem Properties,1618 7th Street S,,Fargo,ND,58103,USA,7017933885,,https://opencorporates.com/companies/us_nd/0000150268,60732-000,Property Management,11/5/15 0:00,,False,NR,0,1,0,False,Micro-small,False,1/8/23 8:55,Search,200,1
1372,704,1000003401,Community Maintenance Inc,17444 Frondell Ct,,Eden Prairie,MN,55347,USA,9529385382,,https://plumbinghvacnearme.com/?listing=community-maintenance-inceden-prairie17444-frondell-ct-55347-3416,00155-000,Landscape Contractors,1/1/88 0:00,,False,NR,0,2,0,False,Micro-small,False,1/28/23 8:48,Search,200,1
1373,704,1000003056,Western Co-op Credit Union,290 15th St W,,Dickinson,ND,58601,USA,7012270188,,https://www.wccu.org/,20009-000,Credit Unions,1/1/85 0:00,,False,NR,0,20,0,False,Micro-small,False,1/29/23 8:36,Search,200,1
1374,704,1000003686,Chema Malu,1916 3rd Ave,,Anoka,MN,55303,USA,6127201744,,https://www.facebook.com/ChemaMaluMN/,50310-000,Gift Shops,8/28/09 0:00,,False,NR,0,1,0,False,Micro-small,False,2/3/23 9:12,Search,200,1
1375,704,1000005211,A V R Carpentry LLC,1030 Robert Pl SW,,Owatonna,MN,55060,USA,5072135758,,https://www.facebook.com/MohsContracting/,10019-000,Carpenters,3/12/09 0:00,,False,NR,0,1,0,False,Micro-small,False,12/24/22 8:49,Search,200,0
1376,704,1000000055,For Pet&#39;s Sake,11724 Ulysses St NE,,Blaine,MN,55434,USA,7633166827,,https://www.facebook.com/fpetssake/,88300-000,Pet Services,4/7/15 0:00,,False,NR,0,3,0,False,Small,False,2/1/23 8:58,Search,200,1
1377,704,1000005116,Larsen Transportation LLC,704 Buffalo Hills St,,Buffalo,MN,55313,USA,6122015569,,https://www.quicktransportsolutions.com/truckingcompany/minnesota/larsen-transportation-llc-usdot-3065969.php,70640-000,Trucking,10/11/12 0:00,,False,NR,0,1,0,False,Micro-small,False,12/24/22 8:49,Search,200,1
1378,704,1000005318,Eco Home Enterprises,5445 James Ave S,,Minneapolis,MN,55419,,8885087313,,https://doitgreen.org/topics/house-home/features-net-zero-eco-house/,60527-200,Mold & Mildew Inspection,7/21/13 0:00,,False,A+,100,2,0,False,Micro-small,False,2/9/23 17:10,Search,200,0
1379,704,1000006599,Battle Cry Construction,15 10th St E,,Dickinson,ND,58601,USA,7016904770,,https://www.facebook.com/battlecryconstruction/,10177-000,Construction & Remodeling Services,5/7/12 0:00,,False,NR,0,1,0,False,Micro-small,False,1/8/23 8:55,Search,200,1
1380,704,1000001808,Mid-town Family Restaurant,123 Railroad St E,,Norwood Young America,MN,55368,USA,9524672721,,https://www.menupix.com/minnesota/restaurants/2302331/Mid-Town-Family-Restaurant-Norwood-MN,50544-000,Restaurants,1/1/84 0:00,,False,NR,0,8,0,False,Micro-small,False,1/30/23 8:33,Search,200,1
1381,704,1000002817,Classic Auto Body & Glass,7436 Highway 32,,Edinburg,ND,58227,USA,7019938358,,https://www.loc8nearme.com/north-dakota/edinburg/classic-auto-body-and-glass/4690247/,60094-000,Auto Body Repair & Painting,1/1/96 0:00,,False,A+,100,1,0,False,Micro-small,False,3/24/22 8:32,Search,200,0
1382,704,1000004994,Cut Rite Lawn Care LLC,7833 159th Ln NW,,Ramsey,MN,55303,USA,7633231676,,https://www.quicktransportsolutions.com/truckingcompany/minnesota/cut-rite-lawn-care-llc-usdot-2194200.php,00157-000,Lawn Maintenance,5/3/07 0:00,,False,NR,0,1,0,False,Micro-small,False,12/30/22 8:57,Search,200,1
1383,704,1000000041,Sky Visions,PO Box 311,,Elgin,ND,58533,USA,,,https://www.dailyherald.com/business/20170612/smooth-fox-in-elgin-being-evicted,70623-000,"Television - Cable, CATV & Satellite",,,False,NR,0,1,0,False,Micro-small,False,2/1/20 4:31,Search,200,0
1384,704,1000002437,Johnson&#39;s Auto Body,PO Box 255,,Williston,ND,58802,USA,7015728010,,https://auto-body-repair-shops.cmac.ws/johnsons-auto-body/39142/,60094-000,Auto Body Repair & Painting,1/1/84 0:00,,False,NR,0,2,0,False,Micro-small,False,1/30/23 8:33,Search,200,1
1385,704,1000001382,Continental Hair Salon,4629 E Superior St,,Duluth,MN,55804,USA,2185255161,,https://foursquare.com/v/continental-hair-salon/507d8b5ee4b0e7d79bf1e127,60134-000,Beauty Salons,1/1/84 0:00,5/18/16 0:00,False,NR,0,2,,False,Micro-small,False,5/20/19 4:18,Search,200,1
1386,704,1000002228,Carver Hair Salon,221 Broadway,,Carver,MN,55315,USA,9523616780,,https://www.facebook.com/profile.php?id=100039223226323,60134-000,Beauty Salons,1/1/01 0:00,,False,NR,0,4,0,False,Micro-small,False,1/30/23 8:34,Search,200,1
1387,704,1000002192,The Tox Group Inc,2136 Ford Pkwy Ste 174,,Saint Paul,MN,55116,USA,6513387982,,https://www.superpages.com/saint-paul-mn/bpp/the-tox-group-inc-527734242,65311-000,Drug & Alcohol Screening & Testing,6/22/16 0:00,,False,NR,0,1,0,False,Micro-small,False,1/31/23 8:46,Search,200,1
1388,704,1000005931,Dave-O LLC,11829 Harvest Ln #16,,Eden Prairie,MN,55347,USA,9522001872,,https://opencorporates.com/companies/us_mn/c1ad6610-11cc-e411-b14d-001ec94ffe7f,10177-000,Construction & Remodeling Services,4/23/15 0:00,,False,A+,100,1,0,False,Micro-small,False,9/14/21 4:03,Search,200,1
1389,704,1000005755,Dan Hoefs Custom Homes LLC,1783 32nd Ave SW,,Backus,MN,56435,USA,2188318633,,https://www.hoefscustomhomes.com/,10177-000,Construction & Remodeling Services,2/21/03 0:00,,False,NR,0,1,0,False,Micro-small,False,12/30/22 8:57,Search,200,1
1390,704,1000006054,DC Garage Door,94394 E Frontage Rd,,Moose Lake,MN,55767,USA,2184858575,,https://dcgaragedoorsmn.com/,85361-000,Garage Door Repair,2/1/16 0:00,,False,NR,0,1,0,False,Micro-small,False,1/14/23 8:57,Search,200,1
1391,704,1000004941,Bazey Construction,PO Box 342,,Stephen,MN,56757,USA,2184784374,,https://www.stephenmn.com/index.asp?SEC=5A3E7054-97F4-45A0-80F4-D844E441942E&Type=B_BASIC,10177-000,Construction & Remodeling Services,9/25/03 0:00,,False,NR,0,1,0,False,Micro-small,False,1/31/23 8:46,Search,200,0
1392,704,1000005362,Cousins Concrete & Masonry,5412 York Ave S,,Edina,MN,55410,USA,9529280686,,https://www.checkbook.org/mn/edina/rock-and-cement-contractors/cousins-brick-and-stone/rsob3,10089-000,Mason Contractors,9/28/16 0:00,,False,NR,0,1,0,False,Micro-small,False,12/26/22 8:45,Search,200,1
1393,704,1000006680,"Valley Sales Company, Inc.",1218 se 8th ,,Sydney,ND,58401,USA,7012523950,,https://www.jamestownchamber.com/list/member/valley-sales-company-inc-budweiser-302,60772-100,Sales Lead Generation,3/3/61 0:00,,False,NR,0,1,0,False,Micro-small,False,1/8/23 8:55,Search,200,1
1394,704,1000003050,United Title Co,20520 Keokuk Ave,,Lakeville,MN,55044,USA,9528928841,,https://www.yellowpagesdirectory.com/Lakeville-MN/United+Title/382080,20072-000,Title Companies & Agents,,,False,NR,0,1,0,False,Micro-small,False,1/29/23 8:36,Search,200,1
1395,704,1000004987,McDonald's,6320 W Lake St,,St Louis Park,MN,55416,USA,9529290770,,https://www.mcdonalds.com/us/en-us/location/mn/st-louis-park/5200-excelsior-blvd/13725.html,50544-000,Restaurants,,,False,NR,0,,0,False,Micro-small,False,1/28/20 4:21,Search,200,1
1396,704,1000002305,Mountrail-williams Elc Coop,PO Box 1346,,Williston,ND,58802,USA,7015723765,,https://mwec.com/,70544-000,Electric Companies,1/1/84 0:00,,False,NR,0,40,0,False,Small,False,1/30/23 8:34,Search,200,1
1397,704,1000003711,MTM Home Care Services LLC,571 Lake Ridge Drive ,,Shoreview ,MN,55126,USA,6517667757,,https://opencorporates.com/companies/us_mn/761b28f1-2619-e211-bc43-001ec94ffe7f,85296-100,Senior Home Care,10/17/12 0:00,,False,NR,0,1,0,False,Micro-small,False,7/30/22 8:29,Search,200,1
1398,704,1000005792,Granite City Pawnshop,424 E Saint Germain St,,Saint Cloud,MN,56304,USA,3202527736,,https://www.shooting.org/dealers/minnesota/saint-cloud/granite-city-pawn-shop,50626-000,Surplus & Salvage Merchandise,1/1/84 0:00,10/24/16 0:00,False,NR,0,3,,False,Micro-small,False,12/20/19 3:58,Search,200,1
1399,704,1000003634,Manley Brothers Moving & Storage,3459 Washington Drive,,Eagan,MN,55122,USA,9526839525,,https://www.bizapedia.com/mn/manley-brothers-moving-and-storage-llc.html,61064-000,Moving & Storage Company,,11/19/19 0:00,False,NR,0,1,,False,Micro-small,False,11/21/22 8:39,Search,200,1
1400,704,1000002212,Travel Agents International,PO Box 59159,,Minneapolis,MN,55459,USA,,,https://kevsbest.com/best-travel-agencies-in-minneapolis-mn/,70632-100,Online Travel Agency,6/23/16 0:00,,False,NR,0,1,0,False,Micro-small,False,7/31/19 4:37,Search,200,0
1401,704,1000005422,George R Dingmann Construction,403 11th St N,,Cold Spring,MN,56320,USA,3206858586,,https://opencorporates.com/companies/us_mn/f317836d-93d4-e011-a886-001ec94ffe7f,10035-000,Contractors - General,3/3/09 0:00,,False,A+,100,,0,False,Micro-small,False,9/4/20 4:07,Search,200,1
1402,704,1000005290,"Above N Beyond Aviation, LLC",10021 Highway 256,,Antler,ND,58711,USA,7017566954,,https://aboveaviation.com/,65000-000,Aircraft Fixed Based Operator,5/6/15 0:00,,False,A+,100,1,0,False,Micro-small,False,3/6/20 4:08,Search,200,1
1403,704,1000005064,Brian Jorgenson Construction LLC,24319 Sophus Anderson Rd,,Fergus Falls,MN,56537,USA,2182057885,,https://opencorporates.com/companies/us_mn/1520b837-93d4-e011-a886-001ec94ffe7f,10177-000,Construction & Remodeling Services,12/30/91 0:00,,False,NR,0,1,0,False,Micro-small,False,2/5/23 8:42,Search,200,1
1404,704,1000002128,Kick N Fit Gym,16 1st St NW,,Tioga,ND,58852,USA,7016645425,,https://www.facebook.com/KicknfitGym/,60430-000,Health Clubs,1/1/08 0:00,,False,NR,0,2,0,False,Micro-small,False,1/30/23 8:34,Search,200,1
1405,704,1000006687,Precision Pilates Studio LLC,8075 161st ave s ,,Barney,ND,58008,USA,7012101065,,https://precisionpilatesplus.com/,60353-100,Pilates,3/14/16 0:00,,False,NR,0,1,0,False,Micro-small,False,11/3/19 4:19,Search,200,1
1406,704,1000006612,Big Ben Construction,209 3rd St S,,New Rockford,ND,58356,USA,7013020371,,https://www.cityofnewrockford.com/index.asp?SEC=6B36E257-F4AC-46E5-B01E-F7396955DB48&Type=B_BASIC,10019-000,Carpenters,2/1/05 0:00,,False,NR,0,1,0,False,Micro-small,False,1/8/23 8:55,Search,200,0
1407,704,1000005112,Tarell A Friedley Attorney,6391 129th St W,,Saint Paul,MN,55124,USA,9528912100,,https://mitchellhamline.edu/biographies/person/tarell-friedley/,60075-000,Attorneys & Lawyers,1/1/97 0:00,,False,NR,0,2,0,False,Micro-small,False,2/5/23 8:42,Search,200,1
1408,704,1000005884,Dave Witthus Construction LLC,6293 100th St,,Glencoe,MN,55336,USA,3205101617,,https://homeflock.com/contractor/12517376,10177-000,Construction & Remodeling Services,3/23/09 0:00,,False,A+,97,1,0,False,Micro-small,False,11/20/22 8:59,Search,200,1
1409,704,1000006652,Prairie Frame Shop,330 Central Ave N Ste 1,,Valley City,ND,58072,USA,7018454704,,https://www.instagram.com/prairieframeshop/?hl=en,50495-000,Picture Frames - Dealers,11/15/10 0:00,,False,A+,100,1,0,False,Micro-small,False,6/21/20 3:49,Search,200,0
1410,704,1000000110,North Central Construction LLC,33837 Helium St NW,,Cambridge,MN,55008,USA,7636914240,,https://nccbuilds.com/,10035-000,Contractors - General,5/21/15 0:00,,False,NR,0,1,0,False,Micro-small,False,4/16/22 8:14,Search,200,1
1411,704,1000006376,"Alliance Business Ventures, Inc.",1239 Deerfield Drive,,Saint Paul,MN,55119,USA,6513031933,,https://stpdowntownalliance.org/wp-content/uploads/2021/03/East-Team-Pitch-Book.pdf,10035-000,Contractors - General,4/13/93 0:00,2/27/17 0:00,False,NR,0,1,0,False,Micro-small,False,3/2/20 4:00,Search,200,0
1412,704,1000003872,Adams Painting,8001 12th Ave S Apt 214,,Minneapolis,MN,55425,USA,9528530151,,https://www.facebook.com/Adams-Painting-Company-928224907268109/,10095-000,Painting Contractors,,12/9/19 0:00,False,NR,0,,,False,Micro-small,False,12/10/19 4:14,Search,200,1
1413,704,1000004751,Celebration Party & Gifts,122 S Broadway Ave,,Albert Lea,MN,56007,USA,5073737746,,https://russellsadventures.com/celebrations-party-gifts/,50480-000,Party Supplies,12/16/09 0:00,,False,NR,0,1,0,False,Micro-small,False,1/23/23 8:35,Search,200,0
1414,704,1000006598,Barlow Construction & Home Improvement LLC,1722 1st St SE,,Minot,ND,58701,USA,7018330402,,https://opencorporates.com/companies/us_nd/0000109504,10035-000,Contractors - General,8/17/11 0:00,,False,NR,0,1,0,False,Micro-small,False,1/8/23 8:55,Search,200,1
1415,704,1000001769,Mr Tune-up,5602 Cedar Ave S,,Minneapolis,MN,55417,USA,6128271605,,https://www.showmelocal.com/profile.aspx?bid=1255394,60103-000,Auto Repair & Service,,5/26/16 0:00,False,NR,0,1,,False,Micro-small,False,5/27/19 4:16,Search,200,1
1416,704,1000004611,"Stifel, Nicolaus & Company",1010 W Saint Germain St Ste 400,,Saint Cloud,MN,56301,USA,3202531300,,http://www.stifel.com/branch/mn/st-cloud,20085-000,Financial Services,7/15/83 0:00,,False,A+,100,1,0,False,Micro-small,False,9/2/21 3:56,Search,200,1
1417,704,1000001517,Kearney Properties Cottage,Lake Washington,,Madison Lake,MN,56063,USA,5072433533,,https://www.us-info.com/en/usa/kearney_properties_cottage/madison_lake/USMN100038971-5072433533/businessdetails.aspx,60729-000,Real Estate,,,False,NR,0,1,0,False,Micro-small,False,1/31/23 8:46,Search,200,1
1418,704,1000006660,Riverside Gardens,322 2nd ave,,Kathryn,ND,58049,USA,7018450233,,https://m.facebook.com/CharleasGardens/photos/a.1964715793757530/3386702751558820/,50503-000,Plants - Retail,3/19/05 0:00,,False,A+,100,1,0,False,Micro-small,False,5/17/20 3:59,Search,200,1
1419,704,1000001782,Midwest Tel Co,109 2nd Ave,,Miltona,MN,56354,USA,2189432223,,https://www.dandb.com/businessdirectory/midwestcommunications-miltona-mn-20173738.html,70618-000,Telephone Communications,1/1/08 0:00,6/1/16 0:00,False,NR,0,3,0,False,Micro-small,False,1/31/20 4:26,Search,200,1
1420,704,1000000116,McGough Construction Warehouse,1826 1/2 Buerkle Rd,,Saint Paul,MN,55110,USA,6517733808,,https://www.mcgough.com/,70644-000,Warehouses - Merchandise,1/1/10 0:00,,False,NR,0,4,0,False,Micro-small,False,4/13/22 8:07,Search,200,1
1421,704,1000004619,Thelen Advertising,703 W Saint Germain St,,Saint Cloud,MN,56301,USA,3202536510,,https://www.sctimes.com/story/money/2016/12/05/st-clouds-thelen-advertising-closes/95004436/,60010-000,Advertising Agencies & Counselors,2/4/11 0:00,12/5/16 0:00,False,NR,0,12,0,False,Micro-small,False,12/9/19 4:09,Search,200,0
1422,704,1000005867,Pederson and Pederson Law Firm,24 Colfax Ave SW,,Wadena,MN,56482,USA,2186311228,,http://www.legaldirectories.com/Pederson-amp-Pederson-P-A-28594-Frm.aspx,60075-000,Attorneys & Lawyers,1/1/85 0:00,,False,NR,0,1,0,False,Micro-small,False,1/24/23 8:58,Search,200,1
1423,704,1000006073,Turtle River Basement,2770 20th Ave NE,,Arvilla,ND,58214,USA,7015944200,,https://waterdata.usgs.gov/monitoring-location/05082625/,50192-000,Craft Galleries & Dealers,10/20/11 0:00,,False,NR,0,1,0,False,Micro-small,False,10/9/19 5:09,Search,200,1
1424,704,1000006010,Jamie Colsch Construction,216 N Kingston St,,Caledonia,MN,55921,USA,5076965123,,https://homeflock.com/dir-contractors/General+Contractors/Caledonia+MN,10177-000,Construction & Remodeling Services,7/8/02 0:00,,False,A+,100,1,0,False,Micro-small,False,1/4/20 4:16,Search,200,0
1425,704,1000005354,Creative Touch Painting and Decorating LLC,6864 Xanthus Ln N,,Osseo,MN,55311,USA,6123099742,,https://app.mykukun.com/contractor/profile/Creative-Touch-Painting-And-Decorating-Llc-864026,10095-000,Painting Contractors,6/13/05 0:00,,False,NR,0,1,0,False,Micro-small,False,12/26/22 8:45,Search,200,0
1426,704,1000004937,Gorman General Contracting,PO Box 1172,,Minot,ND,58702,USA,7017212762,,https://attorneygeneral.nd.gov/sites/ag/files/documents/RecentActions/2020-01-17-CD-GormanContracting.pdf,10177-000,Construction & Remodeling Services,6/22/15 0:00,,False,F,26.47,1,0,False,Micro-small,False,3/10/20 4:10,Search,200,0
1427,704,1000002933,Graves Construction,Po Box 67,,Renville,MN,56284,USA,3203293735,,https://www.finduslocal.com/chimney-fireplace-and-stove-installation/minnesota/renville/graves-construction_po-box-67/,10089-000,Mason Contractors,,,False,NR,0,,0,False,Micro-small,False,12/5/20 4:10,Search,200,1
1428,704,1000004771,"Heritage Arts & Gifts, LLC",103 5th St S,,Walker,MN,56484,USA,2185473501,,https://www.facebook.com/heritageartsandgifts/,50310-000,Gift Shops,1/1/67 0:00,,False,NR,0,3,0,False,Micro-small,False,1/21/23 8:56,Search,200,1
1429,704,1000006339,Sure Step Inc,1065 53rd Ave NE,,Minneapolis,MN,55432,USA,7635711769,,https://www.safestep.com/,50178-100,Concrete - Stamped & Decorative,,,False,NR,0,1,0,False,Micro-small,False,1/24/23 8:58,Search,200,0
1430,704,1000005461,Tonn Custom Construction Inc,6354 Gopher Blvd N,,Oakdale,MN,55128,USA,6517317517,,https://www.bizapedia.com/mn/tonn-custom-construction-inc.html,10177-000,Construction & Remodeling Services,8/30/99 0:00,,False,A+,100,1,0,False,Micro-small,False,10/18/21 3:53,Search,200,1
1431,704,1000002951,Hampton Inn-Alexandria,2705 S Broadway St,,Alexandria,MN,56308,USA,3207633773,,https://www.hilton.com/en/hotels/wasaxhx-hampton-suites-alexandria-old-town-area-south/,60447-000,Hotels,8/30/10 0:00,,False,A+,100,25,0,False,Micro-small,False,1/31/20 4:26,Search,200,1
1432,704,1000005388,Live Healthy Pain Centers,7300 147th St W Ste 304,,Apple Valley,MN,55124,USA,6123617781,,https://medicals-health.com/Minnesota/Apple_Valley/Live_Healthy_Pain_CentersApple_Valley,60218-300,Clinics - Pain Management,7/11/16 0:00,,False,NR,0,1,0,False,Micro-small,False,5/19/22 16:09,Search,200,1
1433,704,1000005303,"Quaal Dairy, LLC",32462 250th st,,Underwood,MN,56586,USA,2188266292,,https://www.facebook.com/profile.php?id=100038899093310,00128-000,Farms,10/8/03 0:00,,False,A+,100,3,0,False,Micro-small,False,12/2/20 4:43,Search,200,1
1434,704,1000004558,Dennis Knutson Store,PO Box 339,,Bagley,MN,56621,USA,2186572391,,https://www.showmelocal.com/profile.aspx?bid=1170808,50322-000,Grocers - Retail,,11/2/15 0:00,False,NR,0,1,,False,Micro-small,False,11/5/18 3:54,Search,200,1
1435,704,1000002921,BSN Sports,5263 Edina Industrial Blvd,,Edina,MN,55439,USA,3203630600,,https://sideline.bsnsports.com/schools/minnesota/edina/edina-high-school,50608-000,Sporting Goods - Retail,1/1/03 0:00,,False,NR,0,5,0,False,Micro-small,False,1/25/23 9:01,Search,200,1
1436,704,1000003859,Cronin Construction,11021 County 77 SW,,Nisswa,MN,56468,USA,2188297573,,https://www.dandb.com/businessdirectory/croninconstructionllp-nisswa-mn-18554552.html,10035-000,Contractors - General,8/30/10 0:00,,False,NR,0,3,0,False,Micro-small,False,1/28/23 8:47,Search,200,1
1437,704,1000005941,Edgar&#39;s Painting LLC,7234 18th Ave S,,Richfield,MN,55423,USA,9523564016,,https://opencorporates.com/companies/us_mn/072a37e5-5464-e811-915f-00155d0deff0,10095-000,Painting Contractors,,,False,NR,0,1,0,False,Micro-small,False,1/24/23 8:58,Search,200,1
1438,704,1000002277,Redwood Gardens Preschool and Daycare LLC,108 Redwood Dr,,Apple Valley,MN,55124,USA,6083329520,,https://www.facebook.com/RedwoodGardensPreschool/,60199-000,Child Care Centers,8/16/12 0:00,,False,NR,0,1,0,False,Micro-small,False,7/8/22 12:28,Search,200,1
1439,704,1000004968,AJ 35 Properties Inc,4567 392nd St,,North Branch,MN,55056,USA,6512482584,,https://www.dandb.com/businessdirectory/a.j.35propertiesllc-northbranch-mn-1954880.html,60732-000,Property Management,1/22/04 0:00,,False,NR,0,1,0,False,Micro-small,False,8/31/19 4:13,Search,200,1
1440,704,1000006678,Valley Service LLC,325 9th ave sw,,Valley City,ND,58072,USA,7018451020,,https://www.facebook.com/valleyservice/,80339-000,Gasoline - Wholesale,1/1/11 0:00,,False,NR,0,1,0,False,Micro-small,False,8/3/21 4:13,Search,200,1
1441,704,1000006774,Berndt Builders Inc,37819 306th St,,Henderson,MN,56044,USA,5072483777,,https://www.dandb.com/businessdirectory/berndtbuildersinc-henderson-mn-23116630.html,10035-000,Contractors - General,1/1/05 0:00,,False,NR,0,1,0,False,Micro-small,False,1/24/23 8:58,Search,200,1
1442,704,1000006658,Oliver-Nathan Funeral Chapel,251 Central ave s,,Valley City,ND,58072,USA,7018452414,,https://www.olivernathanchapel.com/,62000-000,Funeral Homes,4/10/96 0:00,,False,NR,0,1,0,False,Micro-small,False,10/30/19 5:35,Search,200,1
1443,704,1000005463,"DD Innovations, Inc. ","7300 Innovations, Inc. ",,Edina,MN,55435,USA,6515837281,,http://ddinnovation.com/,85160-000,Biomedical Products - Research,6/21/79 0:00,,False,A+,100,1,0,False,Micro-small,False,7/4/20 4:06,Search,200,1
1444,704,1000006145,"Schultz Law Firm, PC",201 Main St S,,Minot,ND,58701,USA,7018525333,,https://worthingtonschultz.com/,60075-000,Attorneys & Lawyers,7/1/12 0:00,2/10/17 0:00,False,NR,0,1,0,False,Micro-small,False,11/3/21 4:22,Search,200,1
1445,704,1000001714,Dale's Food Pride Inc,13 1st St SW,,Hillsboro,ND,58045,USA,7016364662,,https://dalesfoodpride.com/,50322-000,Grocers - Retail,1/1/91 0:00,8/16/21 0:00,False,NR,0,14,0,False,Micro-small,False,6/1/22 21:26,Search,200,1
1446,704,1000005746,Emerson Food Market,2628 Emerson Ave N,,Minneapolis,MN,55411,USA,6125228553,,https://www.waze.com/live-map/directions/us/mn/minneapolis/emerson-food-market?to=place.ChIJGS6FxUcys1IRGdf37I483n8,50758-000,Grocery - Bulk Food Stores,7/6/92 0:00,,False,NR,0,1,0,False,Micro-small,False,12/27/22 8:49,Search,200,0
1447,704,1000006160,Cotton Wood Market LLC,1142 Garden Brook Dr,,Sauk Rapids,MN,56379,USA,3203090371,,https://www.zillow.com/homedetails/1475-Cottonwood-Rd-Saint-Cloud-MN-56303/74892192_zpid/,50272-000,Flea Markets,3/26/15 0:00,1/9/20 0:00,False,NR,0,1,0,False,Micro-small,False,1/16/23 8:36,Search,200,0
1448,704,1000005685,E & S Electronics,7809 DuPont Ave N,,Brooklyn Park,MN,55444,USA,7634649119,,https://www.bizapedia.com/mn/e-and-s-electronics.html,60323-000,Electronic Equipment & Suppliers - Service & Repair,12/30/88 0:00,,False,A+,100,1,0,False,Micro-small,False,12/29/19 4:20,Search,200,1
1449,704,1000006125,E J Shepherd Construction LLC,4461 219th Ln NW,,Anoka,MN,55303,USA,6192183762,,https://clustrmaps.com/a/7eldv/,10177-000,Construction & Remodeling Services,4/21/15 0:00,,False,A+,100,1,0,False,Micro-small,False,1/4/20 4:16,Search,200,0
1450,704,1000004731,DS Mullen Inc,1425 Sage Ln,,Shakopee,MN,55379,USA,6123820699,,https://clustrmaps.com/a/7iu18/,10095-200,Commercial Painting Contractor,2/2/05 0:00,,False,NR,0,1,0,False,Micro-small,False,1/24/23 8:58,Search,200,0
1451,704,1000006681,Valley Plains Equipment,4650 26th Ave S Ste E,,Fargo,ND,58104,USA,7012376000,,https://valleyplainsequipment.com/,80283-000,Farm Equipment,6/14/13 0:00,,False,A+,100,1,0,False,Micro-small,False,8/3/21 4:13,Search,200,1
1452,704,1000005624,Bargains & Blessings,1417 1st St S,,Willmar,MN,56201,USA,3202351213,,https://www.facebook.com/bargainsnblessings/,50655-000,Thrift Shops,11/9/15 0:00,,False,NR,0,1,0,False,Micro-small,False,11/2/20 3:48,Search,200,1
1453,704,1000000192,Red River Home Care,PO Box 6528,,Fargo,ND,58109,USA,7013535777,,https://www.hrrv.org/,60441-100,Home Health Services - Skilled,,,False,NR,0,1,0,False,Micro-small,False,1/31/23 8:45,Search,200,1
1454,704,1000002068,Lillemo Sewer Service,PO Box 411,,Isanti,MN,55040,USA,7634445902,,https://www.septic.com/septic-services/minnesota/isanti/lillemo-sewer-service/,10131-000,Sewer Contractors,1/1/03 0:00,,False,NR,0,1,0,False,Micro-small,False,1/30/23 8:33,Search,200,1
1455,704,1000005757,REROOT Group,1350 Lagoon Ave Ste 900,,Minneapolis,MN,55408,USA,6514853635,,https://www.rerootgroup.com/,60729-102,Real Estate Agents,6/7/12 0:00,,False,A+,100,1,0,False,Micro-small,False,2/28/20 4:21,Search,200,1
1456,704,1000000112,Miller Greenscapes LLC,13730 Kinsel Rd,,Minnetonka,MN,55345,USA,6122203926,,http://millergreenscapes.com/home/,00155-000,Landscape Contractors,1/20/10 0:00,,False,NR,0,1,0,False,Micro-small,False,10/4/22 8:07,Search,200,1
1457,704,1000003674,Pivotal Properties,7375 Chester Ave,,Northfield,MN,55057,USA,9526522417,,https://opencorpdata.com/us-ia/442856,60732-000,Property Management,5/14/12 0:00,,False,NR,0,1,0,False,Micro-small,False,1/28/23 8:48,Search,200,1
1458,704,1000006124,Dickinson Dental Center PC,2 1st Street W #215,,Dickinson,ND,58601,USA,7014836999,,http://www.dickinsondentalcenter.com/,60289-000,Dentists,5/12/00 0:00,,False,A+,100,1,0,False,Micro-small,False,12/30/20 4:59,Search,200,1
1459,704,1000002514,Jack&#39;s of Watkins,241 Veterans Dr,,Watkins,MN,55389,USA,3207645345,,https://www.menupix.com/minnesota/restaurants/2301776/Jacks-Standard-Watkins-MN,50567-000,Service Stations - Gasoline & Oil,1/1/06 0:00,,False,NR,0,15,0,False,Micro-small,False,1/30/23 8:33,Search,200,0
1460,704,1000000203,Lifestyle Lift,3440 Oleary Ln,,Saint Paul,MN,55123,USA,8773337354,,https://www.mnfacialplastics.com/procedures/face-neck-lift-minneapolis/,60684-000,"Physicians & Surgeons - Cosmetic, Plastic & Reconstructive Surgery",,10/16/19 0:00,False,NR,0,1,,False,Micro-small,False,10/17/22 7:54,Search,200,0
1461,704,1000001753,Thomas S Brownson Construction,1512 Linden St W,,Stillwater,MN,55082,USA,6514395099,,https://opencorporates.com/companies/us_mn/021d0a51-aad4-e011-a886-001ec94ffe7f,10035-000,Contractors - General,6/28/89 0:00,,False,NR,0,1,0,False,Micro-small,False,11/23/22 9:43,Search,200,1
1462,704,1000002532,American Industrial Refrigeration,14322 21st Ave N Ste 100,,Plymouth,MN,55447,USA,9524709610,,http://web.iiar.org/ammoniamall/getinfo.cfm?tid=58,85313-000,Contractor - Industrial,3/4/11 0:00,,False,A+,100,1,0,False,Micro-small,False,2/3/23 9:12,Search,200,1
1463,704,1000001677,Wilson's Greenhouse,4063 260th Ave,,Lancaster,MN,56735,USA,2188438866,,https://www.wilsonsnursery.com/,00155-000,Landscape Contractors,1/1/04 0:00,,False,NR,0,3,0,False,Micro-small,False,6/15/22 9:02,Search,200,0
1464,704,1000005999,Aurora On France Senior Living,6500 France Ave S,,Bloomington,MN,55435,USA,9528488888,,https://www.caring.com/senior-living/minnesota/edina/aurora-on-france-edina,85296-200,Senior Housing/Living,3/16/16 0:00,,False,NR,0,1,0,False,Micro-small,False,1/2/23 8:49,Search,200,1
1465,704,1000004421,Concrete Design Techniques Inc,13660 Dayton River Rd.,,Dayton,MN,55327,USA,6125045906,,https://www.showmelocal.com/profile.aspx?bid=18856093,10032-000,Concrete Contractors,11/12/15 0:00,,False,NR,0,1,0,False,Micro-small,False,12/4/22 9:03,Search,200,1
1466,704,1000002058,Area Plumbing Repair and Replacement,540 Marion Street NW,,Isanti,MN,55040,USA,7636704078,,https://www.bizapedia.com/mn/area-plumbing-repair-and-replacement.html,10113-300,Plumbing - Renovation & Repair ,9/3/14 0:00,,False,NR,0,1,0,False,Micro-small,False,6/22/22 11:35,Search,200,1
1467,704,1000000013,Holysmokerpits,5689 Hermantown rd,,Hermantown ,MN,55810,USA,2184612791,,https://www.facebook.com/holysmokerbbq/,80467-200,Meat - Smokehouses,,,False,NR,0,1,0,False,Micro-small,False,11/13/22 9:01,Search,200,1
1468,704,1000001323,Magnolia and Vine Inc,11520 K Tel Dr,,Hopkins,MN,55343,USA,9522833123,,https://www.yellowpages.com/hopkins-mn/magnolia-and-vine-inc,50367-000,Jewelers - Retail,8/25/14 0:00,,False,A+,100,1,0,False,Micro-small,False,2/1/23 21:15,Search,200,0
1469,704,1000005704,"Flavio Olmos Handyman Services, LLC",302 2nd St NW,,Byron,MN,55920,USA,5072737250,,https://www.flavioolmoshandymanllc.com/,15035-000,Handyman Services,12/16/11 0:00,,False,A+,100,1,0,False,Micro-small,False,8/19/21 4:22,Search,200,1
1470,704,1000006224,EV of Minnesota,6626 Penn Ave S,,Edina,MN,55423,USA,9529382201,,https://evstationslocal.com/states/minnesota/edina/,80013-000,Air Purifying & Cleaning Systems & Equipment,4/26/16 0:00,1/14/20 0:00,False,NR,0,1,0,False,Micro-small,False,1/16/23 8:36,Search,200,1
1471,704,1000003959,Surecure Support,4564 235th Ln NW,,Saint Francis,MN,55070,USA,7634129427,,https://www.saintfrancis.com/services/virtual-care/video-visit-support,85320-000,Computer Consultant,7/25/14 0:00,,False,NR,0,1,0,False,Micro-small,False,12/2/22 9:29,Search,200,0
1472,704,1000006488,The Brown Lantern,2801 Hwy 2 SW #3,,Rugby,ND,58368,USA,7017765599,,https://www.facebook.com/people/The-Brown-Lantern/100057746646263/,55093-000,Clothing - Retail,3/8/12 0:00,,False,NR,0,1,0,False,Micro-small,False,1/13/20 4:53,Search,200,1
1473,704,1000006603,Beaver Valley Construction,1060 Highway 13 SE,,Linton,ND,58552,USA,7012545390,,https://lintonnd.org/?page_id=617,10177-000,Construction & Remodeling Services,11/5/14 0:00,,False,NR,0,1,0,False,Micro-small,False,1/8/23 8:55,Search,200,0
1474,704,1000002692,Nisswa Sewer Plant,24722 Charmin Ave,,Nisswa,MN,56468,USA,2189633959,,https://www.cityofnisswa.com/departments/public_works/sewer.php,10107-000,Pipe Line Contractors,1/1/09 0:00,,False,NR,0,2,0,False,Micro-small,False,1/30/23 8:33,Search,200,1
1475,704,1000003532,Reservation Animal Rescue,PO Box 6044,,Albert Lea,MN,56007,USA,,,http://www.rarprogram.org/,90021-001,Charity - American Indian,,,False,NR,0,,,False,Micro-small,True,6/26/18 13:14,Search,200,1
1476,704,1000002980,John Hughes Construction LLC,738 Sextant Ave W,,Roseville,MN,55113,USA,6514821197,,https://www.jhc-companies.com/,10177-000,Construction & Remodeling Services,4/1/10 0:00,,False,NR,0,1,0,False,Micro-small,False,1/29/23 8:36,Search,200,1
1477,704,1000004778,Kingdom Services,7520 Wedgewood Way,,Osseo,MN,55311,USA,7636704806,,https://www.facebook.com/Kingdom-Services-LLC-100240981516615/,10078-000,Home Builders,,,False,NR,0,1,0,False,Micro-small,False,1/27/23 9:09,Search,200,1
1478,704,1000001679,Mackey Creative,1000 Shelard Pkway Ste 500,,Minneapolis,MN,55426,USA,7635469606,,https://mackeycreative.com/,60413-000,Graphic Designers,,,False,A+,100,1,0,False,Micro-small,False,11/6/20 4:10,Search,200,1
1479,704,1000005227,Best Construction Company,4401 19th Ave E,,Hibbing,MN,55746,USA,2189692491,,https://www.houzz.com/professionals/general-contractor/hibbing-mn-us-probr0-bo~t_11786~r_5030005,10035-000,Contractors - General,1/1/09 0:00,,False,NR,0,4,0,False,Micro-small,False,2/7/23 9:00,Search,200,0
1480,704,1000004555,Angelic Precious Metals LLC,405 7th Ave S,,Buffalo,MN,55313,USA,6123855565,,https://opencorporates.com/companies/us_mn/8de299db-edbe-e511-8163-00155d01c56d,26000-000,"Coins,Stamps & Precious Metals Dealer",5/7/18 0:00,7/5/18 0:00,False,NR,0,1,0,False,Micro-small,False,7/6/21 4:05,Search,200,1
1481,704,1000002789,Bow-tie Express,40152 County Road 175,,Belgrade,MN,56312,USA,3202543572,,https://safer.fmcsa.dot.gov/query.asp?searchtype=ANY&query_type=queryCarrierSnapshot&query_param=USDOT&query_string=829095,70637-000,Trucking - Heavy Hauling,1/1/00 0:00,,False,NR,0,4,0,False,Micro-small,False,1/29/23 8:36,Search,200,0
1482,704,1000001520,Ry&#39;s Diesel Service,73925 242nd St,,Beardsley,MN,56211,USA,3207487629,,https://www.yellowpages.com/beardsley-mn/rys-diesel-service,80398-000,Industrial Equipment & Supplies,1/1/93 0:00,,False,NR,0,1,0,False,Micro-small,False,1/31/23 8:46,Search,200,0
1483,704,1000006576,"Moritz Excavating, LLC",1012 12th Ave SE,,Valley City,ND,58072,USA,7018401644,,http://www.moritzexcavating.com/,10050-000,Excavating Contractors,4/15/81 0:00,,False,A+,100,5,0,False,Micro-small,False,1/21/23 8:56,Search,200,1
1484,704,1000004997,The Plot Thickens Garden Services LLC,7824 Hyacinth Ave,,Victoria,MN,55386,USA,6122815761,,http://www.plotthickensgarden.com/,00157-100,Gardeners,4/1/09 0:00,,False,A+,100,1,0,False,Micro-small,False,7/22/22 8:23,Search,200,1
1485,704,1000000108,Mike Kosak Construction,614 East Fairview Ave,,Olivia,MN,56277,USA,3205235906,,https://www.buildzoom.com/contractor/mike-kosak-construction-llc-olivia-mn,10177-000,Construction & Remodeling Services,3/2/09 0:00,,False,NR,0,1,0,False,Micro-small,False,4/16/22 8:14,Search,200,1
1486,704,1000006591,North Central Paving,47936 40th Ave,,Isle,MN,56342,USA,3206763568,,https://www.northcentralpaving.com/,10102-000,Paving Contractors,,,False,A+,100,1,0,False,Micro-small,False,5/15/22 8:13,Search,200,1
1487,704,1000002736,Arctander & Lake Andrew Mutual Insurance Inc,26 Main St S,,Hawick,MN,56273,USA,3203544332,,https://www.leg.mn.gov/docs/2004/other/040156.pdf,20080-000,Insurance Services,,10/28/19 0:00,False,NR,0,1,,False,Micro-small,False,10/29/19 4:14,Search,200,0
1488,704,1000003774,Target Taxi,1225 8th St S.,,Minneapolis,MN,55404,USA,6123333834,,https://www.negup.com/taxi-directory/us/company/target-taxi/35343738,70615-000,Taxicabs,3/29/12 0:00,,False,NR,0,1,0,False,Micro-small,False,11/15/22 9:12,Search,200,1
1489,704,1000006294,Mariah Remodeling,721 3rd St N,,Stillwater,MN,55082,USA,6514303469,,https://mariahremodeling.wordpress.com/,10035-000,Contractors - General,,,False,A+,100,,0,False,Micro-small,False,7/15/21 4:16,Search,200,1
1490,704,1000004390,Stepping Stones for Living,3602 W Tischer Rd,,Duluth,MN,55803,USA,2187277450,,http://www.steppingstonesforliving.com/,60283-000,Day Care - Adults,6/29/10 0:00,,False,NR,0,11,0,False,Small,False,1/27/23 9:09,Search,200,1
1491,704,1000001642,Broker Investments,799 Vicky Ln,,Circle Pines,MN,55014,USA,6122356136,,https://www.usbank.com/wealth-management/find-an-advisor/mn/circle-pines.html,61004-101,Timeshare Resale and Rental Marketing,,,False,NR,0,1,0,False,Micro-small,False,1/31/20 4:26,Search,200,0
1492,704,1000003027,Sheyenne Cabinetry,537 W Brook Dr,,Horace,ND,58047,USA,7012771237,,https://www.finduslocal.com/cabinetry-contractor/north-dakota/horace/sheyenne-cabinetry_537-w-brook-dr/,30760-000,Woodworking,,7/28/16 0:00,False,NR,0,,,False,Micro-small,False,12/23/20 12:21,Search,200,1
1493,704,1000000053,Uniform Advantage,8366 Highway 7,,Minneapolis,MN,55426,USA,9529333277,,https://www.uniformadvantage.com/stores/location/?storeID=29,60294-000,Designers - Apparel,4/4/16 0:00,,False,A+,100,1,0,False,Micro-small,False,2/1/23 18:41,Search,200,1
1494,704,1000005272,Birchwood Builders LLC,3464 Washington Dr Ste 100,,Eagan,MN,55122,USA,6512955526,,https://www.houzz.com/professionals/general-contractors/birchwood-builders-llc-pfvwus-pf~755345345,10078-000,Home Builders,5/4/15 0:00,,False,NR,0,1,0,False,Micro-small,False,12/26/22 8:45,Search,200,1
1495,704,1000006662,Urban Coutoure,304 central ave n,,Valley City,ND,58072,USA,7018405365,,https://local.times-online.com/valley-city-us-nd/urban-couture-701-840-7412,55093-000,Clothing - Retail,10/23/12 0:00,,False,NR,0,1,0,False,Micro-small,False,8/4/21 5:08,Search,200,1
1496,704,1000005139,Hopkins Illustration,981 11th Ave SW,,Forest Lake,MN,55025,USA,7632293975,,https://ne-np.facebook.com/permalink.php?story_fbid=422541491894245&id=213867622761634,30588-000,Screen Printing ,,9/13/18 0:00,False,NR,0,1,,False,Micro-small,False,9/14/21 4:03,Search,200,0
1497,704,1000006737,"Innovative Abstract & Title Company, LLC",602 Dakota Ave,,Wahpeton,ND,58075,USA,7016422500,,https://opencorporates.com/companies/us_nd/0000080544,61100-000,Real Estate Services,6/28/05 0:00,,False,NR,0,1,0,False,Micro-small,False,2/6/23 8:28,Search,200,1
1498,704,1000004473,"Whitefish Custom Builders, LLC",6207 Old Whiskey Rd,,Pequot Lakes,MN,56472,USA,2185434799,,https://www.whitefishcustombuilders.com/contact,10177-000,Construction & Remodeling Services,,,False,NR,0,1,0,False,Micro-small,False,1/27/23 9:08,Search,200,1
1499,704,1000005860,Darren Kimble Construction LLC,915 12th St NW,,Bemidji,MN,56601,USA,2187602752,,https://opencorporates.com/companies/us_mn/74138667-93d4-e011-a886-001ec94ffe7f,10177-000,Construction & Remodeling Services,6/22/05 0:00,,False,A+,100,1,0,False,Micro-small,False,11/1/20 3:53,Search,200,1
1500,704,1000006080,A & K Collision and Repair,7661 Highway 56,,Kulm,ND,58456,USA,7016472084,,https://www.autobody-review.com/shop/i34540/a-k-collision-repair,60094-000,Auto Body Repair & Painting,10/31/13 0:00,,False,NR,0,1,0,False,Micro-small,False,1/2/23 8:49,Search,200,1
1501,704,1000004355,Winona Family Restaurant,1611 Service Drive,,Winona,MN,55987,USA,5074545104,,https://winonafamilyrestaurant.weebly.com/,50544-000,Restaurants,10/10/13 0:00,,False,NR,0,1,0,False,Micro-small,False,12/4/22 9:03,Search,200,1
1502,704,1000005565,The Big Lawn Theory LLC,610 Bear Ave N,,Saint Paul,MN,55127,USA,6513736743,,https://www.hirerush.com/profile/chris-k-6135,00157-000,Lawn Maintenance,3/1/16 0:00,,False,NR,0,1,0,False,Micro-small,False,12/26/22 8:45,Search,200,1
1503,704,1000001575,"BNJ Plumbing, Inc.",PO Box 99,,Thief River Falls,MN,56701,USA,2186835429,,https://bnjplumbingheatinginc.ruud-contractor.com/contact-us,10003-000,Air Conditioning Contractors & Systems,2/5/03 0:00,,False,NR,0,1,0,False,Micro-small,False,7/8/22 12:27,Search,200,1
1504,704,1000005406,Paul Chiles Construction,1268 Mission Rd,,Cloquet,MN,55720,USA,7153790450,,https://livingnewdeal.org/us/mn/cloquet-mn/,10177-000,Construction & Remodeling Services,1/4/10 0:00,,False,NR,0,1,0,False,Micro-small,False,12/26/22 8:45,Search,200,0
1505,704,1000004982,Beaudine Construction Inc,14188 SW Turtle Lake Rd,,Lake Park,MN,56554,USA,2185322590,,https://m.facebook.com/John-Beaudine-Construction-Company-Inc-348548685553566/,10177-000,Construction & Remodeling Services,12/10/91 0:00,,False,A+,100,1,0,False,Micro-small,False,2/18/21 4:05,Search,200,1
1506,704,1000004230,Tennessee Roadhouse,4820 Highway 29 S,,Alexandria,MN,56308,,3207637128,,https://www.echopress.com/business/tennessee-roadhouse-closes-owners-file-bankruptcy,50544-000,Restaurants,9/11/09 0:00,,False,NR,0,1,0,False,Micro-small,False,2/9/23 9:12,Search,200,1
1507,704,1000004804,Talamantes Grocery,131 N Broadway Ave,,Albert Lea,MN,56007,USA,5073732500,,https://m.facebook.com/people/Tienda-mexicana-talamantes/100039213974049/,50758-000,Grocery - Bulk Food Stores,6/27/13 0:00,,False,NR,0,1,0,False,Micro-small,False,2/5/23 8:42,Search,200,0
1508,704,1000002811,Cascade Drywall,11279 122nd St,,Milaca,MN,56353,USA,5096649052,,https://nwcascadedrywall.com/,10112-000,Plastering Contractors,,,False,NR,0,1,0,False,Micro-small,False,1/29/23 8:36,Search,200,1
1509,704,1000000228,Allied Bfi,2795 117th St E,,Inver Grove Heights,MN,55077,USA,6514378101,,https://www.yellowpages.com/inver-grove-heights-mn/allied-waste-service,80269-000,Electric Motors - Dealers & Repairing,1/1/92 0:00,,False,A+,100,20,0,False,Micro-small,False,10/16/21 4:13,Search,200,0
1510,704,1000005062,Brian Ellinghuysen LLC,58684 County Road 4,,Kellogg,MN,55945,USA,5075343704,,https://clustrmaps.com/a/3fuqum/,10177-000,Construction & Remodeling Services,12/21/09 0:00,,False,NR,0,1,0,False,Micro-small,False,12/20/22 8:57,Search,200,0
1511,704,1000001511,Moving Up Enterprise,1100 Village St SE,,New Prague,MN,56071,USA,9527583810,,https://www.hireahelper.com/movers/new-prague_mn/,60618-000,Nutritionists,,,False,NR,0,1,0,False,Micro-small,False,1/31/23 8:46,Search,200,0
1512,704,1000002108,DC Fence and Repair,646 Summer St NE,,Minneapolis,MN,55413,USA,,,https://mnfencecontractor.com/fence-repair/,50252-000,Fence Contractors,6/20/16 0:00,,False,NR,0,1,0,False,Micro-small,False,2/16/22 10:06,Search,200,1
1513,704,1000001576,Bella's On Broadway,523 Broadway Street,,Alexandria,MN,56308,USA,3208460900,,https://www.menupix.com/minnesota/restaurants/183581/Bellas-on-Broadway-Alexandria-MN,50544-000,Restaurants,,,False,NR,0,1,0,False,Micro-small,False,8/19/21 4:22,Search,200,1
1514,704,1000003745,Hiawatha Valley Taxidermy,PO Box 80B,,Lake City,MN,55041,USA,6513452262,,https://www.showmelocal.com/mobile.aspx?bid=1133766,60859-000,Taxidermists,8/30/10 0:00,,False,A+,100,1,0,False,Micro-small,False,1/30/20 4:33,Search,200,1
1515,704,1000006622,Westside Auto Repair,1106 10th Dr SE Ste C,,Austin,MN,55912,USA,5074339396,,https://www.loc8nearme.com/indiana/austin/westside-auto-and-repairable/4386637/,60103-000,Auto Repair & Service,1/1/02 0:00,,False,A+,100,1,0,False,Micro-small,False,1/7/22 14:14,Search,200,1
1516,704,1000004743,Barry Jacobson Trucking,PO Box 687,,Albert Lea,MN,56007,USA,5073733684,,https://www.quicktransportsolutions.com/truckingcompany/minnesota/barry-jacobson-trucking-inc-usdot-177088.php,70640-000,Trucking,5/12/14 0:00,,False,NR,0,1,0,False,Micro-small,False,12/6/22 9:13,Search,200,1
1517,704,1000006771,"Blossoms and Bridal, Inc. ",701 W Hwy 212,,Montevideo,MN,56265,USA,7016409587,,https://www.blossomsdress.com/,50730-000,Wedding Supplies & Services,3/5/04 0:00,,False,A+,100,1,0,False,Micro-small,False,8/16/20 3:44,Search,200,1
1518,704,1000001447,PMG Advertising,314 Harbor Ln N,,Minneapolis,MN,55447,USA,7637463589,,https://www.pmg.com/company/locations,60016-000,Advertising - Newspaper,5/9/16 0:00,11/19/19 0:00,False,NR,0,1,0,False,Micro-small,False,11/21/22 8:39,Search,200,1
1519,704,1000000129,"Bob LeMieur Rolloffs, Refuse and Recycling, Inc.",14827 Pine Ave,,Little Falls,MN,56345,USA,3206329141,,https://www.boblemieurrolloffs.com/,10177-000,Construction & Remodeling Services,11/24/03 0:00,,False,NR,0,1,0,False,Micro-small,False,10/27/22 8:14,Search,200,1
1520,704,1000006589,"Evergreen Grove, LLC",PO Box 453,,Long Lake,MN,55356,USA,6127163583,,https://opencorporates.com/companies/us_mn/d6fb46b1-88d4-e011-a886-001ec94ffe7f,10177-000,Construction & Remodeling Services,6/30/04 0:00,8/11/21 0:00,False,NR,0,1,0,False,Micro-small,False,7/8/22 12:29,Search,200,1
1521,704,1000005989,Minnehaha Courts,1901 Minnehaha Ave,,Minneapolis,MN,55404,USA,6123395590,,https://www.apartmentfinder.com/Minnesota/Minneapolis-Apartments/Minnehaha-Court-Apartments,60042-000,Apartments,1/1/88 0:00,,False,A+,100,1,0,False,Micro-small,False,1/25/20 4:32,Search,200,1
1522,704,1000000182,"Norvanta, LLC",705 18th Ave N,,Moorhead,MN,56560,USA,2184777368,,https://pr.business/norvanta-llc-moorhead-minnesota,60733-000,Real Estate Rental Service,,9/20/17 0:00,False,NR,0,1,,False,Micro-small,False,9/21/20 4:02,Search,200,1
1523,704,1000003560,Roseland Consulting LLC,904 Washington Street,,Anoka,MN,55303,USA,6128670137,,https://www.alignable.com/anoka-mn/roseland-consulting-llc-performance-excellence,60172-101,Compliance Consulting,1/26/15 0:00,,False,NR,0,1,0,False,Micro-small,False,12/27/22 8:49,Search,200,1
1524,704,1000006237,"Lindy&#39;s Plumbing, LLC",34382 County 38,,Benedict,MN,56436,USA,2182242274,,https://marketplace.apg-mn.com/places/view/7624/lindy_s_plumbing_and_heating_llc.html,10113-000,Plumbers,1/22/09 0:00,,False,NR,0,1,0,False,Micro-small,False,1/9/23 8:32,Search,200,1
1525,704,1000001538,Maynards Of Lake Lillian,661 Lakeview St,,Lake Lillian,MN,56253,USA,3206644450,,https://www.waze.com/live-map/directions/maynards-of-lake-lillian-661-lakeview-st-661?to=place.w.173736385.1737494926.89257,50322-000,Grocers - Retail,1/1/04 0:00,5/13/16 0:00,False,NR,0,4,,False,Micro-small,False,5/20/19 4:18,Search,200,0
1526,704,1000005302,"Bati Investments, LLC",124 Falcon Dr,,Mankato,MN,56001,USA,,,https://opencorporates.com/companies/us_mn/0fb0aaae-97d4-e011-a886-001ec94ffe7f,20085-200,Investment Management,4/6/11 0:00,4/16/18 0:00,False,NR,0,1,0,False,Micro-small,False,4/20/21 4:01,Search,200,1
1527,704,1000001624,Landscapes Design & Instlltn,6757 Country Lane SW,,Holmes City,MN,56341,USA,3208865476,,http://holmandolson.com/,00155-000,Landscape Contractors,,,False,NR,0,1,0,False,Micro-small,False,1/31/23 8:46,Search,200,0
1528,704,1000005437,Schurman & Winters Law Firm PA,904 Lake Ave Ste 1,,Detroit Lakes,MN,56501,USA,2188472142,,https://www.lawyer.com/firm/schurman-winters-law-firm-pa.html,60075-000,Attorneys & Lawyers,11/23/10 0:00,,False,NR,0,1,0,False,Micro-small,False,2/19/20 4:40,Search,200,1
1529,704,1000001991,SG Sprinklers ,2550 Millard Ave,,Hastings,MN,55033,USA,6512807850,,https://www.dhcd.virginia.gov/sites/default/files/Docx/2021-code-development-cycle/residential-sprinklers-study-group/residential-sprinklers-sg-meeting-documents-032522.pdf,00155-104,Landscape & Yard Clean-Up,5/2/16 0:00,,False,NR,0,1,0,False,Micro-small,False,11/25/22 9:02,Search,200,0
1530,704,1000001600,Hollingsworth Sandblasting,21425 Train Bell Rd,,Merrifield,MN,56465,USA,2188298075,,https://www.yellowpages.com/merrifield-mn/mip/hollingsworth-sandblasting-2978432,10035-000,Contractors - General,1/1/85 0:00,5/17/16 0:00,False,NR,0,1,,False,Micro-small,False,7/24/20 4:10,Search,200,1
1531,704,1000005134,Roto Rooter Sewer & Drain Cleaning Service,5 22nd St SW,,Minot,ND,58701,USA,7018381661,,https://www.rotorooter.com/minotnd/,10114-000,Plumbing Drains & Sewer Cleaning,7/24/81 0:00,,False,B-,80,1,0,False,Micro-small,False,6/5/22 8:17,Search,200,1
1532,704,1000005527,Bolgrean Construction Inc,905 8th Ave SE,,Barnesville,MN,56514,USA,7013715029,,https://www.barnesvillemn.com/business/bolgreen-construction-2/,10177-000,Construction & Remodeling Services,5/9/00 0:00,,False,NR,0,1,0,False,Micro-small,False,12/26/22 8:45,Search,200,1
1533,704,1000005031,Daniel Boyce Construction,13401 Maywood Ln,,Minnetonka,MN,55345,USA,9523814583,,https://www.homeyou.com/daniel-boyce-construction-minnetonka-mn,60253-000,Construction Management,2/16/99 0:00,,False,A+,100,1,0,False,Micro-small,False,1/20/22 9:52,Search,200,1
1534,704,1000002931,Gorder Farms,2557 180th St,,Canby,MN,56220,USA,5072237578,,https://safer.fmcsa.dot.gov/query.asp?searchtype=ANY&query_type=queryCarrierSnapshot&query_param=USDOT&query_string=1476562,00128-000,Farms,,,False,NR,0,1,0,False,Micro-small,False,1/29/23 8:36,Search,200,0
1535,704,1000004985,Michael Kors ,3925 Eagan Outlets Pkwy Ste 860,,Eagan,MN,55122,USA,6513611091,,https://locations.michaelkors.com/us/mn/eagan/3925-eagan-outlets-parkway.html,10148-100,Retail Stores,,,False,A+,100,,0,False,Micro-small,False,6/30/21 5:47,Search,200,1
1536,704,1000004747,E K Ristow Construction,12629 Tiffany CT,,Burnsville,MN,55337,USA,6123277880,,https://www.houzz.com/professionals/kitchen-and-bath-remodelers/e-k-ristow-construction-pfvwus-pf~883196437,10177-000,Construction & Remodeling Services,1/1/01 0:00,,False,NR,0,2,0,False,Micro-small,False,1/27/23 9:09,Search,200,1
1537,704,1000005569,"Chip&#39;s A/C, Refrigeration, and Appliance, LLC",33674 Xenon Dr NW,,Princeton,MN,55371,USA,7633895216,,https://www.superpages.com/bp/princeton-mn/chips-air-conditioning-refrigeration-L2171694771.htm,60321-000,Electric Equipment - Service & Repair,9/5/12 0:00,,False,A+,100,1,0,False,Micro-small,False,7/8/22 12:29,Search,200,1
1538,704,1000005659,Gordmans,800 Southdale Ctr,,Bloomington,MN,55435,USA,9524881899,,https://www.kare11.com/article/money/business/gordmans-to-close-5-mn-locations/89-428459529,55093-000,Clothing - Retail,9/22/16 0:00,1/8/20 0:00,False,NR,0,1,0,False,Micro-small,False,1/9/23 8:32,Search,200,0
1539,704,1000004958,"Arnold&#39;s Construction of Albert Lea, LLC",1309 Abbott St,,Albert Lea,MN,56007,USA,5073831345,,https://m.facebook.com/profile.php?id=100054579033958,10177-000,Construction & Remodeling Services,7/2/09 0:00,,False,NR,0,1,0,False,Micro-small,False,2/7/23 9:00,Search,200,1
1540,704,1000001422,Feminist Eclectic Martial Arts,3743 Cedar Ave S,,Minneapolis,MN,55407,USA,6127297233,,https://www.femamartialarts.org/,60037-000,Amusement Parks & Places,1/1/98 0:00,5/11/16 0:00,False,NR,0,1,,False,Micro-small,False,5/13/19 4:10,Search,200,1
1541,704,1000005784,John Danielson Construction,1630 98th St Ne,,Kandiyohi,MN,56251,USA,3203826674,,https://www.finduslocal.com/general-contractors/minnesota/kandiyohi/john-danielson-construction_1630-98th-st-ne/,10035-000,Contractors - General,11/25/97 0:00,,False,A+,100,2,0,False,Micro-small,False,8/7/20 4:03,Search,200,1
1542,704,1000000160,Eye of the Tiger Defense LLC,PO Box 617,,Greenwood,MN,55331,USA,9522394242,,https://www.facebook.com/eyeofthetigerdefense/,60791-000,Self Defense,8/14/15 0:00,,False,NR,0,1,0,False,Micro-small,False,2/2/23 8:52,Search,200,1
1543,704,1000006119,Demcom Disposal Service Inc,11475 10th St NE,,Hanover,MN,55341,USA,7634972100,,https://dem-con.com/,70592-000,Rubbish & Garbage Removal,,,False,NR,0,5,0,False,Micro-small,False,1/24/23 8:58,Search,200,1
1544,704,1000003808,GTP Fabco ,124 Whitten Street,,Winona,MN,55987,,5072057151,,https://www.alignable.com/winona-mn/gtp-fabco,50191-100,Countertop - Fabrication,,,False,NR,0,1,0,False,Micro-small,False,2/9/23 9:12,Search,200,1
1545,704,1000006361,American Mattress,1660 Madison Ave,,Mankato,MN,56001,USA,5077206789,,https://www.furniture.com/stores/minnesota/mankato/americas-mattress,50419-000,Mattresses,7/5/05 0:00,,False,A+,100,1,0,False,Micro-small,False,2/16/22 10:06,Search,200,1
1546,704,1000005802,Danielson Construction of Willmar LLC,1630 98th St NE,,Kandiyohi,MN,56251,USA,3203826674,,https://opencorporates.com/companies/us_mn/3ccb1c52-b5d4-e011-a886-001ec94ffe7f,10177-000,Construction & Remodeling Services,11/25/97 0:00,,False,NR,0,1,0,False,Micro-small,False,12/30/22 8:56,Search,200,1
1547,704,1000006480,Equity Home Builders Llc,4225 38th St S,Ste 101,Fargo,ND,58104,USA,7013643700,,https://equityhomebuilders.com/,10078-000,Home Builders,11/13/09 0:00,,False,NR,0,1,0,False,Micro-small,False,1/6/23 9:13,Search,200,1
1548,704,1000001832,Broadway Tony's,221 Broadway Ave,,Gilbert,MN,55741,USA,2187491352,,https://restaurantguru.com/Broadway-Tonys-Gilbert-Minnesota,50421-000,Meat - Retail,8/3/05 0:00,,False,NR,0,1,0,False,Micro-small,False,9/18/19 8:08,Search,200,1
1549,704,1000005051,Brasel Construction Inc,13033 Ridgedale Dr Ste 179,,Hopkins,MN,55305,USA,6514857692,,https://homeflock.com/dir-contractors/General+Contractors/Hopkins+MN,10177-000,Construction & Remodeling Services,7/14/95 0:00,,False,A+,100,1,0,False,Micro-small,False,4/16/22 8:14,Search,200,0
1550,704,1000004700,Hagemeister Lawn Care,PO Box 5036,,Saint Cloud,MN,56302,USA,3204209136,,http://www.hdlandscapes.com/,00155-000,Landscape Contractors,1/1/05 0:00,5/30/18 0:00,False,NR,0,5,,False,Micro-small,False,6/1/21 4:03,Search,200,1
1551,704,1000005563,Iceman Industries Inc,495 W Maryland,,Saint Paul,MN,55117,USA,6514889661,,https://www.facebook.com/IcemanIndustries/,70605-000,Snow Removal Service,9/5/97 0:00,,False,NR,0,1,0,False,Micro-small,False,12/26/22 8:46,Search,200,1
1552,704,1000001570,Wing Financial Service,120 S Main St,,Stanley,ND,58784,USA,7016282063,,https://www.facebook.com/people/Wing-Financial-Services/100070584235168/,20067-000,Stock & Bond Brokers,1/1/07 0:00,,False,NR,0,2,0,False,Micro-small,False,1/31/23 8:46,Search,200,1
1553,704,1000000151,Brustuen Construction Llc,280 180th Ave NW,,Holloway,MN,56249,USA,3202970736,,https://www.yellowpages.com/holloway-mn/mip/brustuen-construction-16205361,30760-000,Woodworking,1/1/07 0:00,,False,NR,0,1,0,False,Micro-small,False,10/30/22 8:34,Search,200,1
1554,704,1000002798,Carl Piehl Real Estate Conslnt,14913 Sharon Ln,,Burnsville,MN,55306,USA,9528926040,,https://real-estate.bz/company-uptown-landing-in-burnsville-mn-157215,60729-000,Real Estate,,10/24/19 0:00,False,NR,0,1,,False,Micro-small,False,10/25/19 4:28,Search,200,0
1555,704,1000006642,In Harmony Dental Care,5270 W 84th St Ste 360,,Minneapolis,MN,55437,USA,9528350666,,https://www.inharmonydentalcare.com/,60289-000,Dentists,1/1/84 0:00,,False,A+,100,4,0,False,Micro-small,False,11/2/21 3:51,Search,200,1
1556,704,1000001280,Dyna-Mike&#39;s Automotive,308 Howe St N,,Clarissa,MN,56440,USA,2187562145,,https://repairpal.com/auto-repair-near-me/auto-repair-in-clarissa-minnesota/dyna-mikes-automotive,60103-000,Auto Repair & Service,1/1/99 0:00,,False,NR,0,3,0,False,Micro-small,False,11/30/22 9:27,Search,200,1
1557,704,1000005617,Bowlero Lakeville,11129 162nd St W,,Lakeville,MN,55044,USA,9524352695,,https://www.bowlero.com/location/bowlero-lakeville/menu,60156-000,Bowling,1/1/08 0:00,,False,NR,0,33,0,False,Micro-small,False,2/7/23 9:00,Search,200,1
1558,704,1000005605,Wolff Trucking,2366 E 270th St,,New Prague,MN,56071,USA,9528888692,,https://safer.fmcsa.dot.gov/query.asp?searchtype=ANY&query_type=queryCarrierSnapshot&query_param=USDOT&query_string=628963,70640-000,Trucking,1/1/01 0:00,,False,NR,0,1,0,False,Micro-small,False,12/26/22 8:45,Search,200,0
1559,704,1000006375,Donald Christopher Designs LLC,809 Moonlight Pl,,Saint Paul,MN,55125,USA,6514923431,,https://www.houzz.com/professionals/general-contractors/donald-christopher-designs-llc-pfvwus-pf~599105054,10035-000,Contractors - General,5/19/15 0:00,,False,A+,100,1,0,False,Micro-small,False,10/31/20 3:54,Search,200,1
1560,704,1000002819,City Sprint Courier,5555 W 78th St Ste D,,Edina,MN,55439,USA,9529432453,,http://www.citysprint.com/,70000-000,Couriers,,,False,A+,99.12,1,0,False,Micro-small,False,3/6/20 4:08,Search,200,1
1561,704,1000001701,"Clinton Crop Protection, inc.",423 Main St,,Clinton,MN,56225,USA,3203255250,,https://mnbump.com/directory/clinton-crop-protection/,20080-000,Insurance Services,5/31/94 0:00,,False,A+,100,1,0,False,Micro-small,False,1/31/23 16:56,Search,200,1
1562,704,1000002794,C & G Telephone Sales Inc,611 Watkins St,,Mora,MN,55051,USA,3206792581,,https://www.verizon.com/stores/details/minnesota/mora/tcc-mora-a00000283044/,60323-000,Electronic Equipment & Suppliers - Service & Repair,7/13/16 0:00,,False,NR,0,1,0,False,Micro-small,False,5/28/21 4:18,Search,200,0
1563,704,1000006772,Balanced Body Massage ,4913 Shelburne st apt 9,,Bismarck,ND,58503,USA,7012140204,,https://www.massagebook.com/biz/IndigoBodyBalancing,60543-000,Massage Therapists,4/22/10 0:00,,False,NR,0,1,0,False,Micro-small,False,11/5/19 4:31,Search,200,1
1564,704,1000001379,Residential Pest Solutions LLC,16564 Farrago Trl,,Farmington,MN,55024,USA,6124831499,,https://guardian-online.com/contact-us/farmington/,60650-000,Pest Control Services,7/13/15 0:00,7/28/21 0:00,False,NR,0,1,0,False,Micro-small,False,3/8/22 9:29,Search,200,0
1565,704,1000003046,Timothy House,621 Trott Ave SW,,Willmar,MN,56201,USA,3202623229,,https://getconnected.unitedwayhelps.org/agency/detail/?agency_id=21015,60732-000,Property Management,1/1/08 0:00,,False,NR,0,1,0,False,Micro-small,False,12/4/22 9:03,Search,200,0
1566,704,1000002543,PGA Tour Superstore,12380 Wayzata Blvd,,Hopkins,MN,55305,USA,7634895410,,https://www.pgatoursuperstore.com/stores/minnetonka-minnesota/1205.html,50318-000,Golf Equipment & Supplies - Retail,4/7/16 0:00,,False,A+,97,1,0,False,Micro-small,False,10/5/21 3:59,Search,200,1
1567,704,1000005935,"Cliffside Construction, LLC",4311 County 3,,Brownsville,MN,55919,USA,6087692864,,https://start.cortera.com/company/research/k3p1pzj7n/cliffside-construction-llc/,10177-000,Construction & Remodeling Services,5/17/06 0:00,,False,A+,100,1,0,False,Micro-small,False,4/3/21 4:02,Search,200,1
1568,704,1000004986,A Better Outlook LLC,8810 Highway 284,,Waconia,MN,55387,USA,6127204404,,https://www.facebook.com/people/A-Better-Outlook-LLC-Construction-and-Carpentry/100054262460306/,10177-000,Construction & Remodeling Services,12/31/13 0:00,,False,NR,0,1,0,False,Micro-small,False,5/18/22 20:28,Search,200,1
1569,704,1000003001,MN Family Law,1457 Clippership Ct,,Saint Paul,MN,55125,USA,9525440949,,https://www.justia.com/lawyers/family-law/minnesota/saint-paul,60075-000,Attorneys & Lawyers,1/1/07 0:00,,False,A+,100,2,0,False,Micro-small,False,2/2/23 8:53,Search,200,1
1570,704,1000002003,Clearwater Chiropractic,935 Clearwater Ctr,,Clearwater,MN,55320,USA,3205586772,,https://www.clearwaterfamilychiro.com/,60205-000,Chiropractors D.C.,1/1/88 0:00,,False,NR,0,2,0,False,Micro-small,False,1/30/23 8:33,Search,200,1
1571,704,1000000172,Perfect Surface Tile,11221 7th St NE,,Minneapolis,MN,55434,USA,6122455779,,https://getpersona.app/directory/listing/perfect-surface-tile-612-245-57792-11221-7th-st-ne-minneapolis-mn-55434/,85366-000,Contractors - Flooring,,,False,NR,0,1,0,False,Micro-small,False,1/31/23 8:45,Search,200,1
1572,704,1000005964,The Grounds Guys of Bismark,117 Montgomery PL,,Bismarck,ND,58504,USA,7013910289,,https://m.facebook.com/rivercitylawnandlanscaping/,00155-104,Landscape & Yard Clean-Up,1/28/16 0:00,,False,A+,97,1,0,False,Micro-small,False,5/15/22 8:13,Search,200,1
1573,704,1000001705,GoldenSHYNE Cleaning Services,8707 Blaisdell Ave S,,Minneapolis,MN,55420,USA,3202606933,,https://www.care.com/b/l/goldenshyne-cleaning-services/burnsville-mn,66002-000,Cleaning Services,1/1/15 0:00,12/10/19 0:00,False,NR,0,1,0,False,Micro-small,False,12/12/22 9:00,Search,200,1
1574,704,1000003210,Norwood Electric,PO Box 157,,Nya,MN,55368,USA,9524672401,,https://www.cityofnya.com/new-residents/,10049-000,Electricians,12/29/87 0:00,,False,NR,0,1,0,False,Micro-small,False,12/13/22 9:03,Search,200,0
1575,704,1000005352,Manny's,521 Fergus Ave,,Erhard,MN,56534,USA,2188425195,,https://www.waze.com/live-map/directions/mannys-rockys-bait-fergus-ave-520-erhard?to=place.w.172949969.1729499688.39679,50322-000,Grocers - Retail,2/1/05 0:00,,False,NR,0,1,0,False,Micro-small,False,9/15/19 4:15,Search,200,0
1576,704,1000003013,Prime Built Construction,10911 Alberton Way,,Inver Grove Heights,MN,55077,USA,6519051659,,https://minnesota.building-us.org/250094-prime_built_construction.htm,10035-000,Contractors - General,8/30/10 0:00,,False,NR,0,3,0,False,Micro-small,False,1/29/23 8:36,Search,200,1
1577,704,1000003626,"MW710,LLC",710 E River Rd,,Anoka,MN,55303,USA,7637866909,,https://anokaareachamber.com/chamber-member/mw710-llc/,60336-100,Engineers - Environmental,10/15/99 0:00,,False,NR,0,1,0,False,Micro-small,False,4/5/22 8:23,Search,200,1
1578,704,1000002362,Eureka Construction,7640 Parklawn Ave,,Bloomington,MN,55435,USA,9529228785,,https://eurekaconst.com/,10177-000,Construction & Remodeling Services,2/8/99 0:00,2/13/17 0:00,False,NR,0,,0,False,Micro-small,False,2/17/20 3:56,Search,200,1
1579,704,1000001897,"Marcus J Eischens, CPA",PO Box 22,,Cedar,MN,55011,USA,7634344156,,https://www.ptindirectory.com/tax-preparers/minnesota/cedar-mn/609701/marcus-j-eischens-cpa/marcus-j-eischens-cpa,60857-000,Tax Return Preparation,6/6/16 0:00,,False,NR,0,1,0,False,Micro-small,False,11/13/22 9:01,Search,200,1
1580,704,1000005419,"Garrett Mitchell, LLC",16800 Luther Way,,Eden Prairie,MN,55346,USA,9524068994,,https://opencorporates.com/companies/country/us?company_type=Limited+Liability+Company+%28Domestic%29&q=GARRETT%2C+LLC,10177-000,Construction & Remodeling Services,3/31/15 0:00,12/7/16 0:00,False,NR,0,1,0,False,Micro-small,False,12/9/19 4:09,Search,200,0
1581,704,1000002831,Personal Touch Beaute,114 Avenue C,,Cloquet,MN,55720,USA,2188780219,,https://nextdoor.com/pages/personal-touch-beaute-cloquet-mn/,60134-000,Beauty Salons,4/11/91 0:00,,False,NR,0,3,0,False,Micro-small,False,12/20/22 8:57,Search,200,1
1582,704,1000001277,Big Mikes Bbq Pit Stop Inc,Po Box 398,,Ironton,MN,56455,USA,2185466153,,https://restaurantpassion.com/find/restaurants/minnesota/crow-wing/ironton/,50544-000,Restaurants,4/25/16 0:00,,False,NR,0,,0,False,Micro-small,False,7/30/19 3:56,Search,200,0
1583,704,1000005696,Cartway Design Inc,9101 Foxline Dr,,Hamel,MN,55340,USA,7636570677,,https://www.merchantcircle.com/mn-hamel/business-to-business/business-services,10177-000,Construction & Remodeling Services,1/13/05 0:00,,False,A+,100,1,0,False,Micro-small,False,12/29/19 4:20,Search,200,0
1584,704,1000004832,Bleachers Bar & Grill,25807 County Highway 22,,Detroit Lakes,MN,56501,USA,2188446820,,https://www.bleachersdetroitlakes.com/,50544-000,Restaurants,6/8/11 0:00,,False,A+,100,1,0,False,Micro-small,False,4/10/20 4:13,Search,200,1
1585,704,1000002913,DCB Production Services,5252 141st Ave NW,,Bonetraill,ND,58801,USA,7015701215,,https://opencorporates.com/companies/us_nd/0000104003,00174-000,Oilfield Equipment & Supplies,12/15/10 0:00,,False,NR,0,1,0,False,Micro-small,False,1/19/23 8:51,Search,200,1
1586,704,1000003877,Skeye Vision,PO Box 311,,Flasher,ND,58535,USA,7017943173,,https://www.gehealthcare.ca/en-CA/products/skeye,10155-200,Cable Networking,,,False,NR,0,1,0,False,Micro-small,False,2/23/22 10:21,Search,200,0
1587,704,1000006164,Cottrell Builders Inc,723 Elder Ave SW,,Buffalo,MN,55313,USA,3209638507,,https://nextdoor.com/pages/cottrell-builders-buffalo-mn/,10177-000,Construction & Remodeling Services,9/27/99 0:00,,False,NR,0,4,0,False,Micro-small,False,1/2/23 8:49,Search,200,1
1588,704,1000006366,Midwest Environmental Systems,808 S Sheridan St Apt 305,,Fergus Falls,MN,56537,USA,6513000096,,http://midwestenvironmentalservices.com/,60346-100,Environmental Consulting & Contracting,8/20/12 0:00,,False,A+,100,1,0,False,Micro-small,False,2/4/22 9:35,Search,200,1
1589,704,1000003415,U.S AutoForce,St. Paul ,,Saint Paul,MN,55101,USA,6129614604,,https://www.usautoforce.com/,80041-300,Auto Parts & Supplies - Rebuilt,7/26/16 0:00,,False,NR,0,1,0,False,Micro-small,False,10/18/22 8:16,Search,200,1
1590,704,1000003364,Lakeside Manor Inc.,5515 West 9th Street,,Winona,MN,55987,USA,6087888080,,https://www.apartments.com/lakeside-manor-apartments-and-townhomes-winona-mn/yedjmnv/,60042-000,Apartments,6/26/96 0:00,,False,A+,100,1,0,False,Micro-small,False,2/3/23 20:41,Search,200,1
1591,704,1000003062,Titan Creative Concrete,8431 22nd Ave so,,Bloomington,MN,55425,USA,6122545707,,http://www.creativeconcretemn.com/,10032-000,Concrete Contractors,7/18/16 0:00,,False,NR,0,1,0,False,Micro-small,False,3/5/22 9:33,Search,200,0
1592,704,1000005733,Cooper Bros. Construction Inc,11931 Fern Beach Dr,,Detroit Lakes,MN,56501,USA,2187901810,,https://briardconstruction.com/,10035-000,Contractors - General,4/9/07 0:00,,False,A+,100,,0,False,Micro-small,False,11/18/20 4:55,Search,200,1
1593,704,1000004532,Craig Labelle Plumbing,30812 County Highway 21,,Rothsay,MN,56579,USA,7635614900,,https://fergusfallsplumber.com/,10003-000,Air Conditioning Contractors & Systems,1/1/08 0:00,,False,NR,0,1,0,False,Micro-small,False,1/31/23 8:46,Search,200,1
1594,704,1000003842,Erik Vevang,2836 Ulysses St NE,,Minneapolis,MN,55418,USA,9522204870,,https://www.vevangmpls.com/about.html,10177-000,Construction & Remodeling Services,,,False,NR,0,1,0,False,Micro-small,False,1/28/23 8:48,Search,200,1
1595,704,1000003012,Precision Propeller & Cycle,109 Cedar St NW,,Saint Joseph,MN,56374,USA,3203634637,,https://www.precisioncycleonline.com/locations,50082-000,Boat Dealers,1/1/93 0:00,,False,A+,100,4,0,False,Micro-small,False,1/31/20 4:26,Search,200,1
1596,704,1000006382,Doug Kleese Construction Inc,4667 Co 30 Boulevard,,Kenyon,MN,55946,USA,5076491783,,http://www.kleeseconstruction.com/,10177-000,Construction & Remodeling Services,12/7/06 0:00,,False,NR,0,1,0,False,Micro-small,False,1/6/23 9:12,Search,200,1
1597,704,1000005025,Bent Stone LLC,8312 38th St N,,Lake Elmo,MN,55042,USA,6513872640,,https://untappd.com/v/arnie-s-restaurant/7266507,10035-000,Contractors - General,4/1/15 0:00,,False,NR,0,1,0,False,Micro-small,False,1/3/23 8:39,Search,200,0
1598,704,1000002501,Lou Nanne's,590 Park St Ste 6,,Saint Paul,MN,55103,USA,6126552489,,https://www.kare11.com/article/news/local/kare11-extras/minnesota-is-me-and-im-minnesota-hockey-legend-lou-nanne-marks-nearly-60-years-calling-boys-state-hockey-tourney/89-ad097561-8962-439c-a6ec-7ddb03e27cea,50544-000,Restaurants,2/11/15 0:00,,False,NR,0,1,0,False,Micro-small,False,7/7/19 4:05,Search,200,0
1599,704,1000003627,Anoka Community Concert Association,3831 Rum River Drive,,Anoka,MN,55303,USA,7634217469,,https://anokaconcerts.com/,85331-000,Childrens & Family Entertainment,1/31/75 0:00,,False,A+,100,1,0,False,Micro-small,False,4/1/20 4:42,Search,200,1
