,Unnamed: 0,BBBID,BusinessID,BusinessName,StreetAddress,StreetAddress2,City,StateProvince,PostalCode,Country,Phone,Email,Website,TOBID,TOBDescription,DateBusinessStarted,DateBusinessClosed,IsBBBAccredited,BBBRatingGrade,BBBRatingScore,NumberOfEmployees,NumberOfPartTimeEmployees,IsHQ,SizeOfBusiness,IsCharity,CDWLastUpdate,FoundVia,status_code,manually_checked
47,1647,704,1000001446,A + Home Services,3451 Interlachen Dr Ne,,Andover,MN,55304.0,USA,7634138809.0,,https://www.heatingandcoolingstore.com/,50403-000,Lumber - Retail,1/1/05 0:00,,False,NR,0.0,1.0,,False,Micro-small,False,6/7/22 8:10,Search,200,
48,1648,704,1000000196,Kuck Construction,13917 56th St SE,,Sheldon,ND,58068.0,USA,7017998915.0,,https://www.yellowpages.com/sheldon-nd/mip/kuck-construction-469063669,10035-000,Contractors - General,1/1/07 0:00,,False,NR,0.0,1.0,0.0,False,Micro-small,False,2/2/23 8:52,Search,200,
49,1649,704,1000004478,Board by Board ,9745 103rd St. Ct. N. ,,Stillwater,MN,55082.0,USA,6513435088.0,,https://www.stillwaterschools.org/our-district/school-board,15058-000,Hardwood Floor Contractors,1/1/02 0:00,,False,NR,0.0,1.0,0.0,False,Micro-small,False,2/23/21 4:07,Search,200,
50,1650,704,1000002949,Grey Eagle Transport Corp,119 Cedar St S,,Grey Eagle,MN,56336.0,USA,3202853195.0,,https://www.showmelocal.com/profile.aspx?bid=1176044,50750-000,Transportation Services,,12/10/19 0:00,False,NR,0.0,1.0,,False,Micro-small,False,12/12/22 9:00,Search,200,
51,1651,704,1000006426,Ascend Chiropractic,200 E Travelers Trl,,Burnsville,MN,55337.0,USA,9522294425.0,,https://orthopedic.io/chiropractic-clinic/ascend-chiropractic-wellness-llc-burnsville-mn/,60205-000,Chiropractors D.C.,1/25/16 0:00,,False,A+,100.0,1.0,0.0,False,Micro-small,False,11/23/20 3:56,Search,200,
52,1652,704,1000006759,"Conzemius Oil, Inc.",513 5th st,PO Box 28,Breckenridge,MN,56520.0,USA,2186436789.0,,https://www.bloomberg.com/profile/company/0418887D:US,30432-000,Oils - Petroleum,4/24/98 0:00,,False,A+,100.0,1.0,0.0,False,Micro-small,False,6/7/22 8:10,Search,200,
53,1653,704,1000002016,Lennar Constuction LLC,8524 Packard Ave NE,,Elk River,MN,55330.0,USA,7635599293.0,,https://www.newhomesource.com/communities/mn/minneapolis-st.-paul-area/elk-river/builder-lennar-644,10035-000,Contractors - General,8/30/10 0:00,,False,NR,0.0,2.0,0.0,False,Micro-small,False,4/1/22 18:59,Search,200,
54,1654,704,1000001474,"Eagle Construction Company, Inc.",515 9th Avenue NW,,Little Falls,MN,56345.0,USA,3206325429.0,,https://eaglecci.net/,10177-000,Construction & Remodeling Services,1/10/73 0:00,,False,NR,0.0,1.0,0.0,False,Micro-small,False,6/15/22 9:02,Search,200,
55,1655,704,1000002087,G Thomas Construction,13750 10th St N,,Stillwater,MN,55082.0,USA,6514366599.0,,https://gthomasconstruction.com/,10035-000,Contractors - General,1/1/08 0:00,,False,NR,0.0,2.0,0.0,False,Micro-small,False,1/30/23 8:33,Search,200,
56,1656,704,1000006151,Barry Markus Remodeling Inc,3628 pillsbury Ave S,,Minneapolis,MN,55409.0,USA,6122722843.0,,https://www.homeyou.com/barry-markus-remodeling-inc-minneapolis-mn,10177-100,Basement - Remodeling,6/8/04 0:00,,False,A+,100.0,1.0,0.0,False,Micro-small,False,6/11/22 8:14,Search,200,
57,1657,704,1000006223,Cryptid Hair Parlour,2358 Stinson Blvd,,Minneapolis,MN,55418.0,USA,6123547328.0,,https://www.cryptidhair.com/,60420-000,Hair Styling and Services,3/21/16 0:00,,False,A+,99.47,1.0,0.0,False,Micro-small,False,1/4/20 4:16,Search,200,
58,1658,704,1000005841,Agri-Resources,5621 53rd Ave S,,Fargo,ND,58104.0,USA,7012773221.0,,https://agriresources.ag/,00103-000,Agricultural Services,10/17/00 0:00,,False,NR,0.0,1.0,0.0,False,Micro-small,False,1/2/23 8:49,Search,200,
59,1659,704,1000005785,Advanced Electric Company Inc,4132 Hull Rd,,Hopkins,MN,55305.0,USA,9529351329.0,,https://www.whodoyou.com/biz/38942/advanced-electric-co-inc-hopkins-mn,10049-000,Electricians,9/22/70 0:00,,False,A+,100.0,1.0,0.0,False,Micro-small,False,9/22/22 8:57,Search,200,
60,1660,704,1000003466,Scotty's Transmission Repair LLC,3974 State Highway 55 SE,,Buffalo,MN,55313.0,USA,7634387406.0,,https://opencorporates.com/companies/us_mn/2832deaa-1cd0-e511-8164-00155d01c56d,60902-000,Transmissions - Automobile,2/10/16 0:00,,False,NR,0.0,1.0,0.0,False,Micro-small,False,3/25/22 8:41,Search,200,
61,1661,704,1000005089,Curtis Buysee Construction,1961 County Road 10,,Minneota,MN,56264.0,USA,5075305906.0,,https://partnercarrier.com/MN/MINNEOTA/CURTIS-BUYSSE-CONSTRUCTION-USDOT-2819415,10177-000,Construction & Remodeling Services,6/14/07 0:00,,False,NR,0.0,1.0,0.0,False,Micro-small,False,1/6/21 4:29,Search,200,
62,1662,704,1000003835,"Eric&#39;s Custom Carpentry, LLC",2014 E 4th St,,Duluth,MN,55812.0,USA,2183409146.0,,https://duluthcarpentry.com/,10019-000,Carpenters,12/21/10 0:00,,False,NR,0.0,1.0,0.0,False,Micro-small,False,11/17/22 9:21,Search,200,
63,1663,704,1000004953,Koala-T Enterprises,1391 Pineview Ln. N.,,Dayton,MN,55327.0,USA,,,https://www.facebook.com/profile.php?id=100064095487893,62100-000,Online Retailer,,1/6/20 0:00,False,NR,0.0,1.0,,False,Micro-small,False,1/9/23 8:32,Search,200,
64,1664,704,1000003699,Optimal REO Solutions,7825 Washington Ave,,Eden Prairie,MN,55439.0,,8005489765.0,,https://www.scampulse.com/reo-solutions-reviews,85363-000,Online Social Media/Networking,,,False,NR,0.0,1.0,0.0,False,Micro-small,False,2/9/23 9:12,Search,200,
65,1665,704,1000000038,Lakeside Lawn & Landscape,9166 Schaller Rd,,Pequot Lakes,MN,56472.0,USA,2185436726.0,,https://lakesidelandscapeinc.com/,00155-000,Landscape Contractors,1/1/88 0:00,,False,NR,0.0,15.0,0.0,False,Micro-small,False,8/23/22 8:27,Search,200,
66,1666,704,1000000176,Lakeland Electric Inc.,1312 Mckay Dr NE,,Ham Lake,MN,55304.0,USA,7632454346.0,,https://lakelandelec.com/,10049-000,Electricians,5/6/14 0:00,,False,NR,0.0,1.0,0.0,False,Micro-small,False,4/16/22 8:14,Search,200,
67,1667,704,1000001877,"Tanner Johnson Custom Builders, LLC",PO Box 102,,Pine River,MN,56474.0,USA,2188206761.0,,https://opencorporates.com/companies/us_mn/9d24e172-c00a-e511-b14d-001ec94ffe7f,10035-000,Contractors - General,6/4/15 0:00,,False,NR,0.0,1.0,0.0,False,Micro-small,False,6/4/22 8:45,Search,200,
68,1668,704,1000001856,"Scott James Homes, LLC",7300 Hudson Blvd N Ste 200,,Landfall Vlg,MN,55128.0,USA,7639540124.0,,https://www.co.washington.mn.us/Archive.aspx?ADID=1136,10035-000,Contractors - General,4/7/15 0:00,,False,NR,0.0,1.0,0.0,False,Micro-small,False,6/4/22 8:45,Search,200,
69,1669,704,1000005423,Gene Dornink Carpentry LLC,74427 170th Ave,,Hayfield,MN,55940.0,,5072068449.0,,https://dev.austincoc.com/list/member/gene-dornink-carpentry-llc-12487.htm,10019-000,Carpenters,2/12/10 0:00,,False,NR,0.0,1.0,0.0,False,Micro-small,False,2/9/23 9:12,Search,200,
70,1670,704,1000003599,Papa Murphy's Take and Bake,1845 Highway 59 S,,Thief Rvr Fls,MN,56701.0,USA,2186835129.0,,https://locations.papamurphys.com/mn/thief-river-falls/1845-hwy-59-south,50502-000,Pizza ,,,False,NR,0.0,,0.0,False,Micro-small,False,1/29/20 6:33,Search,200,
71,1671,704,1000001971,Mec Store,101 4th Ave NE,,Mandaree,ND,58757.0,USA,7017593609.0,,https://www.yellowpages.com/mandaree-nd/mip/mec-store-535053012,50567-000,Service Stations - Gasoline & Oil,1/1/05 0:00,,False,NR,0.0,7.0,0.0,False,Micro-small,False,1/30/23 8:33,Search,200,
72,1672,704,1000006454,Byrnes Cleaning Inc,9526 172nd Ave Se,,Becker,MN,55308.0,USA,6128125019.0,,https://clustrmaps.com/a/7hrib/,66002-000,Cleaning Services,8/28/13 0:00,5/5/21 0:00,False,NR,0.0,1.0,0.0,False,Micro-small,False,7/12/22 8:33,Search,200,
73,1673,704,1000001486,Northwest Glass & Service,PO Box 505,,Pelican Rapids,MN,56572.0,USA,2188634442.0,,https://www.yellowpages.com/pelican-rapids-mn/mip/northwest-glass-services-470121013,50476-000,Paint - Retail,1/1/05 0:00,,False,NR,0.0,1.0,0.0,False,Micro-small,False,1/31/23 8:46,Search,200,
74,1674,704,1000003047,Tow Time,23501 Capella St Ne,,Minneapolis,MN,55408.0,USA,6125011815.0,,https://towing-companies.cmac.ws/tow-time-inc/47850/,60103-000,Auto Repair & Service,1/1/08 0:00,,False,NR,0.0,2.0,0.0,False,Micro-small,False,1/29/23 8:36,Search,200,
75,1675,704,1000005978,David R Savage Llc,18829 146Th St NW,,Elk River,MN,55330.0,USA,6126853147.0,,https://www.bizapedia.com/mn/david-r-savage-llc.html,10035-000,Contractors - General,4/15/09 0:00,,False,A+,100.0,1.0,0.0,False,Micro-small,False,4/20/22 8:37,Search,200,
76,1676,704,1000005270,Heitkamp Properties LLC,4530 Palmgren Ln NE,,Saint Michael,MN,55376.0,USA,6123216949.0,,https://www.bizapedia.com/mn/heitkamp-properties-llc.html,60857-000,Tax Return Preparation,4/16/09 0:00,,False,A+,100.0,1.0,0.0,False,Micro-small,False,11/12/20 3:57,Search,200,
77,1677,704,1000006013,Peace of Mind Home Inspection,486 Victoria St S,,Saint Paul,MN,55102.0,USA,6512246415.0,,https://mnhomeinspections.com/,60469-000,Home Inspection Service,,11/1/16 0:00,False,NR,0.0,,,False,Micro-small,False,10/29/20 3:52,Search,200,
78,1678,704,1000000061,Olivers Restaurant,12401 Wayzata Blvd,,Hopkins,MN,55305.0,USA,9528769410.0,,https://menulist.menu/restaurants/hopkins/olivers-restaurant-6,50544-000,Restaurants,4/4/16 0:00,,False,NR,0.0,1.0,0.0,False,Micro-small,False,4/13/22 8:07,Search,200,
79,1679,704,1000001928,Discount Mattresses & More,501 N. Main Street ,,Stewartrville,MN,55976.0,USA,5075330360.0,,https://www.yellowpages.com/stewartville-mn/mip/discount-mattresses-more-497269220,10148-100,Retail Stores,6/7/16 0:00,,False,NR,0.0,1.0,0.0,False,Micro-small,False,11/18/22 9:13,Search,200,
80,1680,704,1000003224,Jerry's Home Upholstery ,5025 Abbott Ave S,,Minneapolis,MN,55410.0,USA,6129227572.0,,https://jerrysupholsterymn.com/,50693-000,Upholstery Fabrics - Retail,7/20/16 0:00,,False,NR,0.0,1.0,0.0,False,Micro-small,False,3/17/21 4:44,Search,200,
81,1681,704,1000006310,3c Sons Remodeling,7520 Autumn Chace Dr,,Minneapolis,MN,55438.0,USA,9524578744.0,,https://start.cortera.com/company/research/k4j0qzr6j/3c-sons-remodeling/,10035-000,Contractors - General,10/17/16 0:00,,False,A+,100.0,1.0,0.0,False,Micro-small,False,8/11/22 8:30,Search,200,
82,1682,704,1000005855,Clearview Construction Services Inc,1111 2nd St S,,Cold Spring,MN,56320.0,USA,,,https://www.facebook.com/ClearviewConstructionServices/,10035-000,Contractors - General,,4/30/18 0:00,False,NR,0.0,1.0,,False,Micro-small,False,5/4/21 4:06,Search,200,
83,1683,704,1000003424,Sweet Perfections LLC,477 W 5th St,,Winona,MN,55987.0,USA,5074505272.0,,https://www.sweetperfections.com/,50052-000,Bakers - Retail,6/26/14 0:00,,False,NR,0.0,1.0,0.0,False,Micro-small,False,12/24/22 8:49,Search,200,
84,1684,704,1000005753,Dan Hanson Installation LLC,102 S Central Ave,,Dalton,MN,56324.0,USA,2187708895.0,,https://www.merchantcircle.com/dan-hanson-installation-ashby-mn,10177-000,Construction & Remodeling Services,1/15/09 0:00,,False,NR,0.0,1.0,0.0,False,Micro-small,False,12/30/22 8:57,Search,200,
85,1685,704,1000004626,Carrington Homes LLC,PO Box 169,,Cedar,MN,55011.0,USA,7634444566.0,,https://www.houzz.com/professionals/home-builders/carrington-homes-llc-pfvwus-pf~975724870,10078-000,Home Builders,1/10/08 0:00,,False,NR,0.0,1.0,0.0,False,Micro-small,False,2/7/23 9:00,Search,200,
86,1686,704,1000003266,American Family Insurance- Cokato,220 Broadway Ave S,,Cokato,MN,55321.0,USA,3202865556.0,,https://www.amfam.com/agents/minnesota/cokato/robert-swendra,20028-000,Insurance - Homeowners,3/1/96 0:00,,False,NR,0.0,1.0,0.0,False,Micro-small,False,10/25/22 8:10,Search,200,
87,1687,704,1000004530,Bill&#39;s Auto,8810 Excelsior Blvd,,Hopkins,MN,55343.0,USA,9524260851.0,,http://www.billsservicegarage.com/,60107-700,Auto Repair - Maintenance,1/14/14 0:00,,False,NR,0.0,1.0,0.0,False,Micro-small,False,1/27/23 9:09,Search,200,
88,1688,704,1000005656,Dan Barrett and Associates LLC,4015 Yates Ave N,,Minneapolis,MN,55422.0,USA,6122452882.0,,https://opencorporates.com/companies/us_mn/9019f90f-88d4-e011-a886-001ec94ffe7f,60075-000,Attorneys & Lawyers,3/25/04 0:00,,False,NR,0.0,1.0,0.0,False,Micro-small,False,12/26/22 8:45,Search,200,
89,1689,704,1000005039,BR Builders LLC,1004 S Darling Dr NW,,Alexandria,MN,56308.0,USA,3202963750.0,,https://www.houzz.com/professionals/home-builders/br-builders-llc-pfvwus-pf~2083027809,10177-000,Construction & Remodeling Services,6/17/14 0:00,,False,NR,0.0,1.0,0.0,False,Micro-small,False,1/31/23 8:46,Search,200,
90,1690,704,1000005880,Dave Kuik Construction Inc,12305 110th St,,Edgerton,MN,56128.0,USA,5074435681.0,,https://opencorporates.com/companies/us_mn/fd60b03d-93d4-e011-a886-001ec94ffe7f,10177-000,Construction & Remodeling Services,3/31/09 0:00,,False,A+,100.0,1.0,0.0,False,Micro-small,False,4/17/20 4:01,Search,200,
91,1691,704,1000005445,"Inriched Flooring, LLC",709 118th Ave NE,,Blaine,MN,55434.0,USA,7637423093.0,,https://villagefloor.com/,85366-000,Contractors - Flooring,7/21/09 0:00,,False,NR,0.0,1.0,0.0,False,Micro-small,False,12/26/22 8:45,Search,200,
92,1692,704,1000001518,Legal Service-north Dakota,345 Main St,,New Town,ND,58763.0,USA,7016274719.0,,http://www.legalassist.org/,60075-000,Attorneys & Lawyers,1/1/89 0:00,,False,NR,0.0,3.0,0.0,False,Micro-small,False,1/31/23 8:46,Search,200,
93,1693,704,1000003240,Cokato Apartments,440 2nd Str N,,Cokato,MN,55321.0,USA,3202862758.0,,https://www.smrrental.com/property/cokato-apartments-building-3/,60042-000,Apartments,8/8/77 0:00,,False,A+,100.0,1.0,0.0,False,Micro-small,False,2/7/23 14:31,Search,200,
94,1694,704,1000003060,Winona Shores Ofc,1010 Lark St,,Alexandria,MN,56308.0,USA,3207631120.0,,https://www.apartments.com/winona-shores-alexandria-mn/6ykw7bt/,60042-000,Apartments,1/1/08 0:00,,False,NR,0.0,2.0,0.0,False,Micro-small,False,1/29/23 8:37,Search,200,
95,1695,704,1000005054,Brent Hagan Construction Inc,18429 Cty Rd 1,,Spring Valley,MN,55975.0,USA,5076577680.0,,https://www.dandb.com/businessdirectory/brenthaganconstruction-springvalley-mn-5754675.html,10177-000,Construction & Remodeling Services,3/22/93 0:00,,False,NR,0.0,1.0,0.0,False,Micro-small,False,1/24/23 8:58,Search,200,
96,1696,704,1000004973,Oak Terrace Estates,1618 Marion Rd SE Trlr 175,,Rochester,MN,55904.0,USA,5072898206.0,,https://www.facebook.com/oakterraceparksidemhp/,20061-000,Real Estate Developers,1/1/96 0:00,,False,NR,0.0,1.0,0.0,False,Micro-small,False,9/16/22 8:14,Search,200,
97,1697,704,1000006594,Briggs Contracting LLC,8268 Rhode Island Ave S,,Minneapolis,MN,55438.0,USA,9528291860.0,,https://www.houzz.com/professionals/general-contractors/briggs-contracting-llc-pfvwus-pf~916354572,10035-000,Contractors - General,1/1/91 0:00,12/9/19 0:00,False,NR,0.0,2.0,,False,Micro-small,False,12/12/22 9:00,Search,200,
98,1698,704,1000001563,Natural Impressions Photo,33 Main St,,Hazen,ND,58545.0,USA,7017485656.0,,https://www.facebook.com/NaturalImpressionsPhotographybyJustine/,60658-000,Photographers - Portrait,1/1/06 0:00,,False,NR,0.0,2.0,0.0,False,Micro-small,False,2/1/20 4:31,Search,200,
99,1699,704,1000002410,Helping Angels Home Care,2219 Oakland Ave #111,,Minneapolis,MN,55404.0,USA,6122598570.0,,https://helpingangelshomecare.com/,60441-000,Home Health Services,6/28/10 0:00,,False,NR,0.0,1.0,0.0,False,Micro-small,False,12/15/21 4:25,Search,200,
100,1700,704,1000005773,Clayton Scheibel Construction Co.,18951 Riverbluff Dr,,New Ulm,MN,56073.0,USA,5073826456.0,,https://opencorporates.com/companies/us_mn/931b4978-b6d4-e011-a886-001ec94ffe7f,10177-000,Construction & Remodeling Services,8/14/02 0:00,1/7/20 0:00,False,NR,0.0,1.0,0.0,False,Micro-small,False,1/9/23 8:32,Search,200,
101,1701,704,1000003807,Pine Ridge Homes Inc,1509 14th St,,Cloquet,MN,55720.0,USA,2188791257.0,,https://pineridgehomes.org/,10035-000,Contractors - General,1/1/02 0:00,,False,NR,0.0,6.0,0.0,False,Micro-small,False,1/28/23 8:48,Search,200,
102,1702,704,1000003722,Adams Electric,49804 Thorn Apple Rd,,Aldrich,MN,56434.0,USA,2184455368.0,,https://electronic-system.info/company-adams-electric-in-aldrich-mn-104521,70544-000,Electric Companies,1/1/05 0:00,,False,NR,0.0,1.0,0.0,False,Micro-small,False,1/28/23 8:48,Search,200,
103,1703,704,1000005053,"Brennan Properties, LLC",15680 Fish Point Rd SE,,Prior Lake,MN,55372.0,USA,6126164447.0,,https://opencorporates.com/companies/us_mn/9e6da3ce-b4d4-e011-a886-001ec94ffe7f,60732-000,Property Management,3/28/03 0:00,,False,NR,0.0,1.0,0.0,False,Micro-small,False,12/20/22 8:57,Search,200,
104,1704,704,1000003212,Peepers Distinctive Eyewear,12390 Sherburne Ave,,Becker,MN,55308.0,USA,7632615444.0,,https://www.eyeglasses.com/eye-doctors/minnesota/becker/peepers-distinctive-eye-we/,50467-000,Optical Goods - Retail,1/1/97 0:00,,False,A+,100.0,1.0,0.0,False,Micro-small,False,1/31/20 4:26,Search,200,
105,1705,704,1000003015,R H Lodge,48663 Xenon Rd,,Villard,MN,56385.0,USA,3203520223.0,,https://m.facebook.com/profile.php?id=116125851741804,60447-000,Hotels,1/1/07 0:00,,False,NR,0.0,2.0,0.0,False,Micro-small,False,12/16/22 9:11,Search,200,
106,1706,704,1000000140,InterState Delivery,395 John Ireland Blvd,,Saint Paul,MN,55155.0,USA,3344527730.0,,https://www.interstatedriving.com/contact-us,70542-000,Delivery Service,4/12/16 0:00,,False,NR,0.0,1.0,0.0,False,Micro-small,False,2/2/23 8:52,Search,200,
107,1707,704,1000004766,Gypsy K Consignment,2578 Bridge Ave,,Albert Lea,MN,56007.0,USA,5074732117.0,,https://www.facebook.com/GypsyKConsignment/,50159-000,Clothes - Consignment & Resale,1/21/14 0:00,,False,A+,100.0,1.0,0.0,False,Micro-small,False,4/17/20 4:01,Search,200,
108,1708,704,1000005596,Trustworthy Hardware,203 Valley Green Sq,,Le Sueur,MN,56058.0,USA,5076652267.0,,https://locations.ups.com/us/en/mn/lesueur/authorized-shipping-provider-162383.html,50333-000,Hardware - Retail,8/12/16 0:00,,False,A+,100.0,4.0,0.0,False,Micro-small,False,9/20/20 3:56,Search,200,
109,1709,704,1000005517,The Original Grass Kings LLC,6944 Pillsbury Ave,,Edina,MN,55423.0,USA,6125015318.0,,https://opencorporates.com/companies/us_mn/46cf8b91-86d4-e011-a886-001ec94ffe7f,70605-000,Snow Removal Service,7/7/11 0:00,,False,A+,100.0,1.0,0.0,False,Micro-small,False,12/28/19 4:25,Search,200,
110,1710,704,1000005771,Cafe 75,518 Atlantic ave,,Kennedy,MN,56733.0,USA,7017742500.0,,https://restaurantguru.com/Cafe-75-Kennedy-3,50544-000,Restaurants,9/26/16 0:00,,False,NR,0.0,,0.0,False,Micro-small,False,2/28/21 3:59,Search,200,
111,1711,704,1000005026,Biersch Brothers Construction,1911 245th St,,Saint Augusta,MN,56301.0,USA,3209800553.0,,https://bierschbros.com/,10035-000,Contractors - General,11/8/05 0:00,,False,NR,0.0,3.0,0.0,False,Micro-small,False,12/20/22 8:57,Search,200,
112,1712,704,1000001693,Hegstad Furniture Appl & Floor,24 N Main St,,Tioga,ND,58852.0,USA,7016642845.0,,http://retailflooringstores.com/shop/store.asp?CompanyID=113480,50291-000,Furniture - Retail,1/1/05 0:00,10/22/19 0:00,False,NR,0.0,3.0,,False,Micro-small,False,10/23/19 8:25,Search,200,
113,1713,704,1000003720,Legends ,11 4th Street SE,,Rochester ,MN,55904.0,USA,5074241896.0,,https://www.medcitybeat.com/news-blog/2021/legends-bar-is-closing-its-doors-for-good,50544-000,Restaurants,6/14/13 0:00,,False,NR,0.0,1.0,0.0,False,Micro-small,False,11/22/22 8:45,Search,200,
114,1714,704,1000001615,Aalfs Construction LLC,4030 30th Ave SW,,Montevideo,MN,56265.0,USA,3202265238.0,,https://opencorporates.com/companies/us_mn/577a6e51-67ac-e211-82ac-001ec94ffe7f,10035-000,Contractors - General,4/23/13 0:00,,False,A+,100.0,1.0,0.0,False,Micro-small,False,10/13/20 4:00,Search,200,
115,1715,704,1000002914,First Avenue Salon,528 1st Ave,,Westbrook,MN,56183.0,USA,5072746313.0,,https://cityofwestbrookmn.com/directory-business_lis/listing/first-avenue-salon/,60134-000,Beauty Salons,1/1/93 0:00,,False,A+,100.0,1.0,0.0,False,Micro-small,False,1/31/20 4:26,Search,200,
116,1716,704,1000005012,Diversified Property Services LLC,530 3rd St NE Apt 202,,Saint Cloud,MN,56304.0,USA,,,https://diversifiedpropertysvcs.com/,61100-000,Real Estate Services,5/12/11 0:00,5/14/18 0:00,False,NR,0.0,1.0,0.0,False,Micro-small,False,5/18/21 4:06,Search,200,
117,1717,704,1000002985,Kneading Hands Massage,801 Lowery Ave,,Belgrade,MN,56312.0,USA,3202543349.0,,https://www.dandb.com/businessdirectory/kneadinghandsmassage-belgrade-mn-807158.html,60543-000,Massage Therapists,9/24/09 0:00,10/24/19 0:00,False,NR,0.0,1.0,0.0,False,Micro-small,False,10/25/19 4:28,Search,200,
118,1718,704,1000002287,"Wireless Ronin Technologies, Inc.",5929 Baker Rd Ste 475,,Minnetonka,MN,55345.0,USA,9525643500.0,,https://www.prnewswire.com/news-releases/creative-realities-and-wireless-ronin-technologies-announce-closing-of-merger-272150451.html,60538-000,Marketing Consultants,6/27/16 0:00,1/1/19 0:00,False,NR,0.0,1.0,0.0,False,Micro-small,False,1/7/22 14:14,Search,200,
119,1719,704,1000002114,Kevin's Body Shop,620 Eastvold Ave,,Ortonville,MN,56278.0,USA,3208393066.0,,https://vymaps.com/US/Kevin-S-Body-Shop-T840271000325874/,60094-000,Auto Body Repair & Painting,1/1/84 0:00,6/20/16 0:00,False,NR,0.0,1.0,,False,Micro-small,False,6/24/19 4:06,Search,200,
120,1720,704,1000006495," Schmitty's Plumbing, Heating & Sheetmetal, Inc.",942 11th Ave S,,Wahpeton,ND,58075.0,USA,7016426574.0,,https://business.wahpetonbreckenridgechamber.com/list/member/schmitty-s-plumbing-heating-sheetmetal-inc-1386,10113-300,Plumbing - Renovation & Repair ,3/5/98 0:00,,False,A+,100.0,1.0,0.0,False,Micro-small,False,7/9/21 4:06,Search,200,
121,1721,704,1000006724,Blue Note of Winsted,PO Box 847,310 3rd St. S.,Winsted,MN,55395.0,USA,3204852303.0,,http://www.bluenoteballroom.com/,50138-000,Caterers,10/24/95 0:00,,False,A+,100.0,1.0,0.0,False,Micro-small,False,3/20/20 3:52,Search,200,
122,1722,704,1000003938,Namar Publishing LLC,1865 Buerkle Rd,,Dellwood,MN,55110.0,USA,6513519143.0,,https://opencorporates.com/companies/us_mn/41e49994-f69d-e111-afc0-001ec94ffe7f,30544-000,Publishers - Directory & Guide,5/14/12 0:00,3/15/16 0:00,False,NR,0.0,1.0,0.0,False,Micro-small,False,3/18/19 3:58,Search,200,
123,1723,704,1000004537,Perfect Cleaners & Launderers,14605 County Road 11,,Burnsville,MN,55337.0,USA,9524323552.0,,https://www.showmelocal.com/profile.aspx?bid=1104939,60214-000,Dry Cleaners,1/1/00 0:00,,False,NR,0.0,1.0,0.0,False,Micro-small,False,11/17/21 4:33,Search,200,
124,1724,704,1000001710,Harding's Towing,7438 State Highway 55 NW,,Maple Lake,MN,55358.0,USA,3209635865.0,,https://m.facebook.com/pages/category/Towing-Service/Hardings-Towing-Inc-1581607835475016/,60103-000,Auto Repair & Service,3/21/02 0:00,11/1/19 0:00,False,NR,0.0,1.0,0.0,False,Micro-small,False,11/25/20 4:57,Search,200,
125,1725,704,1000005834,Creative Home Enhancements LLC,8701 3rd Ave S,,Minneapolis,MN,55420.0,USA,6125083839.0,,https://opencorporates.com/companies/us_mn/8a033158-8fd4-e011-a886-001ec94ffe7f,10177-000,Construction & Remodeling Services,3/19/07 0:00,,False,A+,100.0,1.0,0.0,False,Micro-small,False,2/23/21 4:07,Search,200,
126,1726,704,1000005263,Affiliated Home Services Inc. ,12806 Ranch Rd NW,,Elk River,MN,55330.0,USA,7634418490.0,,http://www.affiliatedhomehealth.com/,10078-000,Home Builders,4/12/95 0:00,,False,A+,100.0,1.0,0.0,False,Micro-small,False,4/20/22 8:36,Search,200,
127,1727,704,1000006236,"Al Larson & Sons Plumbing & Heating, Inc.",308 Saint Anthony St S,,Preston,MN,55965.0,USA,5077652405.0,,https://www.prestonmnchamber.com/directory/al-larson-sons-ph/,10113-000,Plumbers,4/6/94 0:00,,False,NR,0.0,1.0,0.0,False,Micro-small,False,1/3/23 8:39,Search,200,
128,1728,704,1000001840,Tasto Lawn and Dock Service,207 Holmes Ave,,Brandon,MN,56315.0,USA,3208081111.0,,https://www.echopress.com/news/1028477-assumed-name-tasto-lawn-and-dock-service,00155-000,Landscape Contractors,1/1/07 0:00,6/3/16 0:00,False,NR,0.0,1.0,,False,Micro-small,False,11/24/20 4:02,Search,200,
129,1729,704,1000000022,Klein Lawn Care,14268 Underclift St NW,,Andover,MN,55304.0,USA,7635670493.0,,https://business.google.com/website/klein-lawn-care-snow-plowing/posts/5202964928957393543,00157-000,Lawn Maintenance,8/12/09 0:00,10/14/19 0:00,False,NR,0.0,1.0,0.0,False,Micro-small,False,12/11/20 4:12,Search,200,
130,1730,704,1000004866,Frank Madden & Assoc,505 US-169 Frontage Rd # 295,,Minneapolis,MN,55441.0,USA,7635452525.0,,https://www.lawyers.com/minneapolis/minnesota/frank-madden-and-associates-757899-f/,60075-000,Attorneys & Lawyers,1/1/87 0:00,,False,A+,100.0,3.0,0.0,False,Micro-small,False,11/23/22 9:43,Search,200,
131,1731,704,1000005236,Glass Plus Inc,3424 Gowan Ave SW,,Howard Lake,MN,55349.0,USA,7636587171.0,,https://www.showmelocal.com/profile.aspx?bid=1174728,60990-000,"Auto Repair - Windshield, Glass Shops",4/7/94 0:00,,False,NR,0.0,1.0,0.0,False,Micro-small,False,12/26/22 8:45,Search,200,
132,1732,704,1000005107,Green Stripe Lawncare & Irrigation Inc,5326 16th St N,,Saint Cloud,MN,56303.0,USA,3202526992.0,,https://www.dandb.com/businessdirectory/greenstripelawncareirrigationinc-saintcloud-mn-36620565.html,00155-000,Landscape Contractors,8/16/07 0:00,10/14/16 0:00,False,NR,0.0,1.0,0.0,False,Micro-small,False,10/21/19 4:07,Search,200,
133,1733,704,1000004961,Aspen Property Maintenance,918 Minneapolis Ave,,Duluth,MN,55803.0,USA,2183432897.0,,https://landscape-services.cmac.ws/aspen-property-maintenance/75440/,00155-000,Landscape Contractors,1/1/08 0:00,,False,NR,0.0,1.0,0.0,False,Micro-small,False,2/7/23 9:00,Search,200,
134,1734,704,1000001783,Le Beau Monde,31344 County Road 11,,Freeport,MN,56331.0,USA,3203567519.0,,https://www.instagram.com/shoplebeaumonde/?hl=en,60134-000,Beauty Salons,1/1/84 0:00,,False,NR,0.0,1.0,0.0,False,Micro-small,False,1/30/23 8:33,Search,200,
135,1735,704,1000004726,Meadow Green Hydroseed LLC,23253 Taylor St NE,,East Bethel,MN,55005.0,USA,7634131483.0,,https://www.superpages.com/bethel-mn/hydroseeding,00155-101,Hydroseeding,5/20/99 0:00,,False,NR,0.0,1.0,0.0,False,Micro-small,False,12/6/22 9:12,Search,200,
136,1736,704,1000005776,Marriott Residence Inn Minneapolis Edina,3400 Edinborough Way,,Edina,MN,55435.0,USA,9528939300.0,,https://www.marriott.com/en-us/hotels/mspda-residence-inn-minneapolis-edina/overview/,60447-000,Hotels,9/26/16 0:00,,False,A+,98.16,1.0,0.0,False,Micro-small,False,1/1/20 7:41,Search,200,
137,1737,704,1000001455,Bueno Construction,515 78th Ave #4,,Minneapolis,MN,55432.0,USA,6122326871.0,,https://www.facebook.com/Buenoconstructionllc/,10177-000,Construction & Remodeling Services,,,False,NR,0.0,1.0,0.0,False,Micro-small,False,1/31/23 8:46,Search,200,
138,1738,704,1000001509,"Bee Line Towing, LLC",11724 Bittersweet St NW,,Coon Rapids,MN,55433.0,USA,5153317643.0,,https://cheshiresmeow.wixsite.com/beelinetowing,60891-000,Towing - Automotive,11/5/12 0:00,,False,B-,80.0,1.0,0.0,False,Micro-small,False,10/24/22 7:58,Search,200,
139,1739,704,1000003724,Renovation Training,4445 Nathan Ln N,,Plymouth,MN,55447.0,USA,6122197469.0,,https://renovationtrainingllc.com/about/,60429-100,Personal Trainers,6/29/16 0:00,,False,NR,0.0,1.0,0.0,False,Micro-small,False,1/28/23 8:48,Search,200,
140,1740,704,1000002520,A Auto Mall,3000 E Lake St,,Minneapolis,MN,55406.0,USA,6127243813.0,,https://www.automall.com/used-cars/minnesota/city/minneapolis/,50040-000,Auto Dealers - Used Cars,10/12/95 0:00,,False,NR,0.0,1.0,0.0,False,Micro-small,False,8/9/22 8:29,Search,200,
141,1741,704,1000000057,American Orthodontists,9800 Shelard Parkway #113,,Minneapolis,MN,55441.0,USA,6125983330.0,,https://www.discoverbraces.com/,60291-000,Dentist - Orthodontist,4/4/16 0:00,,False,NR,0.0,1.0,0.0,False,Micro-small,False,4/10/22 8:12,Search,200,
142,1742,704,1000004688,Topside Roofing & Siding Construction,4204 83rd Ave N,,Brooklyn Park,MN,55443.0,USA,7635611951.0,,https://topsideroofing.com/,10126-000,Roofing Contractors,,10/14/16 0:00,False,NR,0.0,1.0,,False,Micro-small,False,2/4/20 4:35,Search,200,
143,1743,704,1000000166,New Creations Construction,PO Box 10592,,Fargo,ND,58106.0,USA,7012812531.0,,http://memberzone.hbafm.com/list/member/new-creations-construction-inc-fargo-3863,10126-000,Roofing Contractors,11/29/95 0:00,,False,NR,0.0,1.0,0.0,False,Micro-small,False,4/16/22 8:14,Search,200,
144,1744,704,1000004950,Ankrum Cabinets & Construction,1920 220th Ave,,Tracy,MN,56175.0,USA,5076298292.0,,https://murraycountymn.com/business_detail_T40_R239.php,50121-000,Cabinets,5/23/07 0:00,,False,NR,0.0,1.0,0.0,False,Micro-small,False,12/20/22 8:57,Search,200,
145,1745,704,1000000179,Liston General Contracting,38002 State Highway 6,,Deer River,MN,56636.0,USA,2182468648.0,,https://www.houzz.com/professionals/general-contractors/liston-general-contracting-inc-pfvwus-pf~153722543,10035-000,Contractors - General,2/20/98 0:00,,False,NR,0.0,3.0,0.0,False,Micro-small,False,4/16/22 8:14,Search,200,
146,1746,704,1000000249,C P & The Farm Boys Truck-auto,3198 Highway 16,,Beach,ND,58621.0,USA,7018723632.0,,https://safer.fmcsa.dot.gov/query.asp?searchtype=ANY&query_type=queryCarrierSnapshot&query_param=USDOT&query_string=313105,50039-000,Auto Dealers - New Cars,4/21/16 0:00,,False,NR,0.0,1.0,0.0,False,Micro-small,False,4/24/22 8:09,Search,200,
147,1747,704,1000005320,Carlson Custom Builders Inc,32896 Carlson Drive,,Rochert,MN,56578.0,USA,2188414663.0,,https://opencorporates.com/companies/us_mn/1af084b8-acd4-e011-a886-001ec94ffe7f,10126-100,Contractors - Framing,4/11/01 0:00,,False,NR,0.0,1.0,0.0,False,Micro-small,False,12/26/22 8:45,Search,200,
148,1748,704,1000005594,Headlines Plus,228 N Main St,,Le Sueur,MN,56058.0,USA,5076652248.0,,https://m.facebook.com/profile.php?id=140807729291194,60420-000,Hair Styling and Services,10/25/91 0:00,,False,NR,0.0,1.0,0.0,False,Micro-small,False,12/26/22 8:45,Search,200,
149,1749,704,1000006410,Cardholder Services,PO Box 55078,,Fort Lauderdale,FL,33355.0,USA,8662445360.0,,https://www.trustlink.org/Search?Key=Credit%20Card%20Companies&location_zip=33308,75100-000,Prepaid Debit/Credit Cards,10/19/16 0:00,,False,NR,0.0,1.0,0.0,False,Micro-small,False,2/28/21 4:00,Search,200,
150,1750,704,1000003956,Super Pumper,1023 College Dr N,,Devils Lake,ND,58301.0,USA,7016624658.0,,https://m.facebook.com/people/Superpumper-Inc-17/100067689334354/,50206-100,Fuel - Gasoline,12/15/83 0:00,,False,NR,0.0,1.0,0.0,False,Micro-small,False,1/28/23 8:47,Search,200,
151,1751,704,1000003831,Victory Promotions,460 Westdale Avenue,,Winona,MN,55987.0,USA,5073132705.0,,https://m.facebook.com/Victory-Promotions-LLC-900779956649055/,60417-000,Gun Safety & Marksmanship Instruction,1/30/15 0:00,,False,A+,100.0,1.0,0.0,False,Micro-small,False,8/29/21 4:06,Search,200,
152,1752,704,1000001673,Class A Leasing Inc,8899 Hastings St Ne,,Minneapolis,MN,55449.0,USA,6127234398.0,,https://www.classaleasing.net/,60909-000,Truck Rent & Lease,1/1/97 0:00,,False,NR,0.0,1.0,0.0,False,Micro-small,False,1/30/23 8:34,Search,200,
153,1753,704,1000001507,701 Customs Inc,1518 S Broadway,,Minot,ND,58701.0,USA,7018378934.0,,https://www.facebook.com/people/701-Customs/100068468925910/,50045-000,Auto Radios & Stereos - Sales & Repair,9/1/08 0:00,,False,NR,0.0,3.0,0.0,False,Micro-small,False,1/28/23 8:48,Search,200,
154,1754,704,1000002381,"Integrity Fiduciary Services, Inc.",3500 Vicksburg Ln N Ste 356,,Minneapolis,MN,55447.0,USA,6122444818.0,,https://opencorporates.com/companies/us_mn/9c7ec1a3-61de-e211-be65-001ec94ffe7f,65283-000,Guardian Services - Adult & Child,6/25/13 0:00,,False,NR,0.0,2.0,0.0,False,Micro-small,False,10/11/22 8:02,Search,200,
155,1755,704,1000004812,Tiger City Sports,920 S Broadway Ave,,Albert Lea,MN,56007.0,USA,5073734366.0,,https://www.facebook.com/profile.php?id=100057653079676,50609-000,Sportswear - Retail,3/1/13 0:00,,False,A+,100.0,1.0,0.0,False,Micro-small,False,2/25/22 9:44,Search,200,
156,1756,704,1000005331,Village Coin Laundry,"16731 E Hwy 13,",,Prior Lake,MN,55372.0,USA,9524477864.0,,https://foursquare.com/v/village-coin-laundry/4ce468c6ae20224b5c6fd2ec,60497-000,Laundries - Self Service,3/23/06 0:00,,False,NR,0.0,1.0,0.0,False,Micro-small,False,1/31/23 8:46,Search,200,
157,1757,704,1000000234,The Louver Shop of Minneapolis L. L. C.,7006 S Park Dr,,Savage,MN,55378.0,USA,6122780400.0,,https://www.bizapedia.com/mn/the-louver-shop-of-minneapolis-l-l-c.html,72000-000,Window Coverings,2/25/14 0:00,,False,NR,0.0,1.0,0.0,False,Micro-small,False,4/24/22 8:09,Search,200,
158,1758,704,1000006097,"James and the Giant Floor Sander, LLC",992 Trovita Dr,,Corona,CA,92881.0,USA,9529135696.0,,https://www.facebook.com/jamesandthegiantfloorsander/,10058-600,Floor Refinishing,1/1/04 0:00,,False,A+,100.0,1.0,0.0,False,Micro-small,False,8/3/22 8:42,Search,200,
159,1759,704,1000006568,Heart of the Valley Tours,3321 32nd St S Apt 102 # 5,,Fargo,ND,58104.0,USA,2184741245.0,,https://www.heartofthevalleytravel.com/,70626-000,Tours - Operators & Promoters,,,False,A+,100.0,1.0,0.0,False,Micro-small,False,10/19/21 4:00,Search,200,
160,1760,704,1000002970,INX International Ink Co,7000 Saukview Dr,,Saint Cloud,MN,56303.0,USA,3202030890.0,,https://www.inxinternational.com/,30303-000,Inks - Print & Lithograph,1/1/01 0:00,,False,NR,0.0,7.0,0.0,False,Micro-small,False,1/29/23 8:36,Search,200,
161,1761,704,1000005019,Unlimited Lawn Design,11868 Stevens Ave ,,Becker,MN,55308.0,USA,7636072349.0,,https://www.facebook.com/people/Unlimited-lawn-design/100083492920930/,00155-000,Landscape Contractors,2/28/01 0:00,,False,NR,0.0,2.0,0.0,False,Micro-small,False,12/20/22 8:57,Search,200,
162,1762,704,1000003482,The Bar,4054 West 6th Street ,,Winona,MN,55987.0,USA,5074540128.0,,https://www.facebook.com/events/d41d8cd9/the-bar-goodview-winona-mn/1197939150303190/,50643-000,Bars & Taverns,11/11/12 0:00,,False,A+,100.0,8.0,,False,Micro-small,False,4/1/21 4:02,Search,200,
163,1763,704,1000002157,Star Husky Homes,2115 44th Ave N,,Minneapolis,MN,55412.0,USA,2182102997.0,,https://www.huskyhomeswi.com/,05195-000,Dog Breeders,6/27/16 0:00,11/19/19 0:00,False,NR,0.0,1.0,0.0,False,Micro-small,False,11/21/22 8:38,Search,200,
164,1764,704,1000005081,Bruntlett Construction,55093 399th St,,Paynesville,MN,56362.0,USA,3204933098.0,,https://www.superpages.com/paynesville-mn/bpp/bruntlett-construction-25665485,10177-000,Construction & Remodeling Services,7/15/05 0:00,,False,NR,0.0,1.0,0.0,False,Micro-small,False,12/20/22 8:57,Search,200,
165,1765,704,1000001475,Royal Care Car Wash,408 N Highway 10,,Royalton,MN,56373.0,USA,3205840191.0,,https://www.yellowpages.com/royalton-mn/mip/royal-care-car-wash-14802489,60180-000,Car Wash & Polish,7/2/09 0:00,,False,NR,0.0,1.0,0.0,False,Micro-small,False,10/26/22 8:41,Search,200,
166,1766,704,1000004760,Minnesota Gold Meats Inc,2845 4th St S,,Waite Park,MN,56387.0,USA,3202555530.0,,https://www.facebook.com/MinnesotaGoldMeats/,30790-100,Food Wholesalers,4/1/95 0:00,,False,A+,100.0,5.0,0.0,False,Micro-small,False,2/7/23 22:10,Search,200,
167,1767,704,1000004299,The Hartley Trusts,740 E Superior St,,Duluth,MN,55802.0,USA,2187238060.0,,https://sah-archipedia.org/buildings/MN-01-137-0026,20074-000,Trust Companies,7/22/08 0:00,10/15/21 0:00,False,NR,0.0,1.0,0.0,False,Micro-small,False,10/18/21 3:53,Search,200,
168,1768,704,1000003718,Lablanche  Apartments,390 West Cottage  Ave Suite 2 ,,St Paul,MN,55117.0,USA,6514891381.0,,https://www.apartments.com/lablanche-apartments-saint-paul-mn/k9xl3nc/,60040-000,Apartment Finding & Rental Service,12/4/86 0:00,,False,NR,0.0,1.0,0.0,False,Micro-small,False,11/8/22 9:18,Search,200,
169,1769,704,1000005244,"Northern Plains Laboratory, LLC",401 N 9th St,,Bismarck,ND,58501.0,USA,7015305700.0,,https://northernplainslab.com/,60488-000,Laboratories - Testing,3/18/04 0:00,,False,NR,0.0,1.0,0.0,False,Micro-small,False,12/26/22 8:45,Search,200,
170,1770,704,1000006023,La Fiesta,307 SW 3rd St.,,Willmar,MN,56201.0,USA,3202319713.0,,https://m.facebook.com/profile.php?id=136457643063553&__tn__=%2As-R,50199-000,Convenience Stores,9/1/09 0:00,,False,A+,100.0,,0.0,False,Micro-small,False,1/4/20 4:16,Search,200,
171,1771,704,1000003867,Ries Auto Stores,441 Main St N,,Chatfield,MN,55923.0,USA,5078678107.0,,https://zaubee.com/biz/ries-auto-stores-4qvl8as3,50040-000,Auto Dealers - Used Cars,9/16/15 0:00,,False,NR,0.0,1.0,0.0,False,Micro-small,False,11/23/22 9:43,Search,200,
172,1772,704,1000001676,Tobias Construction,7980 182nd Ave Se,,Wahpeton,ND,58075.0,USA,7016423058.0,,https://opencorporates.com/companies/us_nd/0000125425,10035-000,Contractors - General,1/1/07 0:00,,False,NR,0.0,3.0,0.0,False,Micro-small,False,1/30/23 8:33,Search,200,
173,1773,704,1000006332,Jeff Vilen Construction LLC,39270 590th St,,Zumbro Falls,MN,55991.0,USA,5079518889.0,,https://www.houzz.com/professionals/kitchen-and-bath-remodelers/jeff-vilen-construction-llc-pfvwus-pf~1889130851,10177-000,Construction & Remodeling Services,7/21/09 0:00,,False,A+,100.0,1.0,0.0,False,Micro-small,False,11/9/21 3:56,Search,200,
174,1774,704,1000005998,Rock Bottom Bus,1215 33rd Ave N,,Saint Cloud,MN,56303.0,USA,3208362109.0,,https://ridemetrobus.com/,70531-000,Buses - Charter & Rental,1/1/99 0:00,,False,A+,100.0,,0.0,False,Micro-small,False,1/25/20 4:32,Search,200,
175,1775,704,1000005059,Brewers Carpentry Services,1173 Farmers Ln,,Belle Plaine,MN,56011.0,USA,6512835855.0,,https://www.facebook.com/BrewersCarpentryServices/,10019-000,Carpenters,3/14/96 0:00,,False,NR,0.0,1.0,0.0,False,Micro-small,False,2/7/23 9:00,Search,200,
176,1776,704,1000000090,Joshua Ahlquist Construction,740 Madisoan St,,Anoka,MN,55303.0,USA,6122019637.0,,https://www.facebook.com/josh.ahlquist.3/,10177-000,Construction & Remodeling Services,1/13/05 0:00,,False,NR,0.0,1.0,0.0,False,Micro-small,False,4/16/22 8:14,Search,200,
177,1777,704,1000005662,Complete Construction LLC,1052 S Victory Dr,,Mankato,MN,56001.0,USA,5073308355.0,,https://safer.fmcsa.dot.gov/query.asp?searchtype=ANY&query_type=queryCarrierSnapshot&query_param=USDOT&query_string=2392848,10177-000,Construction & Remodeling Services,9/29/11 0:00,,False,A+,100.0,1.0,0.0,False,Micro-small,False,10/15/22 8:19,Search,200,
178,1778,704,1000005142,Domino's Pizza,103 23rd St W,,Hastings,MN,55033.0,USA,6514373930.0,,https://pizza.dominos.com/minnesota/hastings/,50544-000,Restaurants,8/28/03 0:00,,False,NR,0.0,,0.0,False,Micro-small,False,3/7/21 3:53,Search,200,
179,1779,704,1000005495,Dallco Construction LLC,6396 15th St N,,Oakdale,MN,55128.0,USA,6513039381.0,,https://app.mykukun.com/contractor/profile/Dallco-Construction-Llc-362416,10035-000,Contractors - General,7/6/09 0:00,,False,A+,100.0,1.0,0.0,False,Micro-small,False,10/11/22 8:02,Search,200,
180,1780,704,1000005484,Edina Living,5229 Duncraig Rd,,Minneapolis,MN,55436.0,USA,6126366350.0,,https://www.niche.com/places-to-live/edina-hennepin-mn/,30418-000,Newspapers,6/1/15 0:00,,False,NR,0.0,1.0,0.0,False,Micro-small,False,12/14/21 4:08,Search,200,
181,1781,704,1000001568,A Too Z Process Service,1125 Sibley Memorial Hwy,,Mendota Hts,MN,55118.0,USA,6514524001.0,,https://www.yellowpages.com/mendota-hts-mn/mip/a-too-z-process-service-496966885,60704-000,Process Servers,7/19/07 0:00,,False,NR,0.0,1.0,0.0,False,Micro-small,False,10/7/22 8:31,Search,200,
182,1782,704,1000006225,Tim Bauer Construction,110 Birch Dr,,Grand Marais,MN,55604.0,USA,2183700964.0,,https://opencorporates.com/companies/us_mn/06536371-2a46-e711-817c-00155d01c4c9,10035-000,Contractors - General,3/11/09 0:00,,False,A+,100.0,1.0,0.0,False,Micro-small,False,3/10/21 4:42,Search,200,
183,1783,704,1000006335,All American Home Pro's LLC,7220 York Ave S Apt 413,,Bloomington,MN,55435.0,USA,9523814288.0,,https://opencorporates.com/companies/us_mn/e949cb68-9c0c-e211-bc43-001ec94ffe7f,10177-000,Construction & Remodeling Services,10/1/12 0:00,2/13/20 0:00,False,NR,0.0,1.0,0.0,False,Micro-small,False,2/14/20 3:56,Search,200,
184,1784,704,1000001623,Marcus Mini Storage,7360 195th Ave SW,,Prinsburg,MN,56281.0,USA,3209786616.0,,https://www.b2byellowpages.com/company-information/22868573-marcus-mini-storage.html,70644-000,Warehouses - Merchandise,1/1/95 0:00,5/18/16 0:00,False,NR,0.0,45.0,,False,Small,False,5/20/19 4:18,Search,200,
185,1785,704,1000001699,Heaven On Earth Therapeutic Massage,5009 Excelsior Blvd Ste 144,,Minneapolis,MN,55416.0,USA,6123828600.0,,https://square.site/book/9HFF70GSNXVE7/heaven-on-earth-therapeutic-massage-st-louis-park-mn,60542-000,Massage Therapeutic,11/5/99 0:00,10/30/19 0:00,False,NR,0.0,1.0,0.0,False,Micro-small,False,10/31/19 4:29,Search,200,
186,1786,704,1000001471,Evolution Appraisals L. L. C.,405 N 80th Avenue W,,Duluth,MN,55807.0,USA,2187212522.0,,https://www.bizapedia.com/mn/evolution-appraisals-l-l-c.html,61100-000,Real Estate Services,1/11/16 0:00,,False,NR,0.0,1.0,0.0,False,Micro-small,False,11/23/22 9:43,Search,200,
187,1787,704,1000004623,Val&#39;s Rapid Service,628 E Saint Germain St,,Saint Cloud,MN,56304.0,USA,3202515775.0,,https://valshamburgers.com/,50544-000,Restaurants,1/1/84 0:00,,False,NR,0.0,5.0,0.0,False,Micro-small,False,1/27/23 9:08,Search,200,
188,1788,704,1000002956,"High Hopes, Inc.",12905 Viking Dr,,Burnsville,MN,55337.0,USA,9527360886.0,,https://www.showmelocal.com/profile.aspx?bid=1089951,80362-000,Grocers - Wholesale,1/13/84 0:00,,False,NR,0.0,1.0,0.0,False,Micro-small,False,10/25/22 8:10,Search,200,
189,1789,704,1000006758,"Cook Chiropractic Clinic, P.C.",103 9th st n,,Wahpeton,ND,58075.0,USA,7016421913.0,,https://www.cookchiroclinic.com/,60205-000,Chiropractors D.C.,3/31/92 0:00,,False,NR,0.0,1.0,0.0,False,Micro-small,False,11/4/19 4:10,Search,200,
190,1790,704,1000005990,"Don Bontjes Construction, Inc.",12839 133rd Ave NE,,Spicer,MN,56288.0,USA,3207966346.0,,https://www.homeyou.com/don-bontjes-construction-inc-spicer-mn,30760-000,Woodworking,1/29/09 0:00,,False,NR,0.0,3.0,0.0,False,Micro-small,False,1/2/23 8:49,Search,200,
191,1791,704,1000005486,Two Old Goats,525 15th St E,,Glencoe,MN,55336.0,USA,3205100408.0,,https://twooldgoats.com/,50310-000,Gift Shops,2/9/11 0:00,,False,NR,0.0,1.0,0.0,False,Micro-small,False,9/22/19 4:17,Search,200,
192,1792,704,1000004252,Alotti Biscotti,305 W 1st St,,Duluth,MN,55802.0,USA,2187261050.0,,https://www.menupix.com/duluth-mn/restaurants/250662382/Alotti-Biscotti-Duluth-MN,50052-000,Bakers - Retail,2/21/95 0:00,,False,NR,0.0,1.0,0.0,False,Micro-small,False,1/17/23 8:46,Search,200,
193,1793,704,1000003744,As Good As Gold Day Spa,2730 1/2 County Road E E,,Saint Paul,MN,55110.0,USA,9522356271.0,,https://www.dermascope.com/index.php?option=com_mtree&cat_id=629&lang=en&limit=20&limitstart=6180&sort=-link_modified&task=listall&view=listall,65134-000,Day Spas,1/1/99 0:00,8/1/16 0:00,False,NR,0.0,4.0,,False,Micro-small,False,3/3/21 4:45,Search,200,
194,1794,704,1000006782,Snowmen Snow Removal,5333 Heatherwood Ln,,Bismarck,ND,58501.0,USA,7012219171.0,,https://www.sportunion.us/company-snowmen-snow-removal-in-bismarck-nd-92113,60478-000,Janitor Service,,,False,NR,0.0,1.0,0.0,False,Micro-small,False,1/24/23 8:58,Search,200,
195,1795,704,1000005959,Jandt Plumbing and Heating,PO Box 621,,Beach,ND,58621.0,USA,7018724856.0,,https://www.beachnd.com/2171/Construction-HVAC-Plumbing,10113-300,Plumbing - Renovation & Repair ,2/5/96 0:00,,False,NR,0.0,1.0,0.0,False,Micro-small,False,11/29/22 9:07,Search,200,
196,1796,704,1000004476,Pioneer Development LLC,7533 Sunwood Dr Ste 315,,Ramsey,MN,55303.0,USA,7634275955.0,,http://www.pioneerdevelopmentllc.com/about.html,60845-000,Surveyors - Land,4/5/00 0:00,,False,A+,100.0,1.0,0.0,False,Micro-small,False,2/7/23 22:13,Search,200,
197,1797,704,1000006331,"Alex Remodeling & Handyman Services, LLC",823 40th Lane,,Anoka,MN,55303.0,USA,6127355434.0,,https://nextdoor.com/pages/alex-handyman-remodeling-minneapolis-mn/,10013-000,Building Contractors,10/9/09 0:00,10/19/16 0:00,False,NR,0.0,1.0,0.0,False,Micro-small,False,10/8/20 4:04,Search,200,
198,1798,704,1000005720,Aune and Keister Construction Inc,PO Box 1092,,Cook,MN,55723.0,USA,,,https://opencorporates.com/companies/us_mn/08c6c67f-adb1-e211-82ac-001ec94ffe7f,10177-000,Construction & Remodeling Services,4/30/13 0:00,1/1/01 0:00,False,NR,0.0,1.0,0.0,False,Micro-small,False,1/20/20 4:11,Search,200,
199,1799,704,1000002069,Mc Kenzie Bay Marina,8 Marina Rd,,Mandaree,ND,58757.0,USA,7017593366.0,,https://www.ndtourism.com/mandaree/nature-outdoor-activities/boating/mckenzie-bay-marina,50608-000,Sporting Goods - Retail,1/1/10 0:00,,False,NR,0.0,3.0,0.0,False,Micro-small,False,1/30/23 8:33,Search,200,
200,1800,704,1000004561,Northern Star Therapy,1301 33rd St S ste 210,,Saint Cloud,MN,56301.0,USA,3202474916.0,,https://chambermaster.stcloudareachamber.com/list/member/northern-star-therapy-615,60971-000,Health & Medical - General,12/20/93 0:00,,False,NR,0.0,23.0,0.0,False,Micro-small,False,1/17/23 8:46,Search,200,
201,1801,704,1000001997,Alternative Mechanical Solutions,3810 24th Str W,,Farmington,MN,55024.0,USA,6514474041.0,,https://www.thebluebook.com/iProView/1466394/alternative-mechanical-solutions-inc/subcontractors/,10090-000,Mechanical Contractors,2/16/16 0:00,,False,A+,100.0,1.0,0.0,False,Micro-small,False,1/30/23 21:09,Search,200,
202,1802,704,1000002716,"O&#39;Brien, Ehrick, Wolf, Deaner & Maus",206 S Broadway Ste 611,,Rochester,MN,55904.0,USA,5072894041.0,,https://www.edockets.state.mn.us/EFiling/edockets/searchDocuments.do?method=viewDocument&documentId=%7B8B490024-A0EA-41C6-84EA-26B117023136%7D&documentTitle=351204&userType=public,60075-000,Attorneys & Lawyers,7/12/16 0:00,,False,NR,0.0,1.0,0.0,False,Micro-small,False,2/3/23 9:12,Search,200,
203,1803,704,1000002793,Buffalo Ridge Trading & Coffee,107 W Benton St,,Lake Benton,MN,56149.0,USA,5073685282.0,,https://www.menupix.com/minnesota/restaurants/2300377/Buffalo-Ridge-Trading-and-Coffee-Lake-Benton-MN,50544-000,Restaurants,,,False,NR,0.0,1.0,0.0,False,Micro-small,False,1/29/23 8:36,Search,200,
204,1804,704,1000003055,Weiser Mueller Assoc Inc,11360 Business 371,,Brainerd,MN,56401.0,USA,2188223152.0,,https://www.b2byellowpages.com/company-information/111682080-weiser-mueller-associates-inc.html,10035-000,Contractors - General,,,False,A+,100.0,1.0,0.0,False,Micro-small,False,2/10/21 4:56,Search,200,
205,1805,704,1000003955,Super 8 Valley City,822 11th St SW,,Valley City,ND,58072.0,USA,7018451140.0,,https://www.kayak.com/Valley-City-Hotels-Super-8-by-Wyndham-Valley-City.24769.ksp,60573-000,Motels,6/28/10 0:00,,False,NR,0.0,1.0,0.0,False,Micro-small,False,1/28/23 8:48,Search,200,
206,1806,704,1000005194,Lonnie&#39;s Heating & AC ,PO Box 25737,,Woodbury,MN,55125.0,,6127561756.0,,https://m.facebook.com/people/Lonnies-Heating-and-Air-Conditioning/100063790980005/,10182-000,Heating & Air Conditioning,1/1/92 0:00,,False,A+,100.0,1.0,0.0,False,Micro-small,False,2/9/23 19:43,Search,200,
207,1807,704,1000005827,Princeton Vision Center,900 S Rum River Dr Ste 103,,Princeton,MN,55371.0,USA,7633899000.0,,https://www.princetonvisioncenter.com/,50467-000,Optical Goods - Retail,1/1/95 0:00,,False,NR,0.0,4.0,0.0,False,Micro-small,False,1/24/23 8:58,Search,200,
208,1808,704,1000006146,Travel World of Crosby,505 3rd St SE,,Crosby,ND,58730.0,USA,7019656232.0,,https://travelworldofcrosby.com/,70632-000,Travel Agencies & Bureaus,3/26/15 0:00,,False,NR,0.0,1.0,0.0,False,Micro-small,False,1/2/23 8:49,Search,200,
209,1809,704,1000001529,Hill City Service,140 Linden Ave Ste 169,,Hill City,MN,55748.0,USA,2186978174.0,,https://hillcityautos.com/service,60107-700,Auto Repair - Maintenance,1/2/02 0:00,,False,NR,0.0,1.0,0.0,False,Micro-small,False,12/4/22 9:03,Search,200,
210,1810,704,1000005908,Johnny B&#39;s Tree Service,11137 33rd St. SE.,,Valley City ,ND,58072.0,USA,7014902042.0,,https://johnnybstreesandservice.com/,00219-000,Tree Service,7/10/15 0:00,,False,NR,0.0,1.0,0.0,False,Micro-small,False,2/4/23 9:01,Search,200,
211,1811,704,1000000002,Domino's Pizza,1058 Enterprise Dr E,,Belle Plaine,MN,56011.0,USA,9528732020.0,,https://pizza.dominos.com/minnesota/belle-plaine/,50544-000,Restaurants,,,False,NR,0.0,,0.0,False,Micro-small,False,2/1/20 4:31,Search,200,
212,1812,704,1000001727,"Roofmasters, Inc",22104 Joliet Ave n,,Forest Lake,MN,55025.0,USA,6514332359.0,,https://www.yellowpages.com/forest-lake-mn/mip/roof-masters-inc-5723021,10126-200,Commercial Roofing,5/28/97 0:00,9/20/17 0:00,False,NR,0.0,1.0,0.0,False,Micro-small,False,1/31/23 8:46,Search,200,
213,1813,704,1000002095,Main Street Hair Concepts,130 Vernon Ave,,Morgan,MN,56266.0,USA,5072495549.0,,https://www.facebook.com/MainStreetHairConcepts/,60134-000,Beauty Salons,1/1/04 0:00,,False,NR,0.0,2.0,0.0,False,Micro-small,False,1/30/23 8:33,Search,200,
214,1814,704,1000006729,Kwong Tung Foods,1840 E 38th St,,Minneapolis,MN,55407.0,USA,6127229501.0,,https://foursquare.com/v/kwong-tung-oriental-foods/4f325bc219836c91c7cff03f,30790-000,"Food Manufacturers, Wholesalers, Distributors",,11/1/16 0:00,False,NR,0.0,1.0,0.0,False,Micro-small,False,11/4/19 4:10,Search,200,
215,1815,704,1000002941,Great Plains Instite Sustainab,2801 21st Ave S Ste 220,,Minneapolis,MN,55407.0,USA,6122787157.0,,https://betterenergy.org/,61090-000,Non Profit Organizations - General Membership,8/30/10 0:00,,False,NR,0.0,6.0,0.0,False,Micro-small,False,1/29/23 8:36,Search,200,
216,1816,704,1000006071,Hedstrom Snow,3447 46th Ave S,,Fargo,ND,58104.0,USA,7012390190.0,,https://hedstrom-entertainment.com/product/snow/,70605-000,Snow Removal Service,1/18/12 0:00,,False,NR,0.0,1.0,0.0,False,Micro-small,False,1/2/23 8:49,Search,200,
217,1817,704,1000000067,C P R Sales LLC,7600 W 27th St Ste 208,,Minneapolis,MN,55426.0,USA,9522294467.0,,https://start.cortera.com/company/research/l6q8jvq0p/cpr-sales-llc/,60772-100,Sales Lead Generation,3/9/11 0:00,,False,NR,0.0,1.0,0.0,False,Micro-small,False,10/4/22 8:07,Search,200,
218,1818,704,1000000004,Leimer Construction,106 N 6th Ave E,,Truman,MN,56088.0,USA,5077762350.0,,https://www.facebook.com/Leimer-Construction-663358517012565/,10035-000,Contractors - General,1/1/10 0:00,,False,NR,0.0,4.0,0.0,False,Micro-small,False,1/7/23 9:07,Search,200,
219,1819,704,1000004508,Konrads Wine Bar & Bistro,27 7th Ave N,,Saint Cloud,MN,56303.0,USA,3207741073.0,,https://wjon.com/konrads-wine-bar-temporarily-closed-in-downtown-st-cloud/,72100-000,Bistro,1/26/15 0:00,6/21/16 0:00,False,NR,0.0,1.0,0.0,False,Micro-small,False,6/24/19 4:06,Search,200,
220,1820,704,1000006038,Bosl Construction,409 Country Oak Dr,,Sauk Centre,MN,56378.0,USA,3203526289.0,,https://www.dandb.com/businessdirectory/boslconstruction-saukcentre-mn-14661119.html,10035-000,Contractors - General,1/27/92 0:00,,False,NR,0.0,1.0,0.0,False,Micro-small,False,1/2/23 8:49,Search,200,
221,1821,704,1000000225,Absolute Outdoor Services LLC,350 93rd Ave NE,,Blaine,MN,55434.0,USA,7635608907.0,,https://opencorporates.com/companies/us_mn/30294490-0080-e111-b001-001ec94ffe7f,00219-000,Tree Service,4/6/12 0:00,2/11/20 0:00,False,NR,0.0,,0.0,False,Micro-small,False,2/13/20 4:52,Search,200,
222,1822,704,1000001921,Callisters Christmas,60 E Broadway,,Bloomington,MN,55425.0,USA,,,https://callisterschristmas.com/,60209-000,Christmas Lights & Decorations,,6/21/16 0:00,False,NR,0.0,,,False,Micro-small,False,6/24/19 4:05,Search,200,
223,1823,704,1000004742,Adventure RV Centre,402 S Washington Ave,,Albert Lea,MN,56007.0,USA,5073772225.0,,https://business.albertlea.org/list/member/adventure-rv-centre-3754,50535-000,Recreational Vehicles - Dealers,10/14/05 0:00,,False,NR,0.0,1.0,0.0,False,Micro-small,False,1/21/23 8:56,Search,200,
224,1824,704,1000003817,Donald Miller Construction,17843 Jubilee Way Apt A,,Lakeville,MN,55044.0,USA,9528920536.0,,https://www.homeyou.com/donald-miller-construction-lakeville-mn,30760-000,Woodworking,,11/22/19 0:00,False,NR,0.0,1.0,,False,Micro-small,False,11/28/22 8:54,Search,200,
225,1825,704,1000005441,Reyes Renovating LLC,7300 Hudson Blvd. N. Ste 200,,Oakdale,MN,55128.0,USA,5072012024.0,,https://www.instagram.com/reyeshomeimprovementllc/?hl=en,10035-200,Contractor - Remodel & Repair,8/5/16 0:00,,False,F,11.42,,0.0,False,Micro-small,False,4/18/18 5:18,Search,200,
226,1826,704,1000006121,Adams Hardwood Floor Sanding,1019 Chestnut St,,Grand Forks,ND,58201.0,USA,7017469523.0,,https://nextdoor.com/pages/david-adams-hardwood-floor-grand-forks-nd/,15058-000,Hardwood Floor Contractors,3/21/16 0:00,,False,A+,100.0,1.0,0.0,False,Micro-small,False,10/7/22 8:31,Search,200,
227,1827,704,1000003916,Stalling Enterprise,7714 Brooklyn Blvd Ste 110,,Brooklyn Park,MN,55443.0,USA,7634320297.0,,https://www.enterprise.com/en/car-rental/locations/us/mn/brooklyn-park-1904.html,50291-000,Furniture - Retail,12/31/09 0:00,,False,NR,0.0,1.0,0.0,False,Micro-small,False,1/28/23 8:47,Search,200,
228,1828,704,1000001874,House It LLC,3035 Hampshire Ave N,,New Hope,MN,55427.0,USA,7632273642.0,,https://www.facebook.com/NewHopeHomesLLC/,10035-000,Contractors - General,11/30/12 0:00,,False,NR,0.0,1.0,0.0,False,Micro-small,False,12/13/22 9:03,Search,200,
229,1829,704,1000005315,Blaise Watson Carpentry LLC,750 Quiver St,,Chanhassen,MN,55317.0,USA,9524745941.0,,https://www.checkbook.org/mn/chanhassen/carpenters/blaise-watson-carpentry/z32b5,10035-000,Contractors - General,11/17/08 0:00,,False,A+,100.0,1.0,0.0,False,Micro-small,False,4/24/21 4:07,Search,200,
230,1830,704,1000001831,Pelican Lake Community Center,8922 Plant Rd,,Pequot Lakes,MN,56472.0,USA,2185624664.0,,https://www.yellowpages.com/pequot-lakes-mn/mip/pelican-lake-community-center-1152633,60037-000,Amusement Parks & Places,1/1/99 0:00,,False,NR,0.0,1.0,0.0,False,Micro-small,False,1/30/23 8:33,Search,200,
231,1831,704,1000001458,Meadowridge Assisted & Memory Care Living,7545 Country Club Dr,,Golden Valley,MN,55427.0,USA,7637627300.0,,https://www.meadowridgeseniorliving.com/,61002-100,Assisted Living & Adult Family Homes,7/2/15 0:00,,False,NR,0.0,1.0,0.0,False,Micro-small,False,12/4/22 9:03,Search,200,
232,1832,704,1000004932,Bruce C Anderson Construction,PO Box 518,,Nicollet,MN,56074.0,USA,5073278559.0,,https://ezlocal.com/mn/nicollet/real-estate---development/0910852943,10006-000,Kitchen & Bath - Design & Remodeling,12/30/91 0:00,,False,NR,0.0,1.0,0.0,False,Micro-small,False,1/12/23 8:54,Search,200,
233,1833,704,1000005926,Anderman Plastering/Stucco,21612 203rd St NW,,Big Lake,MN,55309.0,USA,7632635942.0,,https://www.mnhs.org/preservation/directory/8201,10032-000,Concrete Contractors,3/11/99 0:00,4/21/21 0:00,False,NR,0.0,4.0,0.0,False,Micro-small,False,4/23/21 3:55,Search,200,
234,1834,704,1000006028,B & D Handy Man,3008 BERRY DR,,Bismarck,ND,58501.0,USA,7012586009.0,,https://dandeeservicesinc.com/,15035-000,Handyman Services,7/16/08 0:00,,False,NR,0.0,1.0,0.0,False,Micro-small,False,1/2/23 8:49,Search,200,
235,1835,704,1000006295,Mark Willis Construction,807 2nd St S,,Stillwater,MN,55082.0,USA,6514303570.0,,https://start.cortera.com/company/research/k5o1nxn4p/mark-willis-construction/,10035-000,Contractors - General,8/30/10 0:00,,False,A+,100.0,3.0,0.0,False,Micro-small,False,4/22/21 4:11,Search,200,
236,1836,704,1000002726,Bruce Stuhr Construction ,8451 County Road 6 NW,,Annandale,MN,55302.0,USA,3202741442.0,,https://start.cortera.com/company/research/k5n7mzq1n/stuhr-bruce-construction/,10177-000,Construction & Remodeling Services,7/13/16 0:00,,False,NR,0.0,,0.0,False,Micro-small,False,2/27/21 4:08,Search,200,
237,1837,704,1000002164,Technical Solutions Inc,8823 Zealand Ave N Ste U,,Minneapolis,MN,55445.0,USA,7637859303.0,,https://www.yellowpages.com/minneapolis-mn/mip/technical-solutions-inc-528608034,60326-100,Staffing - Technical,3/21/91 0:00,,False,NR,0.0,1.0,0.0,False,Micro-small,False,7/8/22 12:28,Search,200,
238,1838,704,1000005584,Construction Plus LLC,1300 Independence Ave S,,St Louis Park,MN,55426.0,USA,6122671360.0,,https://www.networx.com/c.construction-plus-llc,10177-000,Construction & Remodeling Services,7/26/10 0:00,,False,NR,0.0,1.0,0.0,False,Micro-small,False,12/26/22 8:45,Search,200,
239,1839,704,1000001773,Thorp Construction LLC,405 Music St NW,,New Prague,MN,56071.0,USA,9524576385.0,,http://www.thorphomes.com/,10177-000,Construction & Remodeling Services,8/25/09 0:00,,False,NR,0.0,1.0,0.0,False,Micro-small,False,10/9/22 8:05,Search,200,
240,1840,704,1000003308,Lake State Remodeling LLC,25522 Duffney Road,,Rochert,MN,56578.0,USA,2183960959.0,,https://www.buildzoom.com/contractor/lake-state-remodeling-llc,10035-000,Contractors - General,,,False,A+,100.0,1.0,0.0,False,Micro-small,False,7/29/20 4:44,Search,200,
241,1841,704,1000003949,Hallberg & McCabe Ltd,1255 Hazelwood Way,,Northfield,MN,55057.0,USA,6127241379.0,,https://clustrmaps.com/a/1ftij/,60005-000,Accountants,10/11/73 0:00,,False,NR,0.0,2.0,0.0,False,Micro-small,False,1/23/23 8:35,Search,200,
242,1842,704,1000006287,Five Star Roofing & Siding,2915 Golden Valley Rd,,Minneapolis,MN,55411.0,USA,9526492842.0,,https://www.fivestarrated.com/roofers/minneapolis,10126-000,Roofing Contractors,9/3/15 0:00,,False,NR,0.0,1.0,0.0,False,Micro-small,False,8/3/22 8:42,Search,200,
243,1843,704,1000001781,Popcorn Video,290 Main St W,,Isle,MN,56342.0,USA,3206763191.0,,https://www.alignable.com/isle-mn/13131563-popcorn-video-laundry-and-tanning,50534-000,"Compact Discs, Tapes & Records - Retail",1/1/96 0:00,,False,NR,0.0,5.0,0.0,False,Micro-small,False,1/30/23 8:33,Search,200,
244,1844,704,1000005972,Trucks of Williston,110 Washington Ave,,Williston,ND,58801.0,USA,7017743460.0,,https://www.facebook.com/marketplace/104054996296400/trucks/,50040-000,Auto Dealers - Used Cars,9/16/15 0:00,,False,A+,100.0,,0.0,False,Micro-small,False,1/4/20 4:16,Search,200,
245,1845,704,1000005119,Cristina&#39;s Cleaning Service Inc,4091 119th Ave NW,,Coon Rapids,MN,55433.0,USA,7632223346.0,,https://www.care.com/b/l/kristina-s-cleaning-company/coon-rapids-mn,66002-000,Cleaning Services,10/5/12 0:00,,False,NR,0.0,1.0,0.0,False,Micro-small,False,12/24/22 8:49,Search,200,
246,1846,704,1000000077,West Funeral Homes,321 Sheyenne Street,,West Fargo,ND,58078.0,USA,7012826699.0,,https://www.westfuneralhome.com/,62000-000,Funeral Homes,5/22/13 0:00,,False,NR,0.0,1.0,0.0,False,Micro-small,False,10/4/22 8:07,Search,200,
247,1847,704,1000001587,Torgersen Construction,1252 Airport Rd,,Two Harbors,MN,55616.0,USA,2188346561.0,,https://www.houzz.com/professionals/home-builders/torgersen-construction-llc-pfvwus-pf~153685351,10035-000,Contractors - General,1/1/98 0:00,,False,NR,0.0,3.0,0.0,False,Micro-small,False,1/31/23 8:46,Search,200,
248,1848,704,1000002752,Bauer Masonry,36556 County Road 173,,Melrose,MN,56352.0,USA,3202563925.0,,https://opencorporates.com/companies/us_mn/32281c6a-8fd4-e011-a886-001ec94ffe7f,10032-000,Concrete Contractors,3/26/07 0:00,,False,NR,0.0,5.0,0.0,False,Micro-small,False,12/1/22 9:22,Search,200,
249,1849,704,1000005274,Birchwood Construction LLC,22767 Rose Ct NW,,Saint Francis,MN,55070.0,USA,6127438333.0,,https://zaubee.com/biz/birchwood-construction-llc-s7qoar52,10035-000,Contractors - General,2/18/09 0:00,,False,NR,0.0,1.0,0.0,False,Micro-small,False,12/26/22 8:45,Search,200,
250,1850,704,1000002382,Fabletics,142 South Street,,Bloomington,MN,55425.0,USA,6515835511.0,,https://www.mallofamerica.com/directory/fabletics,41000-000,Sports & Recreation,10/1/13 0:00,,False,NR,0.0,1.0,0.0,False,Micro-small,False,6/1/22 21:26,Search,200,
251,1851,704,1000006089,North Central Electric Co-Op,538 11th St W Ste 1,,Bottineau,ND,58318.0,USA,7012282202.0,,https://www.facebook.com/people/North-Central-Electric-Co-Op/100063478303650/,70544-000,Electric Companies,4/24/41 0:00,,False,NR,0.0,1.0,0.0,False,Micro-small,False,1/2/23 8:49,Search,200,
252,1852,704,1000004947,Andrew J. Stoskopf Trucking Inc,PO Box 23,,Warroad,MN,56763.0,USA,2182421424.0,,https://safer.fmcsa.dot.gov/query.asp?searchtype=ANY&query_type=queryCarrierSnapshot&query_param=USDOT&query_string=2099002,70640-000,Trucking,6/11/15 0:00,,False,NR,0.0,1.0,0.0,False,Micro-small,False,12/20/22 8:56,Search,200,
253,1853,704,1000000024,new 2 you,501 Broadway W,,Little Falls,MN,56345.0,USA,3206392232.0,,https://www.facebook.com/new2youlittlefalls/,50655-000,Thrift Shops,,,False,NR,0.0,1.0,0.0,False,Micro-small,False,1/24/23 8:58,Search,200,
254,1854,704,1000006284,"Larsen Septic, LLC",28428 Mcnally Ridge Rd,,Winona,MN,55987.0,USA,5074298325.0,,https://www.septic.com/septic-services/minnesota/winona/larsen-septic/,10129-000,Septic Tanks & Systems Contractors & Dealers,5/11/07 0:00,,False,A+,100.0,1.0,0.0,False,Micro-small,False,1/29/20 6:34,Search,200,
255,1855,704,1000001573,Quality Foundations Llc,PO Box 906,,Devils Lake,ND,58301.0,USA,7016621090.0,,https://www.homeyou.com/quality-foundations-llc-devils-lake-nd,10032-000,Concrete Contractors,1/1/02 0:00,,False,NR,0.0,6.0,0.0,False,Micro-small,False,1/31/23 8:46,Search,200,
256,1856,704,1000004446,Carlson Wagonlit Travel,4201 W Division St,,Saint Cloud,MN,56301.0,USA,3203459680.0,,https://cruise-line-agents.cmac.ws/carlson-wagonlit-travel-world-travel-of-st-cloud-inc/5170/,70632-000,Travel Agencies & Bureaus,11/21/97 0:00,,False,NR,0.0,1.0,0.0,False,Micro-small,False,2/5/23 8:42,Search,200,
257,1857,704,1000005650,Dale Johnson III Construction LLC,337 3rd St,,Tracy,MN,56175.0,USA,5078294040.0,,https://opencorporates.com/companies/us_mn/6d93e613-93d4-e011-a886-001ec94ffe7f,10177-000,Construction & Remodeling Services,1/16/09 0:00,,False,A+,100.0,1.0,0.0,False,Micro-small,False,12/28/19 4:25,Search,200,
258,1858,704,1000003922,Studio 9 Photography,901 9th St S,,Fargo,ND,58103.0,USA,7018505765.0,,https://www.facebook.com/studio9fargo/,60655-100,Photographers,1/1/12 0:00,,False,NR,0.0,,0.0,False,Micro-small,False,1/29/20 6:32,Search,200,
259,1859,704,1000005235,Adrian M Gunnerson Builders LLC,8975 75th St NW,,Annandale,MN,55302.0,USA,6126188452.0,,https://www.houzz.com/professionals/general-contractors/adrian-m-gunnerson-builders-llc-pfvwus-pf~95122461,10177-000,Construction & Remodeling Services,1/16/09 0:00,,False,A+,100.0,1.0,0.0,False,Micro-small,False,10/13/20 4:00,Search,200,
260,1860,704,1000006621,Bingeman Construction LLC,23 6th Ave W,,Ray,ND,58849.0,USA,7015704880.0,,https://opencorporates.com/companies/us_nd/0000152171,85310-000,Contractor - Commercial,4/24/14 0:00,,False,A+,100.0,1.0,0.0,False,Micro-small,False,5/29/21 4:10,Search,200,
261,1861,704,1000001669,Surety Title Co,523 Central Ave,,New Rockford,ND,58356.0,USA,7019472446.0,,https://www.ndlta.org/eddy.html,20072-000,Title Companies & Agents,4/30/25 0:00,,False,NR,0.0,1.0,0.0,False,Micro-small,False,5/23/22 8:19,Search,200,
262,1862,704,1000006326,"Scharf Auto Supply, Inc.",620 1st ave sw,,Rochester,MN,55902.0,USA,5072893396.0,,https://mpecnapa.com/mpec-napa-acquires-scharf-auto-supply/,80041-200,Auto Parts & Supplies - Used,12/30/58 0:00,,False,NR,0.0,1.0,0.0,False,Micro-small,False,1/3/23 8:39,Search,200,
263,1863,704,1000003265,Broadway Hair Fashions,255 Broadway Ave S,,Cokato,MN,55321.0,USA,3202865915.0,,https://www.facebook.com/BroadwayHairFashions/,60420-000,Hair Styling and Services,8/17/88 0:00,,False,A+,100.0,1.0,0.0,False,Micro-small,False,2/21/20 4:04,Search,200,
264,1864,704,1000001562,Ray Devine,1695 Main St,,Hugo,MN,55038.0,USA,6514070388.0,,https://radaris.com/p/Raymond/Devine/,50173-000,Computers - Dealers,,5/17/16 0:00,False,NR,0.0,,,False,Micro-small,False,5/20/19 4:18,Search,200,
265,1865,704,1000005754,Changing Spaces Construction Inc,4174 145th Ave NW,,Ham Lake,MN,55304.0,USA,7634215960.0,,https://nextdoor.com/pages/changing-spaces-construction-andover-mn/,10075-000,Heat Pumps,10/30/96 0:00,,False,NR,0.0,1.0,0.0,False,Micro-small,False,12/30/22 8:57,Search,200,
266,1866,704,1000006778,Acct Inc,7290 Morris Thomas Rd W,,Cloquet,MN,55720.0,USA,2188792241.0,,https://acctmn.com/,10005-000,Asbestos Removal Service,1/1/87 0:00,,False,A+,100.0,10.0,0.0,False,Micro-small,False,9/2/21 3:56,Search,200,
267,1867,704,1000000224,Salo Iot Solutions,322 Warwick St,,Saint Paul,MN,55105.0,USA,6516989110.0,,https://www.showmelocal.com/profile.aspx?bid=1179428,60235-000,"Computers Hardware, Software & Services",4/19/16 0:00,,False,NR,0.0,1.0,0.0,False,Micro-small,False,11/21/22 8:39,Search,200,
268,1868,704,1000001617,Henriette Florist and Gifts,1st Street SE,,Henriette,MN,55036.0,USA,8886841302.0,,https://www.henriettafloral.com/,50275-000,Florists - Retail,,,False,NR,0.0,,0.0,False,Micro-small,False,2/1/20 4:31,Search,200,
269,1869,704,1000004796,Security Insurance Agency,1606 E Main St,,Albert Lea,MN,56007.0,USA,5073736446.0,,https://www.heartman.com/,20036-000,Insurance - Disability,1/23/84 0:00,,False,NR,0.0,1.0,0.0,False,Micro-small,False,12/6/22 9:12,Search,200,
270,1870,704,1000004883,Lake Country Bakery,923 Washington Ave,,Detroit Lakes,MN,56501.0,USA,2188477361.0,,https://www.menupix.com/minnesota/restaurants/455037/Lake-Country-Bakery-Detroit-Lakes-MN,50052-000,Bakers - Retail,4/29/85 0:00,1/7/20 0:00,False,NR,0.0,1.0,0.0,False,Micro-small,False,1/9/23 8:32,Search,200,
271,1871,704,1000004791,Home Connections LLC,1105 Magnolia Ln N,,Plymouth,MN,55441.0,USA,6129917988.0,,https://opencorporates.com/companies/us_mn/bbb86251-94d4-e011-a886-001ec94ffe7f,60235-300,Computer Business Services,,,False,NR,0.0,1.0,0.0,False,Micro-small,False,11/23/21 6:33,Search,200,
272,1872,704,1000005014,Marco Lawn Service,9788 166th Ct SE,,Becker,MN,55308.0,USA,7632626635.0,,https://landscape-services.cmac.ws/marco-lawn-service/31057/,00155-000,Landscape Contractors,8/30/10 0:00,8/31/16 0:00,False,NR,0.0,1.0,,False,Micro-small,False,9/3/19 4:20,Search,200,
273,1873,704,1000005637,Degroot Enterprises,1885 170th St W,,Faribault,MN,55021.0,USA,6122554583.0,,https://www.houzz.com/professionals/general-contractors/degroot-enterprises-inc-pfvwus-pf~757953377,10177-000,Construction & Remodeling Services,10/6/92 0:00,,False,NR,0.0,1.0,0.0,False,Micro-small,False,2/7/23 9:00,Search,200,
274,1874,704,1000005380,"Dakota Line Contractors, Inc",6731 Sterling Dr,,Bismarck,ND,58504.0,USA,7012248654.0,,https://www.dlcnd.com/,80806-000,Oil & Gas Exploration & Development,3/24/11 0:00,,False,NR,0.0,10.0,0.0,False,Micro-small,False,12/26/22 8:45,Search,200,
275,1875,704,1000001819,S I Industries Inc,9983 Baltimore St NE,,Minneapolis,MN,55449.0,USA,7637841430.0,,https://www.yellowpages.com/minneapolis-mn/mip/s-i-industries-inc-6004714,30536-000,Printing Equipment,1/1/87 0:00,,False,NR,0.0,30.0,0.0,False,Micro-small,False,1/30/23 8:33,Search,200,
276,1876,704,1000005893,Albeno's Construction ,PO Box 1827,,New Town,ND,58763.0,USA,7015090749.0,,http://www.albinoconstruction.com/,10177-000,Construction & Remodeling Services,4/15/16 0:00,,False,A+,99.38,2.0,0.0,False,Micro-small,False,1/15/20 8:11,Search,200,
277,1877,704,1000001355,J J Cash & Pawn,49o University,,Saint Paul,MN,55106.0,USA,6517718156.0,,http://www.bestpawnusa.com/,50626-000,Surplus & Salvage Merchandise,,6/8/16 0:00,False,NR,0.0,1.0,,False,Micro-small,False,6/10/19 4:04,Search,200,
278,1878,704,1000005782,Douglas Watson Construction Inc.,3649 Oliver Ave N,,Minneapolis,MN,55412.0,USA,6125225023.0,,https://www.homeyou.com/douglas-watson-construction-minneapolis-mn,10177-000,Construction & Remodeling Services,3/12/10 0:00,,False,NR,0.0,1.0,0.0,False,Micro-small,False,12/30/22 8:56,Search,200,
279,1879,704,1000004785,Driftwood Remodelers,857 Bidwell St,,Mendota Hts,MN,55118.0,USA,6512082989.0,,https://www.driftwoodmn.com/,10177-000,Construction & Remodeling Services,,,False,NR,0.0,1.0,0.0,False,Micro-small,False,1/27/23 9:09,Search,200,
280,1880,704,1000004456,"Fresh Company, LLC",15128 82nd Ave N,,Osseo,MN,55311.0,USA,6123000047.0,,https://www.superiorfresh.com/,60367-000,Fire & Water Damage Restoration,12/9/14 0:00,,False,NR,0.0,1.0,0.0,False,Micro-small,False,2/3/23 9:12,Search,200,
281,1881,704,1000005671,Dick&#39;s Manufactured Housing,6163 193rd Ave NE,,New London,MN,56273.0,USA,3202126288.0,,https://www.mobilehome.cc/company-dicks-manufactured-housing-in-new-london-mn-6989,10035-000,Contractors - General,5/13/13 0:00,,False,A+,100.0,1.0,0.0,False,Micro-small,False,1/6/23 9:13,Search,200,
282,1882,704,1000002828,Oaks TW Hardware,1519 Como Ave SE,,Minneapolis,MN,55414.0,USA,6123311925.0,,https://m.facebook.com/profile.php?id=131856080191861,50333-000,Hardware - Retail,1/1/84 0:00,,False,NR,0.0,3.0,0.0,False,Micro-small,False,1/29/23 8:36,Search,200,
283,1883,704,1000001282,Ness Sealcoat Service,24137 498th Street,,Bemidji ,MN,56601.0,USA,2183330606.0,,https://www.nesssealcoat.com/,85295-000,Seal Coating,,,False,NR,0.0,1.0,0.0,False,Micro-small,False,9/1/22 8:30,Search,200,
284,1884,704,1000004652,Hebron Brick Supply,404 S Burlington Ave,,Fergus Falls,MN,56537.0,USA,2187393671.0,,https://www.hebronbrick.com/fergus-falls-store/,50101-000,"Brick - Concrete, Pumice",2/17/75 0:00,,False,A+,100.0,3.0,0.0,False,Micro-small,False,3/13/20 4:18,Search,200,
285,1885,704,1000004344,N8&#39;s Place,100 Foussard Avenue Se,,Saint John,ND,58369.0,USA,7014775877.0,,https://www.restaurantji.com/nd/saint-john/n8s-place-/,50544-000,Restaurants,,,False,NR,0.0,1.0,0.0,False,Micro-small,False,1/27/23 9:09,Search,200,
286,1886,704,1000003719,Lakeland Sleep Center,11855 Ulysses St NE,,Blaine,MN,55434.0,USA,7633547656.0,,https://www.lhssleep.com/locations,60218-100,Clinics - Sleep Centers,11/30/00 0:00,,False,NR,0.0,1.0,0.0,False,Micro-small,False,11/8/22 9:19,Search,200,
287,1887,704,1000001955,James River Pest Control and Green Lawns Inc.,1809 4th Ave SW,,Jamestown,ND,58401.0,USA,7012512298.0,,https://www.yellowpages.com/jamestown-nd/james-river-pest-control-green-lawns,60650-000,Pest Control Services,1/1/84 0:00,10/22/19 0:00,False,NR,0.0,3.0,,False,Micro-small,False,1/4/23 9:05,Search,200,
288,1888,704,1000002145,Anchor Fence of Minnesota ,8600 W 125th St ,,Savage,MN,55378.0,USA,9528826335.0,,https://www.facebook.com/AnchorIron/,85319-000,"Chain Link Fence Sales, Service & Contractors",10/1/80 0:00,4/16/14 0:00,False,NR,0.0,1.0,0.0,False,Micro-small,False,9/10/22 8:39,Search,200,
289,1889,704,1000001846,Rudawski Law Office,2332 Lexington Ave N,,Saint Paul,MN,55113.0,USA,6512877664.0,,https://estate-planning-attorneys.cmac.ws/rudawski-law-office-pa/11117/,60075-000,Attorneys & Lawyers,8/30/10 0:00,4/16/14 0:00,False,NR,0.0,2.0,,False,Micro-small,False,11/10/21 4:13,Search,200,
290,1890,704,1000004895,Neighborhood Barbershop,933 Maryland Ave E,,Saint Paul,MN,55106.0,USA,6517743020.0,,https://www.goodneighborbarber.com/,60125-000,Barbers,5/15/12 0:00,,False,NR,0.0,1.0,0.0,False,Micro-small,False,12/20/22 8:57,Search,200,
291,1891,704,1000001565,Mauer Amoco Oil Co,411 1st St SW,,Hankinson,ND,58041.0,USA,7012427286.0,,https://local.wahpetondailynews.com/hankinson-nd/mauer-amoco-oil-company-701-242-7286,50567-000,Service Stations - Gasoline & Oil,1/1/94 0:00,,False,NR,0.0,1.0,0.0,False,Micro-small,False,1/31/23 8:46,Search,200,
292,1892,704,1000000029,Code 3 Construction LLC,3233 Greenbrier St,,Vadnais Heights,MN,55127.0,USA,6512602892.0,,https://www.facebook.com/people/Code-3-Construction-LLC/100067643234051/,10177-000,Construction & Remodeling Services,,,False,NR,0.0,1.0,0.0,False,Micro-small,False,1/31/23 8:46,Search,200,
293,1893,704,1000005882,Dave Miller Contracting LLC,16708 510th St,,Waterville,MN,56096.0,USA,5074616087.0,,https://start.cortera.com/company/research/l6l2rul9o/dave-miller-contracting-llc/,10177-000,Construction & Remodeling Services,4/6/15 0:00,,False,NR,0.0,1.0,0.0,False,Micro-small,False,10/23/22 8:01,Search,200,
294,1894,704,1000001989,MN Decorative Concrete,210 Central Ave. Suite #7,,Milaca,MN,56353.0,USA,3209804565.0,,https://www.superpages.com/yellowpages/c-concrete+contractors/s-mn/t-milaca/,50178-100,Concrete - Stamped & Decorative,,10/16/19 0:00,False,NR,0.0,,,False,Micro-small,False,10/18/19 4:02,Search,200,
295,1895,704,1000005690,Gem Building Services,5190 Hemlock Ln N,,Plymouth,MN,55442.0,USA,7635530881.0,,https://www.myhomepro.org/Architect/William-Connelly-Gem-Building-Services/,10013-000,Building Contractors,4/1/97 0:00,,False,NR,0.0,1.0,0.0,False,Micro-small,False,2/7/23 9:00,Search,200,
296,1896,704,1000005178,Rust,38859 7th Ave,,North Branch,MN,55056.0,USA,2082407193.0,,https://www.facebook.com/therustyowlnb/,50014-000,Antiques - Dealers,7/6/15 0:00,12/20/18 0:00,False,NR,0.0,1.0,0.0,False,Micro-small,False,12/21/18 3:50,Search,200,
297,1897,704,1000004915,Shorewood Pub,1743 Long Bridge Rd,,Detroit Lakes,MN,56501.0,USA,2188473206.0,,https://www.restaurantji.com/mn/detroit-lakes/shorewood-pub-/,50544-000,Restaurants,7/29/99 0:00,,False,A+,100.0,1.0,0.0,False,Micro-small,False,12/22/19 4:11,Search,200,
298,1898,704,1000003288,Austin Tobacco Shop,1004 18 Avenue North West,,Austin,MN,55912.0,USA,5074331603.0,,https://www.facebook.com/AustinTobacco/,50154-000,Cigar & Cigarette & Tobacco Dealers - Retail,,,False,NR,0.0,,0.0,False,Micro-small,False,2/17/21 4:35,Search,200,
299,1899,704,1000001746,A to Z Glass LLC,2079 Shale Ln,,Eagan,MN,55122.0,USA,6512746967.0,,https://www.yellowpages.com/eagan-mn/mip/a-to-z-glass-502772937,60990-000,"Auto Repair - Windshield, Glass Shops",9/20/10 0:00,,False,NR,0.0,1.0,0.0,False,Micro-small,False,11/20/22 8:59,Search,200,
300,1900,704,1000006154,North Star Sportswear,5320 N Broadway,,Minot,ND,58703.0,USA,7018386547.0,,https://www.ncssportswear.com/,50608-000,Sporting Goods - Retail,7/22/93 0:00,,False,NR,0.0,1.0,0.0,False,Micro-small,False,10/13/19 4:12,Search,200,
301,1901,704,1000006499,Stangel Stump Grinding,21914 Airport Rd,,Grand Rapids,MN,55744.0,USA,2183266962.0,,https://marketplace.apg-mn.com/places/view/24802/stangel_stump_grinding.html,85302-100,Stump Grinding,7/7/14 0:00,,False,A+,100.0,1.0,0.0,False,Micro-small,False,7/20/21 4:05,Search,200,
302,1902,704,1000004801,Jack&#39;s All Trade Service,3404 Balsam St SW,,Prior Lake,MN,55372.0,USA,9522703074.0,,https://www.alljackstrades.com/contact,15035-000,Handyman Services,,,False,NR,0.0,1.0,0.0,False,Micro-small,False,1/27/23 9:09,Search,200,
303,1903,704,1000001823,A Guy & A Squeegee,,,,,,,,,https://www.facebook.com/AGuyWithASqueegee/,60478-000,Janitor Service,6/1/16 0:00,,False,NR,0.0,5.0,0.0,False,Micro-small,False,8/16/22 8:20,Search,200,
304,1904,704,1000002557,Pennock Civic Center,305 Dakota Ave NE,,Pennock,MN,56279.0,USA,3205999789.0,,https://www.cityofpennock.com/index.php/news/30-community-center-rental,60037-000,Amusement Parks & Places,1/1/04 0:00,,False,NR,0.0,1.0,0.0,False,Micro-small,False,1/30/23 8:33,Search,200,
305,1905,704,1000005066,Brian Michels Development Inc,29211 44th St NE,,Belgrade,MN,56312.0,USA,3208949108.0,,https://www.visualvisitor.com/companies/1456178/brian-michels-development-inc,10035-000,Contractors - General,6/20/01 0:00,,False,NR,0.0,1.0,0.0,False,Micro-small,False,12/20/22 8:57,Search,200,
306,1906,704,1000005177,Holiday Gas Station Store,208 N Highway 10,,Royalton,MN,56373.0,USA,3205847402.0,,https://www.gasbuddy.com/station/53560,50567-000,Service Stations - Gasoline & Oil,,,False,NR,0.0,1.0,0.0,False,Micro-small,False,1/22/23 8:40,Search,200,
307,1907,704,1000005920,Knead to Relax,PO Box 142,,Parshall,ND,58770.0,USA,7018370038.0,,https://www.facebook.com/kneadrelax/,60543-000,Massage Therapists,7/6/16 0:00,,False,NR,0.0,1.0,0.0,False,Micro-small,False,9/28/22 10:20,Search,200,
308,1908,704,1000001298,Virgil Hesse Construction Inc,15422 County Road 21,,Watkins,MN,55389.0,USA,3206857007.0,,https://www.thebluebook.com/iProView/982414/virgil-hesse-construction-inc/general-contractors/,10035-000,Contractors - General,1/1/92 0:00,,False,NR,0.0,2.0,0.0,False,Micro-small,False,10/4/22 8:07,Search,200,
309,1909,704,1000006389,"Alternative Energy Group, LLC",260 Salem Church Rd,,Sunfish Lake,MN,55118.0,USA,6512466091.0,,http://sunfishsolarfarm.com/permitting/,80668-200,Contractors - Solar Energy,12/16/10 0:00,,False,NR,0.0,1.0,0.0,False,Micro-small,False,1/6/23 9:13,Search,200,
310,1910,704,1000005939,Fit To Be Hooped Embroidery,4828 187th Ct W,,Farmington,MN,55024.0,USA,6122026033.0,,https://stitchedmodern.com/blogs/news/an-essential-guide-to-embroidery-hoops,30198-000,Embroidery,12/8/14 0:00,,False,NR,0.0,1.0,0.0,False,Micro-small,False,8/19/21 4:22,Search,200,
311,1911,704,1000006168,Dreamgirls Night Club,12 N 5th St,,Minneapolis,MN,55403.0,USA,6123337362.0,,https://www.instagram.com/dreamgirlsofficial/?hl=en,50160-000,Clubs,,,False,A+,97.0,1.0,0.0,False,Micro-small,False,10/31/22 7:56,Search,200,
312,1912,704,1000001384,Continental Investors Rl Est,430 2nd Ave S,,Waite Park,MN,56387.0,USA,3202533473.0,,https://www.showmelocal.com/profile.aspx?bid=1078625,60729-000,Real Estate,,,False,NR,0.0,1.0,0.0,False,Micro-small,False,1/31/23 8:46,Search,200,
313,1913,704,1000002795,Capital City Crown Mortgage,4025 W Broadway Ave Ste 203,,Minneapolis,MN,55422.0,USA,7635040033.0,,https://capitalcrowninvestments.com/,20053-000,Mortgage Brokers,,10/24/19 0:00,False,NR,0.0,1.0,,False,Micro-small,False,10/25/19 4:28,Search,200,
314,1914,704,1000002067,Rydberg & Sons Inc,PO Box 63,,Pine City,MN,55063.0,USA,3206292503.0,,https://www.dandb.com/businessdirectory/rydbergsonsinc-pinecity-mn-11230558.html,50101-000,"Brick - Concrete, Pumice",1/1/94 0:00,,False,NR,0.0,10.0,0.0,False,Micro-small,False,1/30/23 8:33,Search,200,
315,1915,704,1000001265,Huerta Auto Sales,124 Benson Ave SW,,Willmar,MN,56201.0,USA,3202351178.0,,https://www.facebook.com/HuertaAutoRepair/,50040-000,Auto Dealers - Used Cars,9/25/13 0:00,,False,NR,0.0,2.0,0.0,False,Micro-small,False,6/10/22 8:25,Search,200,
316,1916,704,1000005384,Cornerstone Health and Wellness Center,7300 147th St W Ste 304,,Apple Valley,MN,55124.0,USA,9524315330.0,,https://npino.com/chiropractor/1871891523-cornerstone-health-and-wellness-center-pllc/,60205-000,Chiropractors D.C.,4/8/10 0:00,10/14/16 0:00,False,NR,0.0,1.0,0.0,False,Micro-small,False,3/30/22 9:07,Search,200,
317,1917,704,1000003924,Subway,1565 Cliff Road ,,Eagan,MN,55122.0,USA,6514543916.0,,https://restaurants.subway.com/united-states/mn/eagan/1432-yankee-doodle-road,50544-000,Restaurants,,,False,NR,0.0,,0.0,False,Micro-small,False,1/29/20 6:34,Search,200,
318,1918,704,1000001985,All American Auto Glass Service,605 8th Ave SW # 1,,Pine City,MN,55063.0,USA,3206296659.0,,https://www.yellowpages.com/pine-city-mn/all-american-auto-glass,50476-000,Paint - Retail,1/1/98 0:00,,False,NR,0.0,2.0,0.0,False,Micro-small,False,1/30/23 8:33,Search,200,
319,1919,704,1000000162,Winter Wilson Siding Inc,819 Woodbridge Cir,,Dilworth,MN,56529.0,USA,7013718146.0,,http://memberzone.hbafm.com/list/member/winter-wilson-siding-inc-dilworth-5427,10126-000,Roofing Contractors,6/9/06 0:00,,False,NR,0.0,2.0,0.0,False,Micro-small,False,8/30/22 8:18,Search,200,
320,1920,704,1000003054,Wagner Excavating,4566 Cedar Ln Ne,,Remer,MN,56672.0,USA,2185661299.0,,https://wagner-excavating.business.site/,10050-000,Excavating Contractors,,,False,NR,0.0,5.0,0.0,False,Micro-small,False,1/29/23 8:36,Search,200,
321,1921,704,1000002813,Center For Women Group Therapy,3754 Pleasant Ave Ste 205,,Minneapolis,MN,55409.0,USA,6128021405.0,,https://www.facebook.com/people/Center-for-Womens-Group-Therapy/100063518408848/,60971-000,Health & Medical - General,1/1/07 0:00,11/1/21 0:00,False,NR,0.0,2.0,0.0,False,Micro-small,False,11/3/21 4:22,Search,200,
322,1922,704,1000006228,Pederson Plumbing,10 County Road 56,,Grand Marais,MN,55604.0,USA,2183871011.0,,https://plumbers.cmac.ws/pederson-plumbing/41139/,10050-000,Excavating Contractors,3/18/08 0:00,,False,A+,100.0,1.0,0.0,False,Micro-small,False,9/24/20 4:02,Search,200,
323,1923,704,1000006615,Embree Custom Homes Llc,12446 278th Ave NW,,Zimmerman,MN,55398.0,USA,7638569108.0,,https://opencorporates.com/companies/us_mn/31d99244-9ed4-e011-a886-001ec94ffe7f,10013-000,Building Contractors,4/7/03 0:00,4/16/21 0:00,False,NR,0.0,1.0,0.0,False,Micro-small,False,4/18/21 3:57,Search,200,
324,1924,704,1000003844,Esser Construction Llc,18759 Tracside Rd,,Brainerd,MN,56401.0,USA,2188281609.0,,http://www.esserconstruction.com/,10035-000,Contractors - General,1/1/03 0:00,,False,NR,0.0,3.0,0.0,False,Micro-small,False,1/28/23 8:48,Search,200,
325,1925,704,1000003264,Dan & Becky??s Market,5636 Oliver Ave SW,,Cokato,MN,55321.0,USA,3202863076.0,,http://danandbeckysmarket.com/,50277-100,Food - Sales & Delivery,7/17/09 0:00,,False,A+,100.0,1.0,0.0,False,Micro-small,False,2/7/23 14:20,Search,200,
326,1926,704,1000004632,CDR Construction LLC,3411 Blaisdell Ave,,Minneapolis,MN,55408.0,USA,6127218663.0,,https://nextdoor.com/pages/c-d-r-construction-llc-minneapolis-mn/,10035-000,Contractors - General,1/1/98 0:00,,False,NR,0.0,3.0,0.0,False,Micro-small,False,1/31/23 8:46,Search,200,
327,1927,704,1000002091,King Sales,3511 W 44th St Ste 2,,Minneapolis,MN,55410.0,USA,6129224266.0,,https://www.richardmanno.com/locations/king-sales-company-in-minnesota-and-missouri/,60769-000,Sales Organizations,,7/7/16 0:00,False,NR,0.0,5.0,,False,Micro-small,False,7/8/19 4:08,Search,200,
328,1928,704,1000002220,Brian Hullopeter Construction,1203 Spartan Ave,,Albert Lea,MN,56007.0,USA,5074610476.0,,https://www.facebook.com/bhcllc21/,10035-000,Contractors - General,5/28/09 0:00,,False,NR,0.0,1.0,0.0,False,Micro-small,False,11/23/22 9:43,Search,200,
329,1929,704,1000006275,"Hutchison Excavating, LLC",20511 Lindberg Road,,Deerwood,MN,56444.0,USA,2188515736.0,,https://www.parishesonline.com/supporter/hutchison-excavating-llc,10050-000,Excavating Contractors,3/13/09 0:00,,False,A+,100.0,1.0,0.0,False,Micro-small,False,1/5/20 4:18,Search,200,
330,1930,704,1000002815,Christensen Guns & Gunsmith,3894 Highway 119,,Orr,MN,55771.0,USA,2187573530.0,,https://christensenarms.com/,50608-000,Sporting Goods - Retail,,,False,NR,0.0,1.0,0.0,False,Micro-small,False,1/29/23 8:37,Search,200,
331,1931,704,1000001318,Voss Utility & Plumbing,885 Katydid Ln NE,,Saint Michael,MN,55376.0,USA,7634974577.0,,https://vossupinc.com/,10113-100,Plumbers - Commercial,1/1/05 0:00,,False,NR,0.0,15.0,0.0,False,Small,False,11/29/22 9:07,Search,200,
332,1932,704,1000000094,MN heat Basketball,3227 Pecks Woods Turn,,New Brighton,MN,55112.0,USA,,,https://www.minnesotaheat.net/,60073-000,Athletic Organizations,,,False,NR,0.0,1.0,0.0,False,Micro-small,False,10/14/22 8:13,Search,200,
333,1933,704,1000002700,Angel Globe Gifts,1047 Portland Jct NE,,Portland,ND,58274.0,USA,7017862522.0,,https://www.facebook.com/marketplace/112548152092705/snow-globes/,50310-000,Gift Shops,,,False,NR,0.0,1.0,0.0,False,Micro-small,False,1/30/23 8:33,Search,200,
334,1934,704,1000001387,Continental Rehab Llc,10700 Old County Road 15 # 300,,Minneapolis,MN,55441.0,USA,9525460366.0,,https://www.yellowpages.com/minneapolis-mn/mip/continental-rehabilitation-478966991,60205-000,Chiropractors D.C.,1/1/06 0:00,5/18/16 0:00,False,NR,0.0,4.0,,False,Micro-small,False,5/20/19 4:18,Search,200,
335,1935,704,1000002249,Campus Travel LLC,2506 Riverside Ave,,Minneapolis,MN,55454.0,USA,6123386705.0,,https://www.yellowpages.com/minneapolis-mn/mip/campus-travel-4528531,70632-000,Travel Agencies & Bureaus,,,False,NR,0.0,1.0,0.0,False,Micro-small,False,1/30/23 8:34,Search,200,
336,1936,704,1000006506,"Crying Hill Antiques, LLC",1100 crying hill,,Fort Rice,ND,58554.0,USA,7016678894.0,,https://www.facebook.com/events/ag-building-red-river-valley-fairgrounds-west-fargo-nd/crying-hill-antique-show-and-sale/881608328616398/,50014-000,Antiques - Dealers,5/27/08 0:00,,False,A+,100.0,1.0,0.0,False,Micro-small,False,10/17/22 7:54,Search,200,
337,1937,704,1000004556,Aquatic Restoration,1416 10th Ave N,,Saint Cloud,MN,56303.0,USA,3203638328.0,,https://www.pca.state.mn.us/sites/default/files/wq-ws4-07a.pdf,10035-000,Contractors - General,1/1/86 0:00,1/3/20 0:00,False,NR,0.0,1.0,,False,Micro-small,False,9/4/20 4:07,Search,200,
338,1938,704,1000006226,"W C Peterson Excavating, LLC",1115 County Road 8 NE,,Federal Dam,MN,56641.0,USA,2186545282.0,,http://federaldam.com/wordpress/?p=142,10050-000,Excavating Contractors,1/1/11 0:00,,False,A+,100.0,1.0,0.0,False,Micro-small,False,4/28/22 8:18,Search,200,
339,1939,704,1000004296,Glory Shine Cleaning,260 Ikola Rd,,Esko,MN,55733.0,USA,2188793817.0,,https://duluthmncoc.weblinkconnect.com/Cleaning-Services/Glory-Shine-Cleaning-1877,66002-000,Cleaning Services,2/18/86 0:00,,False,NR,0.0,1.0,0.0,False,Micro-small,False,12/4/22 9:03,Search,200,
340,1940,704,1000006135,Frank's Handyman & Carpenter Service,2521 60th St NE,,Rugby,ND,58368.0,USA,7012600789.0,,https://www.homeyou.com/frank39s-handyman-carpenter-service-rugby-nd,15035-000,Handyman Services,12/26/12 0:00,,False,A+,100.0,1.0,0.0,False,Micro-small,False,8/19/21 4:22,Search,200,
341,1941,704,1000002361,Premier Custom Homes Inc,1801 East 5th Street,,Duluth,MN,55812.0,USA,7632913273.0,,https://www.premierhomesmn.com/,10035-000,Contractors - General,9/14/15 0:00,4/2/18 0:00,False,NR,0.0,1.0,0.0,False,Micro-small,False,4/6/21 4:16,Search,200,
342,1942,704,1000000054,Herzl Camp,4330 Cedar Lake Rd S,,Minneapolis,MN,55416.0,USA,9529274002.0,,https://herzlcamp.org/,60179-000,Camps,2/8/08 0:00,,False,NR,0.0,1.0,0.0,False,Micro-small,False,10/4/22 8:07,Search,200,
343,1943,704,1000001519,Miller Trucking,PO Box 414,,Isle,MN,56342.0,USA,3206763421.0,,https://miller-trucking.business.site/,70637-000,Trucking - Heavy Hauling,1/1/84 0:00,,False,NR,0.0,1.0,0.0,False,Micro-small,False,1/31/23 8:46,Search,200,
344,1944,704,1000006074,Bridge Builder Software,16449 54th St SE,,Kindred,ND,58051.0,USA,7014289900.0,,https://www.kyndryl.com/us/en,60236-000,Computer Software Publishers & Developers,7/7/05 0:00,7/14/21 0:00,False,NR,0.0,1.0,0.0,False,Micro-small,False,7/16/21 4:18,Search,200,
345,1945,704,1000006153,Michael Davis Repairs,17261 Park Cir,,Eden Prairie,MN,55346.0,USA,6122554583.0,,https://www.dandb.com/businessdirectory/michaeldavisrepairs-edenprairie-mn-6717817.html,10177-000,Construction & Remodeling Services,10/15/98 0:00,,False,A+,100.0,1.0,0.0,False,Micro-small,False,1/4/20 4:16,Search,200,
346,1946,704,1000004821,Capital Courier,690 Wheeler St N,,Saint Paul,MN,55104.0,USA,6514885900.0,,https://www.capitalexpress.biz/locations/st-cloud-2/,70640-000,Trucking,1/1/02 0:00,1/7/08 0:00,False,NR,0.0,10.0,,False,Micro-small,False,9/26/18 4:59,Search,200,
347,1947,704,1000002018,Locktech,PO Box 8022,,Fargo,ND,58109.0,USA,7017301590.0,,https://www.locktech.com/,60522-000,Locks & Locksmiths,1/1/09 0:00,1/10/20 0:00,False,NR,0.0,1.0,0.0,False,Micro-small,False,1/16/23 8:36,Search,200,
348,1948,704,1000002436,Buggy Bath Car Wash,6251 Queensland Ln N,,Osseo,MN,55311.0,USA,6513301438.0,,https://buggybathcarwash.com/,60180-000,Car Wash & Polish,,,False,NR,0.0,1.0,0.0,False,Micro-small,False,1/30/23 8:34,Search,200,
349,1949,704,1000005428,Bluff Creek Construction Company,1401 Hesse Farm Rd,,Chaska,MN,55318.0,USA,9524454552.0,,https://www.b2byellowpages.com/company-information/094329297-bluff-creek-construction.html,10177-000,Construction & Remodeling Services,12/31/08 0:00,,False,NR,0.0,1.0,0.0,False,Micro-small,False,12/26/22 8:46,Search,200,
350,1950,704,1000002972,Integrity Carpet Cleaning,15631 Darling Path,,Rosemount,MN,55068.0,USA,6513224935.0,,https://www.facebook.com/IntegrityCarpetCleaningServices/,60184-000,Carpet & Rug Cleaners,,,False,NR,0.0,1.0,0.0,False,Micro-small,False,1/29/23 8:36,Search,200,
351,1951,704,1000004942,Lakestone Builders,12605 Ottawa Ave,,Savage,MN,55378.0,USA,6124790710.0,,https://www.facebook.com/Lakestone-Builders-1630302117085434/,10099-000,Patio & Deck Builders,12/1/15 0:00,,False,A+,100.0,1.0,0.0,False,Micro-small,False,2/12/22 9:24,Search,200,
352,1952,704,1000005863,Dauk Construction Inc,22274 Oriole Rd,,Madison Lake,MN,56063.0,USA,5073515993.0,,https://daukconstruction.com/,10177-000,Construction & Remodeling Services,5/23/05 0:00,,False,A+,100.0,1.0,0.0,False,Micro-small,False,1/11/20 5:36,Search,200,
353,1953,704,1000004957,Arnold Heberling Construction LLC,330 Maple Ave N,,Annandale,MN,55302.0,USA,3202741449.0,,https://opencorporates.com/companies/us_mn/45fdd484-97d4-e011-a886-001ec94ffe7f,10177-000,Construction & Remodeling Services,5/3/11 0:00,1/6/19 0:00,False,NR,0.0,1.0,0.0,False,Micro-small,False,1/11/22 9:34,Search,200,
354,1954,704,1000001515,Mbd Merchant,25 Birch Ave S,,Maple Lake,MN,55358.0,USA,3209637345.0,,http://www.salespider.com/b-195851076/m-b-d-merchant-faith-filled-gifts,50085-000,Books - New,,,False,NR,0.0,1.0,,False,Micro-small,False,5/24/22 8:16,Search,200,
355,1955,704,1000005460,"David B. Lee, CPA, LLC",5000 Mirror Lakes Dr,,Minneapolis,MN,55436.0,USA,9522700090.0,,https://taxrpo.com/preparer/david-lee-minneapolis-mn/,60005-000,Accountants,5/11/12 0:00,,False,NR,0.0,1.0,0.0,False,Micro-small,False,12/26/22 8:45,Search,200,
356,1956,704,1000005047,"Brady Dreyer Construction, LLC",821 Nicollet Ave,,North Mankato,MN,56003.0,USA,5073888047.0,,https://opencorporates.com/companies/us_mn/6f6a1f87-94d4-e011-a886-001ec94ffe7f,10035-000,Contractors - General,1/13/10 0:00,,False,A+,100.0,1.0,0.0,False,Micro-small,False,3/18/21 4:08,Search,200,
357,1957,704,1000005018,"D.L. Remodeling, LLC",6575 Killdeer Dr,,Lino Lakes,MN,55014.0,USA,6128010787.0,,https://www.facebook.com/dave.larson.501/,10177-000,Construction & Remodeling Services,,,False,NR,0.0,1.0,0.0,False,Micro-small,False,2/5/23 8:42,Search,200,
358,1958,704,1000006766,All Metro Glass,1387 Cope Ave E,,Saint Paul,MN,55109.0,USA,6517771910.0,,https://foursquare.com/v/all-metro-glass/504f9a69e4b044b0249823fc,50110-000,Building Materials,1/1/08 0:00,,False,NR,0.0,50.0,0.0,False,Micro-small,False,2/8/23 9:28,Search,200,
359,1959,704,1000004746,E & L Electric,61785 Kirkwood Dr,PO Box 65,Warroad,MN,56763.0,USA,2183862138.0,,https://www.facebook.com/EandLElectric/,10049-000,Electricians,9/30/93 0:00,,False,NR,0.0,3.0,0.0,False,Micro-small,False,1/23/23 8:35,Search,200,
360,1960,704,1000006718,JMS Custom Services,590 Main Ave. W.,,Winsted,MN,55395.0,USA,3204852261.0,,https://www.facebook.com/jmscustomservices/,60107-700,Auto Repair - Maintenance,1/3/79 0:00,,False,A+,100.0,1.0,0.0,False,Micro-small,False,8/23/20 3:48,Search,200,
361,1961,704,1000001936,Aerosim Technologies,351 Cliff Rd E Ste 200,,Burnsville,MN,55337.0,USA,9528944694.0,,https://www.aerospace-technology.com/contractors/training/aerosim/,50173-000,Computers - Dealers,10/14/93 0:00,,False,A+,100.0,50.0,0.0,False,Micro-small,False,1/31/23 15:41,Search,200,
362,1962,704,1000003854,Doug Moe Construction LLC,360 Williams St,,Lewiston,MN,55952.0,USA,5075232803.0,,https://opencorporates.com/companies/us_mn/aec3b4f8-94d4-e011-a886-001ec94ffe7f,10035-000,Contractors - General,12/15/09 0:00,,False,NR,0.0,1.0,0.0,False,Micro-small,False,1/24/23 8:58,Search,200,
363,1963,704,1000005502,Edina Market & Deli,7102 Amundson Ave,,Edina,MN,55439.0,USA,9529425216.0,,https://www.menupix.com/twincities/restaurants/478674/Edina-Market-Deli-Edina-MN,50278-000,Foods - Carry Out,9/19/16 0:00,,False,NR,0.0,1.0,0.0,False,Micro-small,False,12/26/22 8:45,Search,200,
364,1964,704,1000005530,Goode Snow Plowing,9132 Upton Ave S,,Minneapolis,MN,55431.0,USA,9528885885.0,,https://nextdoor.com/pages/goode-snow-plowing-minneapolis-mn/,60478-000,Janitor Service,1/1/08 0:00,,False,A+,100.0,1.0,0.0,False,Micro-small,False,12/21/22 9:22,Search,200,
365,1965,704,1000005490,Dakota Craftsman,4011 Glendale Dr,,Excelsior,MN,55331.0,USA,6127600628.0,,https://nextdoor.com/pages/dakota-craftsman-excelsior-mn/,10019-000,Carpenters,5/1/09 0:00,,False,A+,100.0,1.0,0.0,False,Micro-small,False,3/10/20 4:10,Search,200,
366,1966,704,1000006240,"Acorn Builders, LLC",1303 48th St SW,,Pine River,MN,56474.0,USA,2185685353.0,,https://www.dandb.com/businessdirectory/acornbuildersllc-pineriver-mn-2121789.html,60057-000,Architects,4/12/04 0:00,,False,NR,0.0,1.0,0.0,False,Micro-small,False,1/3/23 8:39,Search,200,
367,1967,704,1000005193,Wildflowers Floral and Gift L. L. C.,38830 Forest Blvd,,North Branch,MN,55056.0,USA,6516746280.0,,https://www.oldhighway61.com/listings/wildflowers-floral-and-gift-llc/,50275-000,Florists - Retail,5/25/12 0:00,,False,NR,0.0,1.0,0.0,False,Micro-small,False,10/28/22 8:24,Search,200,
368,1968,704,1000000189,Blast Pro Contracting Inc,1016 17th St Ne,,Mandan,ND,58554.0,USA,7016631112.0,,https://www.yellowpages.com/mandan-nd/mip/blast-pro-contracting-inc-15272294,10035-000,Contractors - General,1/1/06 0:00,,False,NR,0.0,2.0,0.0,False,Micro-small,False,5/11/22 13:48,Search,200,
369,1969,704,1000005040,Brad Gusa Construction LLC,PO Box 205,,Kellogg,MN,55945.0,USA,6513804017.0,,https://safer.fmcsa.dot.gov/query.asp?searchtype=ANY&query_type=queryCarrierSnapshot&query_param=USDOT&query_string=1193776,10035-000,Contractors - General,5/7/15 0:00,,False,NR,0.0,1.0,0.0,False,Micro-small,False,12/20/22 8:57,Search,200,
370,1970,704,1000003284,Northside Motors,22285 Raven St Nw,,Cedar,MN,55011.0,USA,7637532972.0,,https://zaubee.com/biz/northside-motors-7di91z4a,60103-000,Auto Repair & Service,8/30/10 0:00,,False,A+,100.0,4.0,0.0,False,Micro-small,False,12/8/20 4:09,Search,200,
371,1971,704,1000002940,Kapala Glodek Funeral Chapels,7800 Bass Lake Rd,,New Hope,MN,55428.0,USA,7635354112.0,,https://everloved.com/funeral-homes/MN/new-hope/kapala-glodek-malone-funeral-home-new-hope-mn-55428/,62000-000,Funeral Homes,,,False,A+,100.0,1.0,0.0,False,Micro-small,False,2/2/23 8:52,Search,200,
372,1972,704,1000001695,Amundson's Window Cleaning,520 6th Ave S,,South Saint Paul,MN,55075.0,USA,6512482321.0,,https://www.amundsonwindowcleaning.com/,60954-000,Window Cleaning,1/1/07 0:00,5/27/16 0:00,False,NR,0.0,1.0,,False,Micro-small,False,6/22/21 4:12,Search,200,
373,1973,704,1000000146,Jlf Homes,5145 Industrial St # 1,,Maple Plain,MN,55359.0,USA,7634790795.0,,https://www.facebook.com/jlf.homebuilders/,10035-000,Contractors - General,5/3/05 0:00,,False,NR,0.0,3.0,0.0,False,Micro-small,False,4/16/22 8:14,Search,200,
374,1974,704,1000005458,Pearl Lawn Care,594 Sunwood Park Dr,,Waite Park,MN,56387.0,USA,3202233363.0,,https://lawn-services.cmac.ws/pearl-lawn-care/50283/,00157-000,Lawn Maintenance,1/11/13 0:00,2/4/20 0:00,False,NR,0.0,1.0,0.0,False,Micro-small,False,2/6/23 8:28,Search,200,
375,1975,704,1000005434,Building Modern Homes,7725 74th St S,,Cottage Grove,MN,55016.0,USA,7637970456.0,,https://www.houzz.com/professionals/home-builders/cottage-grove-mn-us-probr0-bo~t_11823~r_5022134,10177-000,Construction & Remodeling Services,10/4/07 0:00,,False,A+,100.0,1.0,0.0,False,Micro-small,False,3/16/21 4:00,Search,200,
376,1976,704,1000002918,Franklin Labels,200 State Highway 19,,Franklin,MN,55333.0,USA,5075572294.0,,http://www.franklinpackaging.com/,30326-000,"Laminations - Plastic, Paper",1/1/99 0:00,,False,NR,0.0,8.0,0.0,False,Micro-small,False,3/10/21 4:42,Search,200,
377,1977,704,1000002830,Heartland Machine & Tool Inc,1737 SE 13th St,,Brainerd,MN,56401.0,USA,2188298508.0,,http://www.heartlandmt.com/,85278-000,Metal Fabricators,6/7/00 0:00,,False,NR,0.0,6.0,0.0,False,Micro-small,False,10/16/22 8:03,Search,200,
378,1978,704,1000005888,Addicott Construction,8094 60th St NW,,Belden,ND,58784.0,USA,7016290606.0,,https://www.superpages.com/palermo-nd/roofing-contractors,10126-000,Roofing Contractors,4/23/08 0:00,,False,NR,0.0,1.0,0.0,False,Micro-small,False,1/2/23 8:49,Search,200,
379,1979,704,1000004759,Eastside Liquor,2314 Hendrickson Rd,,Albert Lea,MN,56007.0,USA,5073772773.0,,https://business.albertlea.org/list/member/eastside-liquor-albert-lea-4106,50399-000,Liquor Stores,3/2/11 0:00,,False,NR,0.0,1.0,0.0,False,Micro-small,False,1/10/23 8:49,Search,200,
380,1980,704,1000005822,B2C Construction LLC,886 Rose Ave E,,Saint Paul,MN,55106.0,USA,6517958796.0,,https://www.facebook.com/people/B2C-Construction-LLC/100063848341175/,10035-000,Contractors - General,6/17/08 0:00,,False,NR,0.0,1.0,0.0,False,Micro-small,False,12/30/22 8:56,Search,200,
381,1981,704,1000004808,Ecco Painting,5595 Hurron St SE ,,Prior Lake,MN,55372.0,USA,6124434061.0,,https://www.whodoyou.com/biz/1313950/ecco-painting-mn-prior-lake-mn,10095-300,Painters - Commercial or Residential,2/8/16 0:00,7/1/19 0:00,False,NR,0.0,1.0,0.0,False,Micro-small,False,7/8/22 12:28,Search,200,
382,1982,704,1000004772,Rental Resolutions,6066 Shingle Creek Pkwy # 304,,Brooklyn Ctr,MN,55430.0,USA,7637727417.0,,https://www.ci.brooklyn-center.mn.us/government/departments/community-development/rental-program?locale=en,60733-000,Real Estate Rental Service,3/25/16 0:00,,False,NR,0.0,1.0,0.0,False,Micro-small,False,2/9/22 9:42,Search,200,
383,1983,704,1000006752,Grippers Sports,408 Dakota Ave,,Wahpeton,ND,58075.0,USA,7016422044.0,,https://www.facebook.com/Grippers5/,50608-000,Sporting Goods - Retail,11/5/10 0:00,,False,A+,100.0,1.0,0.0,False,Micro-small,False,1/22/20 5:34,Search,200,
384,1984,704,1000005890,Discount Mattresses,803 18th Ave NW,,Austin,MN,55912.0,USA,5073968288.0,,https://www.austinmattress.com/,50419-000,Mattresses,10/3/16 0:00,3/26/18 0:00,False,NR,0.0,1.0,0.0,False,Micro-small,False,3/30/21 3:56,Search,200,
385,1985,704,1000001513,Rick's Car Cleaning & Detailing,163 4th St S,,Winsted,MN,55395.0,USA,3204854269.0,,https://car-washes.cmac.ws/ricks-car-cleaning-detailing/18623/,60180-000,Car Wash & Polish,1/1/97 0:00,5/12/16 0:00,False,NR,0.0,1.0,,False,Micro-small,False,5/13/19 4:10,Search,200,
386,1986,704,1000005355,"HardStone Concrete, Incorporated",7074 44th St N,,Oakdale,MN,55128.0,USA,6514892200.0,,https://www.dexknows.com/oakdale-mn/bp/hardstone-concrete-incorporated-452627874,10032-000,Concrete Contractors,4/15/09 0:00,5/4/21 0:00,False,NR,0.0,1.0,0.0,False,Micro-small,False,5/6/21 4:18,Search,200,
387,1987,704,1000005552,Scoops Liquor,121 Swan St,,Le Sueur,MN,56058.0,USA,5076652206.0,,https://m.facebook.com/profile.php?id=149721245053322,50399-000,Liquor Stores,12/18/78 0:00,,False,NR,0.0,1.0,0.0,False,Micro-small,False,12/26/22 8:45,Search,200,
388,1988,704,1000000045,Commercial Millwork Solutions,15051 Biscayne Ave W,,Rosemount,MN,55068.0,USA,6513227968.0,,https://www.visualvisitor.com/companies/4817014/commercial-millwork-solutions-inc.,30401-000,Millwork,,,False,NR,0.0,20.0,0.0,False,Small,False,1/31/23 8:46,Search,200,
389,1989,704,1000001444,Decorative Concrete Designs,36435 615th Ave,,Gibbon,MN,55335.0,USA,5072171189.0,,https://www.pinterest.com/pin/528821181224308142/,10032-000,Concrete Contractors,5/9/16 0:00,7/1/19 0:00,False,NR,0.0,1.0,0.0,False,Micro-small,False,7/8/22 12:28,Search,200,
390,1990,704,1000005163,Northwoods Guitar Shop,6382 Main St,,North Branch,MN,55056.0,USA,6519640584.0,,https://foursquare.com/v/northwoods-guitar-shop/565e82f9498e70d23ef89ead,50010-100,Guitars & Amplifiers,11/22/15 0:00,,False,NR,0.0,1.0,0.0,False,Micro-small,False,5/12/22 8:38,Search,200,
391,1991,704,1000002225,"Toohey Law Firm, P.A.","11108 Zealand Avenue North, Suite 203",,Champlin,MN,55316.0,USA,7637460845.0,,https://tooheylawfirm.com/,60075-000,Attorneys & Lawyers,1/24/14 0:00,,False,NR,0.0,1.0,0.0,False,Micro-small,False,10/9/22 8:05,Search,200,
392,1992,704,1000001392,Universal AM-Can Ltd,656 Pelham Blvd Ste 1,,Saint Paul,MN,55114.0,USA,6519177771.0,,https://www.superpages.com/saint-paul-mn/bpp/universal-truckload-25749022,70640-000,Trucking,,6/3/16 0:00,False,NR,0.0,50.0,,False,Medium,False,11/13/21 3:59,Search,200,
393,1993,704,1000001370,Trosen Construction,11211 33rd St Se,,Valley City,ND,58072.0,USA,7018454236.0,,https://www.dandb.com/businessdirectory/trosenconstruction-valleycity-nd-16126833.html,10126-000,Roofing Contractors,6/30/09 0:00,,False,NR,0.0,3.0,0.0,False,Micro-small,False,5/11/22 8:37,Search,200,
394,1994,704,1000001963,"Peck Home & Deck, LLC",2044 14th St SE,,Rochester,MN,55904.0,USA,5079931206.0,,https://www.facebook.com/peckhomeanddeck/,10099-100,Deck - Repair,7/1/13 0:00,,False,A+,100.0,1.0,0.0,False,Micro-small,False,1/30/23 21:33,Search,200,
395,1995,704,1000001715,Fairbanks Properties Llc,15417 Hanson Blvd NW,,Andover,MN,55304.0,USA,7634341902.0,,https://411.info/business/Fairbanks-Properties-Llc-Andover-MN-8743349,60732-000,Property Management,1/1/06 0:00,4/21/14 0:00,False,NR,0.0,3.0,,False,Micro-small,False,3/19/18 4:34,Search,200,
396,1996,704,1000005188,Gene's Landscaping,PO Box 10913,,Fargo,ND,58106.0,USA,7017810064.0,,https://www.superpages.com/fargo-nd/bpp/genes-landscaping-530643204,00155-000,Landscape Contractors,1/1/10 0:00,,False,A+,100.0,1.0,0.0,False,Micro-small,False,9/25/21 4:01,Search,200,
397,1997,704,1000005859,Darrel Carr Construction LLC,36305 Hubble Pond Rd,,Rochert,MN,56578.0,USA,2188495315.0,,https://safer.fmcsa.dot.gov/query.asp?searchtype=ANY&query_type=queryCarrierSnapshot&query_param=USDOT&query_string=2919601,10177-000,Construction & Remodeling Services,7/21/09 0:00,,False,A+,100.0,1.0,0.0,False,Micro-small,False,6/18/22 8:23,Search,200,
398,1998,704,1000003099,Bitzan Machine,12483 Lakes Rd NW,,Millerville,MN,56315.0,USA,3208345302.0,,https://www.schaffermachine.com/about,30370-000,Machinery - New,1/1/00 0:00,,False,NR,0.0,8.0,0.0,False,Micro-small,False,1/29/23 8:37,Search,200,
399,1999,704,1000004507,"Threadmasters Precision Machining, LLC",4813 Front St W,,Bonetraill,ND,58801.0,USA,3037791900.0,,https://www.facebook.com/mazakmaniac/,30366-000,Machine Shops,7/28/15 0:00,,False,NR,0.0,1.0,0.0,False,Micro-small,False,12/4/22 9:03,Search,200,
