BBBID,BusinessID,BusinessName,StreetAddress,StreetAddress2,City,StateProvince,PostalCode,Country,Phone,Email,Website,TOBID,DateBusinessStarted,DateBusinessClosed,IsBBBAccredited,BBBRatingGrade,BBBRatingScore,NumberOfEmployees,NumberOfPartTimeEmployees,IsHQ,SizeOfBusiness,IsCharity,CDWLastUpdate
704,10,Able Movers LLC,12285 Rush Cir NW,,Elk River,MN,55330,USA,8007052906,info@AbleMovingCorp.com,https://www.ablemovingcorp.com/,70571-000,1/1/1969 0:00,4/14/2005 0:00,FALSE,NR,0,10,0,FALSE,Micro-small,FALSE,6/22/2022 11:32
704,100,Bob & Carl&#39;s Auto Body,107 Central Ave,,Osseo,MN,55369,USA,7634252177,info@bobandcarls.com,http://www.bobandcarls.com,60094-000,1/5/1969 0:00,,FALSE,A+,100,8,0,FALSE,Small,FALSE,7/29/2022 8:29
704,10000,Little Co Inc The,17766 Langford Blvd,,Prior Lake,MN,55372,USA,9524475922,,,10078-000,1/1/1973 0:00,10/22/2018 0:00,FALSE,NR,0,5,0,FALSE,Micro-small,FALSE,12/13/2022 9:02
704,1000000000,The File Depot,2110 W 98th St,,Bloomington,MN,55431,USA,6124446345,chuckpittman@thefiledepot.com,http://thefiledepot.com,60632-200,6/18/2015 0:00,,FALSE,A+,100,1,0,FALSE,Micro-small,FALSE,12/2/2022 9:29
704,1000000001,Tree Trust Landscape Services,1419 Energy Park Dr,,Saint Paul,MN,55108,USA,9527673880,jareds@treetrust.org,https://treetrust.org/,60330-000,3/16/1976 0:00,,TRUE,A+,100,20,0,FALSE,Micro-small,FALSE,1/13/2023 9:01
704,1000000002,Domino's Pizza,1058 Enterprise Dr E,,Belle Plaine,MN,56011,USA,9528732020,,Twitter › dominos,50544-000,,,FALSE,NR,0,,0,FALSE,Micro-small,FALSE,2/1/2020 4:31
704,1000000003,Vetter Homes Inc,Po Box 7142,,Bismarck,ND,58507,USA,7012233236,,,10035-000,3/29/2016 0:00,,FALSE,NR,0,1,0,FALSE,Micro-small,FALSE,4/13/2022 8:06
704,1000000004,Leimer Construction,106 N 6th Ave E,,Truman,MN,56088,USA,5077762350,,,10035-000,1/1/2010 0:00,,FALSE,NR,0,4,0,FALSE,Micro-small,FALSE,1/7/2023 9:07
704,1000000005,Karja Construction,2781 62nd St Nw,,Maple Lake,MN,55358,USA,6129681882,,,10177-000,1/1/2001 0:00,,FALSE,A+,100,3,0,FALSE,Micro-small,FALSE,9/29/2022 8:50
704,1000000007,Verndale Custom Builders,302 E Mason Ave,,Verndale,MN,56481,USA,2184456006,info@verndalecustombuilders.com,http://www.verndalecustombuilders.com/,10078-000,1/14/2013 0:00,,FALSE,A+,100,6,0,FALSE,Small,FALSE,12/2/2022 9:29
704,1000000009,"Larry Brooks Builders, Inc.",185 High Point Pl NE Ste 101,,Byron,MN,55920,USA,5077756244,,,10035-000,3/4/2003 0:00,,FALSE,NR,0,1,0,FALSE,Micro-small,FALSE,10/4/2022 8:07
704,1000000010,Kottkes&#39; Bus Service,13625 Jay St NW,,Andover,MN,55304,USA,7637558506,,http://kottkesbus.com/,70529-000,12/19/1961 0:00,,FALSE,NR,0,1,0,FALSE,Micro-small,FALSE,11/15/2022 9:11
704,1000000011,Metrowide Legal Services,15050 Cedar Ave Ste 116-259,,Apple Valley,MN,55124,USA,6129784454,baker@metrowidelegal.com,http://www.metrowidelegal.com/,60075-000,12/9/2010 0:00,,FALSE,A+,100,1,0,FALSE,Micro-small,FALSE,3/14/2020 4:18
704,1000000012,Midwest Canine,775 40th Ave,,Beaver Creek,MN,56116,USA,5076732571,midwestcanine@earthlink.net,http://www.midwestcanine.com/,05195-000,,,FALSE,NR,0,1,0,FALSE,Micro-small,FALSE,11/1/2022 8:13
704,1000000013,Holysmokerpits,5689 Hermantown rd,,Hermantown ,MN,55810,USA,2184612791,,,80467-200,,,FALSE,NR,0,1,0,FALSE,Micro-small,FALSE,11/13/2022 9:01
704,1000000014,Lewk,945 Broadway ST NE #160,,Minneapolis,MN,55413,USA,6122008647,hr@lewk.com,,55093-000,4/1/2015 0:00,,FALSE,A+,100,1,0,FALSE,Micro-small,FALSE,12/7/2022 9:09
704,1000000015,Longleaf Reclaimed Timber,416 35th Ave NE,,Minneapolis,MN,55418,USA,6124904315,longleafreclaimedtimber@gmail.com,,50291-000,,,FALSE,A+,100,1,0,FALSE,Micro-small,FALSE,7/8/2022 12:27
704,1000000016,Live Tree Nursery,146 Wilderness Way,,Good Thunder,MN,56037,USA,5072783414,,,00155-000,1/1/1984 0:00,,FALSE,NR,0,1,0,FALSE,Micro-small,FALSE,4/13/2022 8:06
704,1000000017,"AAA Construction, LLC",8849 Branson Dr,,Inver Grove,MN,55076,USA,6127200881,lorchgreg@yahoo.com,,10177-000,12/30/2008 0:00,,FALSE,A+,100,1,0,FALSE,Micro-small,FALSE,5/4/2021 4:06
704,1000000018,Favorfloat Corporation,4111 Central Ave NE Ste 203,,Columbia Hts,MN,55421,USA,7637880221,pjegede@aol.com,http://www.favorfloat.com,90027-200,11/26/2014 0:00,,FALSE,A+,100,2,0,FALSE,Micro-small,FALSE,12/2/2022 9:29
704,1000000019,Discount Plumbing and Drain Cleaning ,4318 Upton Ave S Ste 210,,Minneapolis,MN,55410,USA,6124443540,dispatch@asapmn.com,https://www.discountplumbers.com,10113-000,4/3/2012 0:00,,TRUE,A+,100,20,0,FALSE,Small,FALSE,1/10/2023 8:49
704,1000000020,"Ron&#39;s Auto Repair of Mankato, LLC",22695 589th Ave,,Mankato,MN,56001,USA,5073860660,ronsautorepairmankato@gmail.com,http://www.ronsautorepairmankato.com,60103-000,4/1/2002 0:00,,FALSE,A+,100,3,0,FALSE,Micro-small,FALSE,11/30/2022 9:27
704,1000000021,Black Jack Seal Coating,3520 84th Cir N,,Brooklyn Park,MN,55443,USA,6129103032,,,85295-000,4/13/2015 0:00,1/30/2017 0:00,FALSE,NR,0,1,0,FALSE,Micro-small,FALSE,2/16/2019 4:06
704,1000000022,Klein Lawn Care,14268 Underclift St NW,,Andover,MN,55304,USA,7635670493,,,00157-000,8/12/2009 0:00,10/14/2019 0:00,FALSE,NR,0,1,0,FALSE,Micro-small,FALSE,12/11/2020 4:12
704,1000000023,"Schaper Engineering, LLC",PO Box 26,,Mound,MN,55364,USA,7635673035,craig@schaperengineering.com,https://schaperengineering.com/,60339-000,10/1/2013 0:00,,TRUE,A+,100,1,0,FALSE,Micro-small,FALSE,7/8/2022 12:27
704,1000000024,new 2 you,501 Broadway W,,Little Falls,MN,56345,USA,3206392232,,,50655-000,,,FALSE,NR,0,,0,FALSE,Micro-small,FALSE,2/1/2020 4:31
704,1000000025,River and Son,79 Wendy Ct,,Shoreview,MN,55126,USA,6517282144,,,10177-000,3/31/2016 0:00,,FALSE,NR,0,1,0,FALSE,Micro-small,FALSE,7/9/2022 8:20
704,1000000026,Insurance Specialists Team,530 Jefferson Blvd,,Big Lake,MN,55309,USA,7632443735,tim@istmn.com,http://www.insurancespecialiststeam.com,20080-000,3/2/2001 0:00,,FALSE,A+,100,11,0,FALSE,Micro-small,FALSE,12/2/2022 9:29
704,1000000027,Blackduck Auto Parts Inc,25730 Highway 71 Ne,,Blackduck,MN,56630,USA,2188354278,,,50342-000,1/1/1984 0:00,,FALSE,NR,0,1,0,FALSE,Micro-small,FALSE,4/10/2022 8:12
704,1000000028,"Justice Lawn Care & Landscaping, LLC",23255 128th St NW,,Elk River,MN,55330,USA,6122503893,tim@justicelandscaping.com,http://www.justicelawncare.com/,00157-000,7/6/2009 0:00,,FALSE,A+,100,2,0,FALSE,Micro-small,FALSE,12/7/2022 9:09
704,1000000029,Code 3 Construction LLC,3233 Greenbrier St,,Vadnais Heights,MN,55127,USA,6512602892,,,10177-000,,,FALSE,A+,100,1,0,FALSE,Micro-small,FALSE,12/21/2022 9:22
704,1000000030,Northland Water Service Inc,27067 661st Ave,,Gibbon,MN,55335,USA,5078346496,bdscherer08@yahoo.com,,30370-000,1/1/1984 0:00,,FALSE,A+,100,2,0,FALSE,Micro-small,FALSE,12/2/2022 9:29
704,1000000031,D W Sampson Center & Services,23245 Sunset Rd NE,,Bethel,MN,55005,USA,6122215884,dwsampsonconst@gmail.com,,10035-000,8/1/2001 0:00,,FALSE,A+,100,1,0,FALSE,Micro-small,FALSE,12/2/2022 9:29
704,1000000032,A Clean Home,9116 Portland Ave S,,Bloomington,MN,55420,USA,9524869666,acleanhomemn@gmail.com,,66002-000,4/6/2010 0:00,,FALSE,A+,100,1,0,FALSE,Micro-small,FALSE,12/22/2022 9:08
704,1000000033,"ABC BookWerks, LLC",2420 E 117th St Ste 100,,Burnsville,MN,55337,USA,6122422120,amy@bookwerks.com,http://www.abcbookwerks.com,60155-000,4/3/2013 0:00,,FALSE,A+,100,1,0,FALSE,Micro-small,FALSE,12/2/2022 9:29
704,1000000034,Dawn Farrington - Re/Max Results,604 Bielenberg Dr Ste 100,,Saint Paul,MN,55125,USA,6519837166,dawn.farrington@results.net,,60729-000,3/31/2016 0:00,,FALSE,A+,100,1,0,FALSE,Micro-small,FALSE,12/2/2022 9:29
704,1000000035,"Klein Lawn and Landscape,LLC",198 Griggs Street South,,Saint Paul,MN,55105,USA,6518955895,kleinlawnlandscape@gmail.com,https://www.facebook.com/kleinlawnandlandscape/,00157-000,2/21/2013 0:00,,FALSE,NR,0,1,0,FALSE,Micro-small,FALSE,12/5/2020 4:10
704,1000000036,Ang's Consignment Center,127 Main St,,Clinton,MN,56225,USA,3203439054,angsconsignmentcenter@hotmail.com,https://www.facebook.com/angocc/,50159-000,,8/14/2016 0:00,FALSE,NR,0,,,FALSE,Micro-small,FALSE,8/19/2019 4:05
704,1000000037,Peltier Plumbing,1023 Dwane St,,South Saint Paul,MN,55075,USA,6514556574,,,10003-000,8/30/2010 0:00,,FALSE,NR,0,3,0,FALSE,Micro-small,FALSE,4/13/2022 8:06
704,1000000038,Lakeside Lawn & Landscape,9166 Schaller Rd,,Pequot Lakes,MN,56472,USA,2185436726,,,00155-000,1/1/1988 0:00,,FALSE,NR,0,15,0,FALSE,Micro-small,FALSE,8/23/2022 8:27
704,1000000039,Lakeside Lawn Service,17856 County Road 145,,South Haven,MN,55382,USA,3205586902,,,00157-000,1/1/2010 0:00,4/1/2021 0:00,FALSE,NR,0,2,0,FALSE,Micro-small,FALSE,4/3/2021 4:03
704,1000000040,Robbinsdale Wine & Spirits,3501 Bottineau Blvd,,Robbinsdale,MN,55422,USA,7635379012,,http://www.robbinsdalemn.com/services/municipal-liquor-store,50399-000,4/1/2016 0:00,,FALSE,NR,0,1,0,FALSE,Micro-small,FALSE,10/14/2022 8:13
704,1000000041,Sky Visions,PO Box 311,,Elgin,ND,58533,USA,,,,70623-000,,,FALSE,NR,0,1,0,FALSE,Micro-small,FALSE,2/1/2020 4:31
704,1000000042,Heritage Xteriors,570 Braund St #5,,Onalaska,WI,54650,USA,8663829230,avanwinkle@heritageexteriors.us,http://www.heritagexteriors.com,10126-000,1/13/2015 0:00,,FALSE,NR,0,1,0,FALSE,Micro-small,FALSE,6/11/2022 8:14
704,1000000043,"Alternative Landscaping, LLC",1395 White Bear Ave N,,Saint Paul,MN,55106,,6123251523,jc@everlastingturfs.com,http://www.diyturfguru.com,30020-000,5/20/2002 0:00,,FALSE,A+,100,1,0,FALSE,Micro-small,FALSE,1/19/2023 8:51
704,1000000044,Albin Remodeling,1029 36th Ave W,,West Fargo,ND,58078,USA,7017300038,,,10177-000,,6/22/2021 0:00,FALSE,NR,0,1,0,FALSE,Micro-small,FALSE,7/21/2021 5:18
704,1000000045,Commercial Millwork Solutions,15051 Biscayne Ave W,,Rosemount,MN,55068,USA,6513227968,,,30401-000,,,FALSE,A+,99.59,20,0,FALSE,Small,FALSE,2/1/2020 4:31
704,1000000046,Caliber Products Inc.,12500 W. Frontage Road,,Burnsville,MN,55337,USA,9529859999,pauld@caliberproductsinc.com,http://www.caliberproductsinc.com,80680-000,5/9/1996 0:00,,FALSE,A+,100,1,0,FALSE,Micro-small,FALSE,12/2/2022 9:29
704,1000000047,Contract Textiles & Furnishing,17189 Hannibal Ct,,Lakeville,MN,55044,USA,9529977990,,,80496-000,,,FALSE,A+,100,1,0,FALSE,Micro-small,FALSE,10/16/2021 4:13
704,1000000048,Shack's Law PLLC,2355 Highway 36 W Ste 413,,Saint Paul,MN,55113,USA,6513334840,evan@shackslaw.com,http://www.shackslaw.com/,60075-000,6/4/2012 0:00,,FALSE,NR,0,1,0,FALSE,Micro-small,FALSE,4/3/2022 8:23
704,1000000049,Beloved Laser Tattoo Removal,1563 Como Ave,,Falcon Hgts,MN,55108,USA,6517973738,belovedlasertattooremoval@gmail.com,http://www.belovedlasertattooremoval.com,60855-000,4/1/2016 0:00,,FALSE,A+,100,1,0,FALSE,Micro-small,FALSE,12/2/2022 9:29
704,1000000050,Pinkham Tax & Accounting,1325 County Road D Cir E,,Saint Paul,MN,55109,USA,6518884050,lindsay@np-cpa.com,http://www.np-cpa.com,60005-000,4/1/2016 0:00,,FALSE,A+,100,1,0,FALSE,Micro-small,FALSE,12/2/2022 9:29
704,1000000051,"Stamp-n-Storage, Inc.",25 Michigan St SE Ste B,,Hutchinson,MN,55350,USA,8442390227,contact@stampnstorage.com,http://www.stampnstorage.com/,50194-000,,,FALSE,A+,100,1,0,FALSE,Micro-small,FALSE,4/22/2022 8:18
704,1000000052,Personalized Insurance Consulting Agency LLC,3021 E Minnehaha Pkwy,,Minneapolis,MN,55417,USA,6128400785,ekatajamaki@comcast.net,http://personalizedinsuranceconsulting.com/,20027-000,4/4/2016 0:00,,FALSE,A+,100,1,0,FALSE,Micro-small,FALSE,12/3/2022 9:06
704,1000000053,Uniform Advantage,8366 Highway 7,,Minneapolis,MN,55426,USA,9529333277,bheider@usstores.com,,60294-000,4/4/2016 0:00,,FALSE,A+,100,1,0,FALSE,Micro-small,FALSE,12/2/2022 9:29
704,1000000054,Herzl Camp,4330 Cedar Lake Rd S,,Minneapolis,MN,55416,USA,9529274002,,,60179-000,2/8/2008 0:00,,FALSE,NR,0,1,0,FALSE,Micro-small,FALSE,10/4/2022 8:07
704,1000000055,For Pet&#39;s Sake,11724 Ulysses St NE,,Blaine,MN,55434,USA,7633166827,info@4petssake.biz,,88300-000,4/7/2015 0:00,,FALSE,A+,100,3,0,FALSE,Small,FALSE,1/11/2023 9:00
704,1000000056,Traverse Counseling & Consulting,9800 Shelard Pkwy Ste 215,,Minneapolis,MN,55441,USA,9525955967,cb@traversecc.org,http://www.traversecc.org/,60540-000,7/15/2015 0:00,,FALSE,A+,100,1,0,FALSE,Micro-small,FALSE,11/23/2021 6:33
704,1000000057,American Orthodontists,9800 Shelard Parkway #113,,Minneapolis,MN,55441,USA,6125983330,,,60291-000,4/4/2016 0:00,,FALSE,NR,0,1,0,FALSE,Micro-small,FALSE,4/10/2022 8:12
704,1000000058,Bomberg Chiropractior,9800 Shelard Parkway #207,,Minneapolis,MN,55441,USA,7634501955,drbobberg@bombergchiropractic.com,https://www.bombergchiropractic.com,60205-000,4/4/2016 0:00,,FALSE,NR,0,1,0,FALSE,Micro-small,FALSE,4/10/2022 8:12
704,1000000059,Synergy CafÃ©-Event Planner ,12401 Wayzata Blvd,,Hopkins,MN,55305,USA,6122426468,info@magicbrad.com,,65259-000,3/15/2007 0:00,,FALSE,A+,100,1,0,FALSE,Micro-small,FALSE,12/2/2022 9:29
704,1000000060,"Guardian Counsel, LLC",3800 American Blvd. W. #1500,,Bloomington,MN,55431,USA,9528309913,emichaelis@guardiancounsel.com,,60075-000,12/9/2004 0:00,,FALSE,A+,100,1,0,FALSE,Micro-small,FALSE,12/2/2022 9:29
704,1000000061,Olivers Restaurant,12401 Wayzata Blvd,,Hopkins,MN,55305,USA,9528769410,,,50544-000,4/4/2016 0:00,,FALSE,NR,0,1,0,FALSE,Micro-small,FALSE,4/13/2022 8:07
704,1000000063,"AdrenaCard, Inc.",PO Box 141191,,Minneapolis,MN,55414,USA,7153704855,,,55336-000,4/14/2015 0:00,,FALSE,NR,0,1,0,FALSE,Micro-small,FALSE,10/14/2022 8:13
704,1000000064,Hair Studio 763,5816 Brookdale Dr N,,Minneapolis,MN,55443,USA,6512788328,,http://www.hairstudio763.com,60134-000,4/23/2013 0:00,,FALSE,NR,0,1,0,FALSE,Micro-small,FALSE,4/16/2022 8:14
704,1000000065,"FurnitureDealer.net, Inc.",4639 Pinetree Curve,,Eagan,MN,55122,USA,9523457171,clientrelations@furnituredealer.net,http://www.furnituredealer.net,60974-000,8/2/2006 0:00,,FALSE,A+,100,1,0,FALSE,Micro-small,FALSE,12/2/2022 9:29
704,1000000066,Med City Fence LLC,2546 Northern Hills Ct NE,,Rochester,MN,55906,USA,5079518137,medcityfence@gmail.com,,50252-000,5/12/2008 0:00,,FALSE,A+,100,1,0,FALSE,Micro-small,FALSE,12/2/2022 9:29
704,1000000067,C P R Sales LLC,7600 W 27th St Ste 208,,Minneapolis,MN,55426,USA,9522294467,,,60772-100,3/9/2011 0:00,,FALSE,NR,0,1,0,FALSE,Micro-small,FALSE,10/4/2022 8:07
704,1000000068,Clockwise Transit,2003 10th Ave S,,Minneapolis,MN,55404,USA,6122080312,,,70631-000,12/20/2015 0:00,,FALSE,NR,0,1,0,FALSE,Micro-small,FALSE,11/13/2021 3:59
704,1000000069,Digi Labs,294 Grove Ln E,,Wayzata,MN,55391,USA,,,,30567-000,4/5/2016 0:00,,FALSE,NR,0,1,0,FALSE,Micro-small,FALSE,2/12/2022 9:24
704,1000000072,I Love Photography LLC,1208 Mainstreet,,Hopkins,MN,55343,USA,9526588185,elaine@ilovephotography.us,https://www.ilovephotography.us/,61044-000,6/5/2015 0:00,,FALSE,NR,0,1,0,FALSE,Micro-small,FALSE,4/10/2022 8:12
704,1000000073,KLM Construction Inc,1255 Wildflower Ln,,Chaska,MN,55318,USA,9525565530,klm.construction@comcast.net,,10177-000,2/1/2004 0:00,,FALSE,A+,100,1,0,FALSE,Micro-small,FALSE,12/2/2022 9:29
704,1000000074,Gloria Russell Owner Resources LLC ,527 Lovell Ave,,Saint Paul,MN,55113,USA,6514858826,gloria@russellresourcesllc.com,,60263-100,10/30/2013 0:00,,FALSE,A+,100,1,0,FALSE,Micro-small,FALSE,12/2/2022 9:29
704,1000000075,Stephen Rudnicki-designer,31 31st Ave S,,Saint Cloud,MN,56301,USA,3202550128,steverudnicki@hotmail.com,,60057-000,1/1/2007 0:00,,FALSE,A+,100,1,0,FALSE,Micro-small,FALSE,12/2/2022 9:29
704,1000000076,"Creative Ape Studios, LLC",100 S 5th St. Suite 1900,,Minneapolis,MN,55402,USA,9527974319,joe.ryan@creativeapestudios.com,http://creativeapestudios.com,60980-000,12/15/2015 0:00,,FALSE,A+,100,1,0,FALSE,Micro-small,FALSE,12/2/2022 9:29
704,1000000077,West Funeral Homes,321 Sheyenne Street,,West Fargo,ND,58078,USA,7012826699,,,62000-000,5/22/2013 0:00,,FALSE,NR,0,1,0,FALSE,Micro-small,FALSE,10/4/2022 8:07
704,1000000078,Jeff Mohr Siding,820 11th St Sw,,Pine City,MN,55063,USA,3202791365,,,10126-000,4/6/2016 0:00,,FALSE,NR,0,1,0,FALSE,Micro-small,FALSE,4/13/2022 8:07
704,1000000079,"McGrath Automotive, Inc.",7501 Brooklyn Blvd,,Minneapolis,MN,55443,USA,7635608880,cmcgrath@mcgrathautocenter.com,,50610-000,8/5/2014 0:00,4/17/2018 0:00,FALSE,NR,0,2,0,FALSE,Micro-small,FALSE,4/20/2021 4:01
704,1000000080,B & V Tree & Yard Service,904 W Turnpike Ave,,Bismarck,ND,58501,USA,7012551035,,Twitter › iamcardib,00219-000,4/6/2016 0:00,,FALSE,NR,0,1,0,FALSE,Micro-small,FALSE,10/5/2022 8:45
704,1000000081,Z&#39;s Trees,104 12th Street SE,,Cooperstown,ND,58425,USA,7017973653,rodd.zorn@yahoo.com,http://www.zstrees.com,00219-000,1/1/2007 0:00,,FALSE,A+,100,3,0,FALSE,Micro-small,FALSE,12/2/2022 9:29
704,1000000082,"Larkin Bros Plumbing, Heating & AC, LLC",PO Box 178,,Maple Lake,MN,55358,USA,7634022143,,https://www.facebook.com/Larkinbrosplumbing2015/timeline,10182-200,5/1/2015 0:00,1/1/2020 0:00,FALSE,NR,0,1,0,FALSE,Micro-small,FALSE,1/2/2023 8:49
704,1000000083,First Pitch Inc,"1799 County Road 90, Suite #5",,Maple Plain,MN,55359,USA,7634796245,sales@firstpitch.com,http://www.firstpitch.com,80680-000,,,FALSE,F,54,,0,FALSE,Micro-small,FALSE,7/15/2021 4:16
704,1000000084,"Red Wing Plumbing & Heating, LLC",1615 Old West Main St,,Red Wing,MN,55066,USA,6513889692,garrett@rwplumb.com,http://www.rwplumb.com/,10113-000,7/27/2015 0:00,,FALSE,A+,100,1,0,FALSE,Micro-small,FALSE,12/2/2022 9:29
704,1000000087,Allure Skincare and Electrolysis,1675 Greeley St. S.,,Stillwater,MN,55082,USA,6513009155,annieob@comcast.net,,60322-000,3/31/2015 0:00,,FALSE,A+,100,1,0,FALSE,Micro-small,FALSE,12/2/2022 9:29
704,1000000088,"Giese&#39;s Plumbing & Services, LLC",17380 62nd St,,New Germany,MN,55367,USA,6124836203,gpsplumbing3@gmail.com,,10113-000,2/1/2010 0:00,,TRUE,A+,100,2,0,FALSE,Micro-small,FALSE,7/8/2022 12:28
704,1000000089,Mr. Roberts,28179 E Shore Dr,,Pengilly,MN,55775,USA,2188851093,Dan@mrrobertsresort.com,,50544-000,1/1/1984 0:00,,FALSE,NR,0,2,0,FALSE,Micro-small,FALSE,4/13/2022 8:07
704,1000000090,Joshua Ahlquist Construction,740 Madisoan St,,Anoka,MN,55303,USA,6122019637,,,10177-000,1/13/2005 0:00,,FALSE,NR,0,1,0,FALSE,Micro-small,FALSE,4/16/2022 8:14
704,1000000091,KMH Erectors Inc,5295 Highway 12,,Maple Plain,MN,55359,USA,7634792022,office@kmhsteel.com,,10145-000,1/1/1985 0:00,,FALSE,A+,100,45,0,FALSE,Micro-small,FALSE,12/2/2022 9:29
704,1000000092,The Lock Up ,6250 Olson Memorial Hyw,,Golden Valley,MN,55444,USA,6123140151,,,70610-000,,,FALSE,NR,0,1,0,FALSE,Micro-small,FALSE,10/25/2022 8:10
704,1000000093,Jessica Wilson Photography,7299 Terra Court,,Lino Lakes,MN,55014,USA,9524576410,,,60655-100,10/16/2012 0:00,,FALSE,NR,0,1,0,FALSE,Micro-small,FALSE,10/4/2022 8:07
704,1000000094,MN heat Basketball,3227 Pecks Woods Turn,,New Brighton,MN,55112,USA,,,,60073-000,,,FALSE,NR,0,1,0,FALSE,Micro-small,FALSE,10/14/2022 8:13
704,1000000095,85mm Photography,3735 Lakeland Ave N Ste 317,,Robbinsdale,MN,55422,USA,6128347676,office@photographermn.net,http://www.photographermn.net,85281-000,4/6/2008 0:00,,FALSE,A+,100,2,0,FALSE,Micro-small,FALSE,12/27/2022 8:49
704,1000000096,MOKE Properties LLC,1220 Sumac Circle,,Fergus Falls,MN,56537,USA,,,,60732-000,,,FALSE,NR,0,1,0,FALSE,Micro-small,FALSE,6/3/2022 9:03
704,1000000099,White Rhinos Marketing,3317 Kyle Ave N,,Minneapolis,MN,55422,USA,6124193950,synergyscott@yahoo.com,http://www.MinnesotaRoofingCo.com,60772-100,4/1/2016 0:00,3/20/2017 0:00,FALSE,NR,0,10,,FALSE,Small,FALSE,10/16/2021 4:13
704,1000000100,Central Dakota Frontier Cooperative,94 Broadway ,PO Box 300,Napoleon,ND,58561,USA,7017542252,tobyknagel@gmail.com,http://www.dakotafrontier.com,60255-000,4/6/2016 0:00,,FALSE,A+,100,1,0,FALSE,Micro-small,FALSE,12/2/2022 9:29
704,1000000101,Hillside Sewer and Drain LLC,2225 W Arrowhead Rd,,Hermantown,MN,55811,USA,2182135063,Hillsideseweranddrain@gmail.com,http://www.plumbercontractorsduluth.com,10043-000,4/13/2015 0:00,,FALSE,A+,100,1,0,FALSE,Micro-small,FALSE,12/19/2022 8:51
704,1000000102,Lake Dental Group,2200 London Rd Suite 100,,Duluth,MN,55812,USA,2187284272,,,60289-000,,,FALSE,NR,0,1,0,FALSE,Micro-small,FALSE,10/21/2021 3:59
704,1000000103,Martinizing Dry Cleaning,5559 Xerxes Ave S,,Minneapolis,MN,55410,USA,6129222449,tmarkwold@aol.com,http://martinizing.com/xerxes/default.aspx,60214-000,,,FALSE,A+,100,1,0,FALSE,Micro-small,FALSE,9/10/2020 4:03
704,1000000105,Foss Spine and Wellness,"2921 s frontage road, suite 3",,Moorhead,MN,56560,USA,2182338544,jmfoss26@gmail.com,http://www.fswchiro.com,60205-000,3/31/2015 0:00,,FALSE,A+,100,1,0,FALSE,Micro-small,FALSE,1/14/2023 8:57
704,1000000106,"Mike North Construction, LLC",800 N Brown Rd,,Long Lake,MN,55356,USA,6122460027,mikenorth50@gmail.com,,10177-000,11/6/2009 0:00,,FALSE,A+,100,1,0,FALSE,Micro-small,FALSE,12/2/2022 9:29
704,1000000107,"Prime Attachments, LLC",2452 Lois Ln SE,,Alexandria,MN,56308,USA,3208155905,info@primeattach.com,http://primeattach.com/,10050-000,,,FALSE,A+,100,1,0,FALSE,Micro-small,FALSE,9/16/2022 8:15
704,1000000108,Mike Kosak Construction,614 East Fairview Ave,,Olivia,MN,56277,USA,3205235906,,,10177-000,3/2/2009 0:00,,FALSE,NR,0,1,0,FALSE,Micro-small,FALSE,4/16/2022 8:14
704,1000000109,Mike Scheveck Painting LLC,5908 Halifax Pl,,Minneapolis,MN,55429,USA,7635049768,,,10095-000,6/19/2009 0:00,,FALSE,NR,0,2,0,FALSE,Micro-small,FALSE,12/6/2022 9:13
704,1000000110,North Central Construction LLC,33837 Helium St NW,,Cambridge,MN,55008,USA,7636914240,,,10035-000,5/21/2015 0:00,,FALSE,NR,0,1,0,FALSE,Micro-small,FALSE,4/16/2022 8:14
704,1000000111,America's Best Contacts & Eyeglasses,12940 Riverdale Dr NW,,Coon Rapids,MN,55448,USA,9526561005,,,50467-000,,,FALSE,A+,100,1,0,FALSE,Micro-small,FALSE,6/1/2022 21:26
704,1000000112,Miller Greenscapes LLC,13730 Kinsel Rd,,Minnetonka,MN,55345,USA,6122203926,,,00155-000,1/20/2010 0:00,,FALSE,NR,0,1,0,FALSE,Micro-small,FALSE,10/4/2022 8:07
704,1000000113,Mike Buysse Construction,1101 S 4th St # 4,,Marshall,MN,56258,USA,5075324543,,,10035-000,1/1/1994 0:00,,FALSE,NR,0,3,0,FALSE,Micro-small,FALSE,11/2/2022 8:36
704,1000000115,LCG,8421 Wayzata Blvd #300,,Minneapolis,MN,55426,USA,7632835410,mgrahek@linkconsultinggroup.com,http://www.linkconsultinggroup.com/,60172-105,12/13/2013 0:00,,FALSE,A+,100,1,0,FALSE,Micro-small,FALSE,12/2/2022 9:29
704,1000000116,McGough Construction Warehouse,1826 1/2 Buerkle Rd,,Saint Paul,MN,55110,USA,6517733808,,,70644-000,1/1/2010 0:00,,FALSE,NR,0,4,0,FALSE,Micro-small,FALSE,4/13/2022 8:07
704,1000000117,McCallum Construction Inc,10078 Flanders Ct NE Ste 140,,Blaine,MN,55449,USA,7637838244,McCallumconst@aol.com,http://www.mccallumconstruction.com/,10177-000,1/2/1985 0:00,,FALSE,A+,100,1,0,FALSE,Micro-small,FALSE,12/2/2022 9:29
704,1000000118,"LaLonde Companies, LLC",4734 Xerxes Ave S,,Minneapolis,MN,55410,USA,6127159632,jared@lalondecompanies.com,,10035-000,6/19/2015 0:00,,FALSE,A+,100,1,0,FALSE,Micro-small,FALSE,5/9/2022 21:30
704,1000000119,IGT National Inc,11782 99th Pl N,,Maple Grove,MN,55369,USA,6123232560,bob@igtnational.com,https://www.igtrestore.com/,60367-000,6/16/2014 0:00,,FALSE,A+,100,1,0,FALSE,Micro-small,FALSE,7/20/2022 9:11
704,1000000120,Ciel Loft & Home,4416 Excelsior Blvd,,Minneapolis,MN,55416,USA,9529222747,contact@cielloftandhome.com,http://www.cielloftandhome.com/,50291-000,3/30/2012 0:00,,FALSE,NR,0,1,0,FALSE,Micro-small,FALSE,4/10/2022 8:12
704,1000000121,Tri-County Tree Service,15936 35th Ave,,South Haven,MN,55382,USA,3202242494,,https://mntreecare.com/,00219-000,1/1/2003 0:00,,FALSE,A+,100,3,,FALSE,Micro-small,FALSE,5/19/2022 8:39
704,1000000122,Dan Kroehler,8016 190th St W,,Lakeville,MN,55044,USA,9524693168,,,10035-000,4/8/2016 0:00,,FALSE,NR,0,1,0,FALSE,Micro-small,FALSE,6/17/2022 8:36
704,1000000123,Dog-Gone Cute Puppies,57649 State Highway 55,,Eden Valley,MN,55329,USA,3202243179,kyle@doggoncutepuppies.com,http://doggonecutepuppies.com/,05195-000,4/8/2016 0:00,11/16/2020 0:00,FALSE,NR,0,1,0,FALSE,Micro-small,FALSE,6/22/2021 4:12
704,1000000124,"Kerker, Inc.",7709 Pillsbury Ave S,,Minneapolis,MN,55423,USA,6128693232,,,00155-000,4/22/1991 0:00,,FALSE,NR,0,10,0,FALSE,Micro-small,FALSE,11/15/2022 9:12
704,1000000125,"TAS Heating & Air Conditioning, LLC",450 Oak Ln,,Young America,MN,55397,USA,6128597627,tasmopar@hotmail.com,,10182-200,10/24/2013 0:00,,FALSE,A+,100,1,0,FALSE,Micro-small,FALSE,1/4/2023 9:05
704,1000000126,Padden & McCollister PLLC,8687 Eagle Point Blvd Ste B,,Lake Elmo,MN,55042,USA,6517896545,,,60075-000,4/8/2016 0:00,,FALSE,NR,0,1,0,FALSE,Micro-small,FALSE,4/10/2022 8:12
704,1000000127,"Mark's Aerial Services, LLC",9255 Courthouse Blvd,,Inver Grove,MN,55077,USA,6512478591,marksaerialservice@gmail.com,https://www.facebook.com/Marks-Aerial-Service-1709065676041039/,00219-000,5/18/2009 0:00,,FALSE,A+,100,1,0,FALSE,Micro-small,FALSE,4/27/2022 8:41
704,1000000129,"Bob LeMieur Rolloffs, Refuse and Recycling, Inc.",14827 Pine Ave,,Little Falls,MN,56345,USA,3206329141,,,10177-000,11/24/2003 0:00,,FALSE,NR,0,1,0,FALSE,Micro-small,FALSE,10/27/2022 8:14
704,1000000130,JTU Construction LLC,20849 Atlantic Puffin Dr,,Grand Rapids,MN,55744,USA,2189108729,,,10177-000,,10/14/2019 0:00,FALSE,NR,0,,,FALSE,Micro-small,FALSE,10/15/2019 4:06
704,1000000131,"Executive Landscaping, LLC",901 7th St N,Apt 201,Sartell,MN,56377,USA,3204922275,executivelandscaping15@gmail.com,http://www.executivelandscapingmn.com/,00155-000,7/27/2015 0:00,,FALSE,A+,100,1,0,FALSE,Micro-small,FALSE,12/2/2022 9:29
704,1000000132,Northern Tree & Landscape,5298 132nd St Sw,,Pillager,MN,56473,USA,2187463551,,,00155-000,1/1/1997 0:00,,FALSE,NR,0,2,0,FALSE,Micro-small,FALSE,4/13/2022 8:06
704,1000000133,YMG Home Care,5811 Cedar Lake Rd S,,Minneapolis,MN,55416,USA,9523036025,,,60441-000,8/17/2007 0:00,,FALSE,NR,0,1,0,FALSE,Micro-small,FALSE,7/30/2022 8:29
704,1000000134,Romslo Fiduciary Services,7013 Heatherton Trl,,Edina,MN,55435,USA,9529207502,jim_romslo@yahoo.com,,20085-200,,,FALSE,A+,99.52,1,0,FALSE,Micro-small,FALSE,2/1/2020 4:31
704,1000000135,"Smarter Health Group, Inc.",4925 3rd Ave S,,Minneapolis,MN,55419,USA,8009755611,support@wartrin.com,http://www.wartrin.com/,85346-000,1/13/2012 0:00,,FALSE,A+,100,1,0,FALSE,Micro-small,FALSE,12/3/2022 9:06
704,1000000136,CCS Concrete,1501 Main St,,Tewksbury,MA,1876,USA,9788582220,,http://www.ccsconcrete.com/index.html,10032-000,4/12/2016 0:00,,FALSE,NR,0,,0,FALSE,Micro-small,FALSE,7/23/2021 3:59
704,1000000137,Concrete Doctor,904 S 17th St,,Bismarck,ND,58504,USA,3606433499,massagemomma35@gmail.com,,10032-000,9/4/2014 0:00,11/19/2020 0:00,FALSE,NR,0,,0,FALSE,Micro-small,FALSE,11/20/2020 4:00
704,1000000138,"BeanCounters Tax & Accounting, Inc.",12017 Lindstrom Ln,,Lindstrom,MN,55045,USA,6512579700,beancounters@frontiernet.net,http://beancounterstax.com/,60857-000,11/26/2007 0:00,,FALSE,A+,100,1,0,FALSE,Micro-small,FALSE,12/22/2022 9:08
704,1000000139,Badlands Do It Best Hardware,140 Main St South,,Watford City,ND,58854,USA,7018423321,badlandshardware@gmail.com,https://www.badlandsdoitbesthardware.com,50333-000,1/12/2004 0:00,,FALSE,A+,100,9,0,FALSE,Small,FALSE,2/10/2022 9:45
704,1000000140,InterState Delivery,395 John Ireland Blvd,,Saint Paul,MN,55155,USA,3344527730,Info@Interstatedelivery.Us,,70542-000,4/12/2016 0:00,,FALSE,A+,100,1,0,FALSE,Micro-small,FALSE,12/3/2022 9:06
704,1000000141,"Top Direct Services, LLC",801 W 106th St,Ste 200,Bloomington,MN,55420,USA,8772205506,info@topdirectservices.com,http://www.topdirectservices.com/,60231-000,3/18/2011 0:00,,TRUE,A+,100,1,0,FALSE,Small,FALSE,1/13/2023 9:01
704,1000000142,Cosentino Minneapolis,14105 13th Ave N,,Minneapolis,MN,55441,USA,7635468456,,http://www.silestoneusa.com/showroom/kitchens/,85328-000,,,FALSE,A+,99.51,1,0,FALSE,Micro-small,FALSE,2/1/2020 4:31
704,1000000143,Lake Country Lawn & Landscape LLC,4475 Forest Lake Lndg,,Mound,MN,55364,USA,9523808953,lakecountrylawn@gmail.com,http://lakecountrylawnandlandscape.com,00155-000,1/1/2007 0:00,,FALSE,A+,100,2,0,FALSE,Micro-small,FALSE,12/3/2022 9:06
704,1000000144,Kevin Festler Land Surveying,16096 173rd St,,Little Falls,MN,56345,USA,3206324396,festlerls@gmail.com,http://festlerlandsurveying.com/,60845-000,1/1/1996 0:00,,FALSE,A+,100,3,0,FALSE,Micro-small,FALSE,12/3/2022 9:06
704,1000000145,3-D Lawn Care LLC,35628 710th St,,Round Lake,MN,56167,USA,5073606084,,,50388-000,11/20/2014 0:00,,FALSE,NR,0,1,0,FALSE,Micro-small,FALSE,10/4/2022 8:07
704,1000000146,Jlf Homes,5145 Industrial St # 1,,Maple Plain,MN,55359,USA,7634790795,,,10035-000,5/3/2005 0:00,,FALSE,NR,0,3,0,FALSE,Micro-small,FALSE,4/16/2022 8:14
704,1000000147,"Aspen Garage Doors, LLC",1409 Pennsylvania Ave N,,Golden Valley,MN,55427,USA,6129000054,info@aspengarage.com,http://www.AspenGarage.com,85361-000,11/19/2015 0:00,,FALSE,A+,100,2,0,FALSE,Micro-small,FALSE,10/18/2022 8:16
704,1000000148,"Absolute Lawn Care, Inc.",14618 Whitebirch Ln,,Crosslake,MN,56442,USA,2188203444,chase@crosslake.net,,00157-000,5/24/2013 0:00,,FALSE,A+,100,3,0,FALSE,Micro-small,FALSE,12/3/2022 9:06
704,1000000149,Zumbro House Inc,525 Commons Dr,,Woodbury,MN,55125,USA,6512641000,,http://www.zumbrohouse.com,61018-000,1/30/2001 0:00,,FALSE,A+,100,1,0,FALSE,Micro-small,FALSE,1/11/2023 9:00
704,1000000150,American Independent Remodelers LLC,13055 Riverdale Dr NW Ste 500,,Minneapolis,MN,55448,USA,7637530732,americanindependentremodelers@comcast.net,http://americanindependentremodelers.com/,10177-000,7/29/2009 0:00,,FALSE,A+,100,1,0,FALSE,Micro-small,FALSE,12/3/2022 9:06
704,1000000151,Brustuen Construction Llc,280 180th Ave NW,,Holloway,MN,56249,USA,3202970736,,,30760-000,1/1/2007 0:00,,FALSE,NR,0,1,0,FALSE,Micro-small,FALSE,10/30/2022 8:34
704,1000000152,Brian Fox Construction,14324 191st Ave Nw,,Elk River,MN,55330,USA,7634414739,,,10035-000,8/30/2010 0:00,,FALSE,A-,92,2,0,FALSE,Micro-small,FALSE,8/17/2022 8:56
704,1000000154,Aspen Dental,2860 W Division St Ste 102,,Saint Cloud,MN,56301,USA,3203161089,BBBComplaints@aspendental.com,https://www.aspendental.com,60289-000,,,FALSE,A-,91,1,0,FALSE,Micro-small,FALSE,10/26/2022 8:42
704,1000000155,National Institute for Social Media,5500 Nicollet Avenue,P.O. Box 19620,Minneapolis,MN,55419,USA,7632006476,support@nismonline.org,https://nismonline.org/,85364-100,7/25/2011 0:00,,FALSE,A+,100,1,0,FALSE,Micro-small,FALSE,12/13/2022 9:03
704,1000000156,Knudsen Landscaping,1276 County Rd 8,,Holyoke,MN,55749,USA,2183913088,Bob@Knudsenlandscapingandexcavating.com,http://www.knudsenlandscapingandexcavating.com/,10050-000,5/8/2009 0:00,,FALSE,A+,100,1,0,FALSE,Micro-small,FALSE,12/3/2022 9:06
704,1000000157,"Integrity Home Exteriors Plus, LLC",9177 Jefferson St NE,,Minneapolis,MN,55434,USA,7632800839,irvengloft@yahoo.com,,10035-000,3/5/2016 0:00,,FALSE,A+,100,1,0,FALSE,Micro-small,FALSE,12/3/2022 9:06
704,1000000159,Landmark Landscape Designs Inc,19455 Elkridge Trl,,Farmington,MN,55024,USA,6514606098,mark@landmarklandscapedesigns.com,http://www.landmarklandscapedesigns.com/,00155-000,12/16/2009 0:00,,FALSE,A+,100,1,0,FALSE,Micro-small,FALSE,3/16/2021 3:59
704,1000000160,Eye of the Tiger Defense LLC,PO Box 617,,Greenwood,MN,55331,USA,9522394242,taylor@eyeofthetigerdefense.com,http://www.eyeofthetigerdefense.com/,60791-000,8/14/2015 0:00,,FALSE,A+,100,1,0,FALSE,Micro-small,FALSE,12/3/2022 9:06
704,1000000161,Illume ,10501 Elm Creek Blvd N,,Maple Grove,MN,55369,USA,9528859675,customerservice@illumecandles.com,https://www.illumecandles.com/,50128-000,11/5/2010 0:00,,FALSE,A+,97,1,0,FALSE,Micro-small,FALSE,11/23/2021 6:33
704,1000000162,Winter Wilson Siding Inc,819 Woodbridge Cir,,Dilworth,MN,56529,USA,7013718146,,,10126-000,6/9/2006 0:00,,FALSE,NR,0,2,0,FALSE,Micro-small,FALSE,8/30/2022 8:18
704,1000000163,A & J Roofing,3916 2nd St E,,West Fargo,ND,58078,USA,7018668266,,,10126-000,4/13/2016 0:00,,FALSE,NR,0,1,0,FALSE,Micro-small,FALSE,8/16/2022 8:20
704,1000000164,Precision Home Construction,2761 180th St E,,Prior Lake,MN,55372,USA,6123693610,,http://www.precisionhomeconstruction.com/,10126-000,1/8/1993 0:00,,FALSE,NR,0,3,0,FALSE,Micro-small,FALSE,12/25/2022 8:50
704,1000000165,Mixson Siding & Windows,136 E Belle Vue Rd,,Fairmont,MN,56031,USA,5072361072,cmixson@frontier.net,,10126-000,2/5/2008 0:00,,FALSE,A+,100,2,0,FALSE,Micro-small,FALSE,12/3/2022 9:06
704,1000000166,New Creations Construction,PO Box 10592,,Fargo,ND,58106,USA,7012812531,,,10126-000,11/29/1995 0:00,,FALSE,NR,0,1,0,FALSE,Micro-small,FALSE,4/16/2022 8:14
704,1000000167,"Olson & Sons Construction, INC",5231 Parker Ave,,White Bear Lake,MN,55110,USA,6512336896,olson.roofing@gmail.com,,10126-000,4/21/2009 0:00,11/19/2020 0:00,FALSE,NR,0,2,0,FALSE,Micro-small,FALSE,2/26/2022 9:35
704,1000000169,"Luv Me Again Animal Rescue, Inc",PO Box 20382,,Minneapolis,MN,55420,USA,7636457590,info@luvmeagain.org,,00110-000,7/24/2012 0:00,,FALSE,NR,0,1,0,FALSE,Micro-small,FALSE,5/18/2022 19:44
704,1000000170,Officenters Minnetonka,5775 Wayzata Blvd Ste 700,,Minneapolis,MN,55416,USA,9529433900,sales@officenters.com,http://officenters.com/,60624-000,6/26/1985 0:00,,FALSE,A+,100,1,0,FALSE,Micro-small,FALSE,12/3/2022 9:06
704,1000000171,Parlor7 LLC,1597 Highway 7,,Hopkins,MN,55305,USA,9529333594,info@parlorseven.com,,60420-000,9/28/2015 0:00,,FALSE,A+,100,1,0,FALSE,Micro-small,FALSE,12/3/2022 9:06
704,1000000172,Perfect Surface Tile,11221 7th St NE,,Minneapolis,MN,55434,USA,6122455779,,,85366-000,,,FALSE,A+,100,1,0,FALSE,Micro-small,FALSE,11/13/2021 3:59
704,1000000173,"B & D Utilities, Inc",18245 568th ave,,Mankato,MN,56001,USA,5072784066,,Twitter › iamcardib,10050-000,,9/20/2017 0:00,FALSE,NR,0,1,,FALSE,Micro-small,FALSE,9/21/2020 4:02
704,1000000174,"Tix Construction, Inc.",1735 60th St E,,Inver Grove Heights,MN,55077,USA,6512465756,JTIX@TIXCONSTRUCTION.COM,http://www.TixConstruction.com,10126-000,2/1/2008 0:00,,TRUE,A+,100,1,0,FALSE,Micro-small,FALSE,7/26/2022 8:43
704,1000000175,Mill City Builders LLP,2624 E 22nd ST,,Minneapolis,MN,55406,USA,6123599505,info@millcitybuilders.com,http://www.millcitybuilders.com/,10177-000,7/24/1996 0:00,,FALSE,A+,100,1,0,FALSE,Micro-small,FALSE,12/3/2022 9:06
704,1000000176,Lakeland Electric Inc.,1312 Mckay Dr NE,,Ham Lake,MN,55304,USA,7632454346,,,10049-000,5/6/2014 0:00,,FALSE,NR,0,1,0,FALSE,Micro-small,FALSE,4/16/2022 8:14
704,1000000177,Mimm&#39;s Painting Service LLC,3887 Newtown Ct,,Eagan,MN,55123,USA,6212075659,,https://www.facebook.com/Mimms-Painting-Service-267067629976380/,10095-000,6/19/2009 0:00,,FALSE,NR,0,1,0,FALSE,Micro-small,FALSE,10/4/2022 8:07
704,1000000178,Minn Dak Insulation Inc,1005 Pacific Ave,,Benson,MN,56215,USA,3208434868,,https://www.facebook.com/MinndakInsulation/timeline,10112-000,5/23/1986 0:00,,FALSE,NR,0,1,0,FALSE,Micro-small,FALSE,4/16/2022 8:14
704,1000000179,Liston General Contracting,38002 State Highway 6,,Deer River,MN,56636,USA,2182468648,,,10035-000,2/20/1998 0:00,,FALSE,NR,0,3,0,FALSE,Micro-small,FALSE,4/16/2022 8:14
704,1000000180,Retirement Asset Management Group,3800 American Blvd. W. #1500,,Bloomington,MN,55431,USA,9529215855,stoltman@theramg.com,http://theramg.com/,20063-000,4/13/2016 0:00,,FALSE,A+,100,1,0,FALSE,Micro-small,FALSE,12/3/2022 9:06
704,1000000181,Lonesome Creek LLC,4129 N Stony Dr NW,,Hackensack,MN,56452,USA,2186755026,,,10035-000,3/6/2003 0:00,,FALSE,NR,0,9,0,FALSE,Micro-small,FALSE,10/4/2022 8:07
704,1000000182,"Norvanta, LLC",705 18th Ave N,,Moorhead,MN,56560,USA,2184777368,,,60733-000,,9/20/2017 0:00,FALSE,NR,0,1,,FALSE,Micro-small,FALSE,9/21/2020 4:02
704,1000000185,Fresh Thyme Farmers Market,2100 W 80 1/2 St,,Bloomington,MN,55431,USA,7633213555,gbeckers@freshthyme.com,http://www.freshthyme.com,50322-000,2/19/2014 0:00,,FALSE,A+,100,1,0,FALSE,Micro-small,FALSE,12/3/2022 9:06
704,1000000186,Parrott Contracting,30090 State Highway 93,,Henderson,MN,56044,USA,5072489697,,,10035-000,4/29/1994 0:00,,FALSE,NR,0,4,0,FALSE,Micro-small,FALSE,4/16/2022 8:14
704,1000000188,H&S Door Systems,305 Giles Pl,,Albert Lea,MN,56007,USA,5076763100,jsevertson29@gmail.com,https://www.hsdoorsystems.com/,85360-000,7/17/2015 0:00,,FALSE,A+,100,1,0,FALSE,Micro-small,FALSE,12/3/2022 9:06
704,1000000189,Blast Pro Contracting Inc,1016 17th St Ne,,Mandan,ND,58554,USA,7016631112,,,10035-000,1/1/2006 0:00,,FALSE,NR,0,2,0,FALSE,Micro-small,FALSE,5/11/2022 13:48
704,1000000190,"Lemme Construction, LLC",21987 169th St NW,,Big Lake,MN,55309,USA,7632331441,mlemme8879@gmail.com,,10035-000,7/9/2009 0:00,,FALSE,NR,0,1,0,FALSE,Micro-small,FALSE,4/16/2022 8:14
704,1000000192,Red River Home Care,PO Box 6528,,Fargo,ND,58109,USA,7013535777,,,60441-100,,,FALSE,A+,100,1,0,FALSE,Micro-small,FALSE,7/30/2022 8:29
704,1000000193,Bridge Credit Repair,2908 Humboldt Ave S Ste 1,,Minneapolis,MN,55408,USA,8007500167,info@bridgecr.com,http://bridgecr.com/,90027-000,,,FALSE,F,37.13,1,0,FALSE,Micro-small,FALSE,6/18/2022 8:22
704,1000000194,"Jespersen Excavating, Inc.",7911 County Road 15 W,,Minot,ND,58703,USA,7018336063,,,10035-000,3/31/2004 0:00,,FALSE,NR,0,2,0,FALSE,Micro-small,FALSE,8/11/2022 8:30
704,1000000195,Deck Builders Inc,3120 25th St S Ste 102,,Fargo,ND,58103,USA,7017295590,deckbuildersinc@msn.com,http://deckbuildersinc.net,10099-600,4/12/2000 0:00,,FALSE,A+,100,4,0,FALSE,Micro-small,FALSE,12/3/2022 9:06
704,1000000196,Kuck Construction,13917 56th St SE,,Sheldon,ND,58068,USA,7017998915,jkuck1@yahoo.com,,10035-000,1/1/2007 0:00,,FALSE,A+,100,1,0,FALSE,Micro-small,FALSE,12/3/2022 9:06
704,1000000197,Builders Association of Minnesota,525 Park Streeet #150,,Saint Paul,MN,55103,USA,6516467959,remi@bamn.org,http://www.bamn.org,60071-000,1/1/1974 0:00,,FALSE,A+,100,1,0,FALSE,Micro-small,FALSE,12/3/2022 9:06
704,1000000198,"Americlean Minneapolis, LLC",976 Robert Str #204,,Mendota Hts,MN,55118,USA,6125457576,cs@americleanminneapolis.com,http://americleanminneapolis.com/,66002-000,10/19/2015 0:00,,FALSE,A+,100,1,0,FALSE,Micro-small,FALSE,12/22/2022 9:08
704,1000000199,"TheLearningSmith, Inc",4999 384th Trl,,North Branch,MN,55056,USA,6512521676,dustin@thelearningsmith.com,http://www.thelearningsmith.com/,60538-000,11/23/2009 0:00,,FALSE,A+,100,1,0,FALSE,Micro-small,FALSE,12/3/2022 9:06
704,1000000200,Rita's Ice & Custard ,10700 France Ave #104,,Bloomington,MN,55437,USA,6512075727,,,50544-000,3/3/2016 0:00,,FALSE,NR,0,1,0,FALSE,Micro-small,FALSE,4/16/2022 8:14
704,1000000201,Rookie Work,1148 128th Ave. NE,,Minneapolis,MN,55434,USA,2184103214,,,60981-000,4/14/2016 0:00,,FALSE,NR,0,1,0,FALSE,Micro-small,FALSE,4/24/2022 8:09
704,1000000202,Majestic Exteriors LLC,15359 Iodine St NW,,Anoka,MN,55303,USA,7634276004,,,10126-000,6/12/2015 0:00,,FALSE,NR,0,1,0,FALSE,Micro-small,FALSE,11/29/2022 9:07
704,1000000203,Lifestyle Lift,3440 Oleary Ln,,Saint Paul,MN,55123,USA,8773337354,,,60684-000,,10/16/2019 0:00,FALSE,NR,0,1,,FALSE,Micro-small,FALSE,10/17/2022 7:54
704,1000000204,Atlas Insurance Brokers - James Lunneborg,2420 E 117th Street Suite I00,,Burnsville,MN,55337,USA,9528818866,jim@jimlunneborg.com,https://www.aibme.com/locations/mn/burnsville/james-d-lunneborg-agency-inc/,20080-000,4/15/2016 0:00,,FALSE,A+,100,1,0,FALSE,Micro-small,FALSE,12/3/2022 9:06
704,1000000205,Harper Exteriors LLC,8108 Aldrich Ave S,,Minneapolis,MN,55420,USA,6122703619,,,10126-000,3/22/2012 0:00,,FALSE,NR,0,1,0,FALSE,Micro-small,FALSE,11/1/2022 8:12
704,1000000206,"Price Law Firm, LLC","1960 Cliff Lake Road, Suite 129 267",,Eagan,MN,55122,USA,6512309888,kim@kpricelaw.com,http://www.kpricelaw.com,60075-000,12/28/2009 0:00,,FALSE,A+,100,1,0,FALSE,Micro-small,FALSE,12/3/2022 9:06
704,1000000207,Jerry&#39;s Optical,830 Washington Ave,,Detroit Lakes,MN,56501,USA,3202525777,wlutz@midwestvisioncenters.com,,60629-000,12/20/2000 0:00,,FALSE,A+,100,1,0,FALSE,Micro-small,FALSE,12/3/2022 9:06
704,1000000208,The Whimsy Factory,445 Bear Ave S,,Saint Paul,MN,55127,USA,6125841073,heather@thewhimsyfactory.com,http://www.thewhimsyfactory.com,50479-000,9/5/2014 0:00,,FALSE,NR,0,1,0,FALSE,Micro-small,FALSE,4/17/2022 8:05
704,1000000209,Xin Wong,4749 Nicollet Ave,,Minneapolis,MN,55419,USA,6128224888,,http://www.xinwongminneapolis.com/,50544-000,1/22/2014 0:00,,FALSE,NR,0,1,0,FALSE,Micro-small,FALSE,4/17/2022 8:05
704,1000000211,Diamond Built LLC,2823 29th St SW,,Pine River,MN,56474,USA,2188397033,diamondbuilt@yahoo.com,,10035-000,5/3/2015 0:00,,FALSE,A+,100,2,0,FALSE,Micro-small,FALSE,12/3/2022 9:06
704,1000000212,Scott Schultz - Remax Results,15451 Founders Ln,,Apple Valley,MN,55124,USA,9522217419,scott.schultz@results.net,,60729-000,4/25/2011 0:00,,FALSE,NR,0,1,0,FALSE,Micro-small,FALSE,1/16/2022 9:13
704,1000000214,Lakewinds Food Co-op ,6321 Bury Dr Suite 21,,Eden Prairie,MN,55346,USA,9522398497,,,80320-000,5/7/2014 0:00,,FALSE,NR,0,1,0,FALSE,Micro-small,FALSE,4/24/2022 8:09
704,1000000215,"Wild Women Too, Inc.",2020A Ford Pkwy,,Saint Paul,MN,55116,USA,6516909525,wbustp@msn.com,http://saintpaul.wbu.com/,50786-000,8/19/1997 0:00,,FALSE,A+,100,9,0,FALSE,Micro-small,FALSE,12/3/2022 9:06
704,1000000216,Dougherty Financial Group LLC,"90 south seventh street, Suite 4300",,Minneapolis,MN,55402,USA,6123764033,,http://www.doughertywealth.com/,20012-000,5/13/1998 0:00,,FALSE,A+,100,1,0,FALSE,Micro-small,FALSE,10/21/2021 3:59
704,1000000217,DJC Construction LLC,130 Westside Ln,,Fountain,MN,55935,USA,5072723624,duane.gilbertson.mn@gmail.com,https://www.facebook.com/DJC-Construction-Llc-765617193472049/timeline,10035-000,3/21/2014 0:00,,FALSE,NR,0,1,0,FALSE,Micro-small,FALSE,7/8/2022 12:28
704,1000000218,Savant Editing and Coaching,6244 Irving Ave S,,Edina,MN,55423,USA,6128124310,nakitasavant@gmail.com,,85260-000,1/30/2016 0:00,,FALSE,A+,100,3,0,FALSE,Micro-small,FALSE,12/3/2022 9:06
704,1000000219,GreBar Enterprises LCC,2046 129th Court NE,,Blaine,MN,55449,USA,6124197398,grebar368@msn.com,,60732-000,4/15/2016 0:00,,FALSE,A+,100,1,0,FALSE,Micro-small,FALSE,12/3/2022 9:06
704,1000000220,King Milan Barber Shop,511 University Ave. West,,St. Paul,MN,55103,USA,2199809055,,https://www.facebook.com/search/top/?q=king%20milan%20barber%20shop,60125-000,4/19/2016 0:00,,FALSE,NR,0,,0,FALSE,Micro-small,FALSE,3/21/2021 3:53
704,1000000221,"Greenwood Nursery, Inc",611 S 4th St,,Tracy,MN,56175,USA,5076293485,,https://greenwoodnurserymn.com/,50460-000,12/28/2005 0:00,,FALSE,NR,0,1,0,FALSE,Micro-small,FALSE,11/27/2022 9:00
704,1000000222,Twig The Fairy Store,2601 Fremont Ave S Apt 103,,Minneapolis,MN,55408,USA,,fans@twigthefairy.com,http://twigthefairy.myshopify.com/,10148-100,7/8/2014 0:00,,FALSE,A+,100,1,0,FALSE,Micro-small,FALSE,12/3/2022 9:06
704,1000000223,All Towing & Recovery,3854 Lexington Ave ,,Shoreview,MN,55126,USA,6517171977,,http://www.alltowingandrecovery.com/,60891-000,,,FALSE,NR,0,1,0,FALSE,Micro-small,FALSE,2/22/2022 9:34
704,1000000224,Salo Iot Solutions,322 Warwick St,,Saint Paul,MN,55105,USA,6516989110,,,60235-000,4/19/2016 0:00,,FALSE,NR,0,1,0,FALSE,Micro-small,FALSE,11/21/2022 8:39
704,1000000225,Absolute Outdoor Services LLC,350 93rd Ave NE,,Blaine,MN,55434,USA,7635608907,,,00219-000,4/6/2012 0:00,2/11/2020 0:00,FALSE,NR,0,,0,FALSE,Micro-small,FALSE,2/13/2020 4:52
704,1000000226,Gomez Concrete & Paving Stones,606 Copeland Avenue,,Manvel,ND,58256,USA,2182309135,concretejt@yahoo.com,,10032-000,,,FALSE,A+,100,1,0,FALSE,Micro-small,FALSE,5/5/2021 4:26
704,1000000227,Allied Art Works LLC,11009 Glen Wilding Ln,,Bloomington,MN,55431,USA,6122074044,jimk@alliedartworks.com,http://www.alliedartworks.com/home.html,60712-000,4/5/2001 0:00,,FALSE,A+,100,1,0,FALSE,Micro-small,FALSE,12/3/2022 9:06
704,1000000228,Allied Bfi,2795 117th St E,,Inver Grove Heights,MN,55077,USA,6514378101,,,80269-000,1/1/1992 0:00,,FALSE,A+,100,20,0,FALSE,Micro-small,FALSE,10/16/2021 4:13
704,1000000229,Allied Chiropractic,1011 2nd St N,Ste 202,Saint Cloud,MN,56303,USA,3202516422,,http://Alliedchiropractic.com,60205-000,1/1/1984 0:00,,FALSE,A+,100,4,0,FALSE,Micro-small,FALSE,6/10/2022 8:25
704,1000000231,Allied Drive Away Service,5310 Pleasant Ct E,,Saint Paul,MN,55110,USA,6127491511,,,70637-000,1/1/2006 0:00,,FALSE,A+,100,3,0,FALSE,Micro-small,FALSE,10/16/2021 4:13
704,1000000232,Commercial Lawn - Acculawn Minneapolis,15 S 1st St Ste 1608A,,Minneapolis,MN,55401,USA,6129992670,commlawnsvcmpls@gmail.com,https://acculawnmpls.com/,70605-100,1/10/2015 0:00,,FALSE,A+,100,12,0,FALSE,Micro-small,FALSE,12/3/2022 9:06
704,1000000234,The Louver Shop of Minneapolis L. L. C.,7006 S Park Dr,,Savage,MN,55378,USA,6122780400,,,72000-000,2/25/2014 0:00,,FALSE,NR,0,1,0,FALSE,Micro-small,FALSE,4/24/2022 8:09
704,1000000235,Across Country Tours LLC,2125 Division St N,,Saint Paul,MN,55109,USA,6514729228,acttours@aol.com,http://www.acrosscountrytours.com,70603-000,11/10/2013 0:00,,FALSE,A+,100,1,0,FALSE,Micro-small,FALSE,1/6/2023 9:13
704,1000000236,Spanier Metalworks,502 Minnie St,,Paynesville,MN,56362,USA,3202437552,,http://www.spanierwelding.com,10145-000,1/1/1987 0:00,,FALSE,A+,100,8,0,FALSE,Micro-small,FALSE,11/15/2022 9:12
704,1000000237,Mark&#39;s Welding & Fabricating LLC,1491 105th Ave NE,,Minneapolis,MN,55449,USA,7632735337,mark@marksweldingfabllc.com,http://www.marksweldingfabllc.com,60948-000,6/19/2011 0:00,,FALSE,A+,100,22,0,FALSE,Small,FALSE,8/17/2022 8:56
704,1000000238,Isanti Garage Doors,27089 Nassau St Ne,,Isanti,MN,55040,USA,7634448602,,http://www.isantigaragedoors.com,50403-000,1/1/2006 0:00,,FALSE,NR,0,1,0,FALSE,Micro-small,FALSE,6/7/2022 8:10
704,1000000240,I-Care Home Healthcare LLC,1112 E Lake St,,Minneapolis,MN,55407,USA,6128597109,mohamoud@i-carehhc.com,http://www.i-carehhc.com,60441-000,3/27/2014 0:00,,FALSE,A+,100,15,0,FALSE,Micro-small,FALSE,12/7/2022 9:09
704,1000000241,Metz-Weld,5005 Country Club Rd SW,,Rochester,MN,55902,USA,5073580410,,,60948-000,1/1/2007 0:00,,FALSE,NR,0,1,0,FALSE,Micro-small,FALSE,4/24/2022 8:09
704,1000000242,Arc Force Welding Inc,19219 Soder Rd,,Brainerd,MN,56401,USA,2188246028,arcforce.brian@gmail.com,http://arcforcewelding.energy/,60948-000,1/1/2009 0:00,,FALSE,A+,100,4,0,FALSE,Micro-small,FALSE,12/3/2022 9:06
704,1000000243,Deutsch Furniture Gallery,"3551 Commerical Drive SW, Suite #400",,Rochester,MN,55902,USA,5072808000,michelle@deutschfurniturehaus.com,http://www.deutschfurniturehaus.com,50291-000,5/22/2014 0:00,,FALSE,A+,100,4,,FALSE,Micro-small,FALSE,8/10/2021 4:19
704,1000000244,"Garage Enforcers, LLC",,,,,,,,,,85360-000,,11/17/2021 0:00,FALSE,NR,0,1,0,FALSE,Micro-small,FALSE,1/13/2022 9:32
704,1000000245,"McKenzie County Healthcare System, Inc.",709 4th Ave NE,,Watford City,ND,58854,USA,8558966862,,https://mckenziehealth.webview.com,60971-000,,,FALSE,NR,0,1,0,FALSE,Micro-small,FALSE,10/14/2022 8:13
704,1000000246,"MJM Custom Motorcycles and Fabrications, LLC",6202 Concord Blvd,,Inver Grove,MN,55076,USA,6518558979,,,50441-100,,,FALSE,NR,0,1,0,FALSE,Micro-small,FALSE,9/5/2021 4:01
704,1000000247,"Prairie Vista Paints, LLC",1720 2nd St SW,,Rochester,MN,55902,USA,,desiree.pasko@prairievistapaints.com,,10095-000,5/21/2015 0:00,4/27/2021 0:00,FALSE,NR,0,,0,FALSE,Micro-small,FALSE,4/29/2021 4:07
704,1000000248,WeatheredWoodMn.com LLC,8614 Lincoln St NE,,Blaine,MN,55434,USA,6519005131,gotwoodmn@gmail.com,http://www.weatheredwoodmn.com/,30756-000,12/15/2015 0:00,,FALSE,A+,100,1,0,FALSE,Micro-small,FALSE,12/7/2022 9:09
704,1000000249,C P & The Farm Boys Truck-auto,3198 Highway 16,,Beach,ND,58621,USA,7018723632,,,50039-000,4/21/2016 0:00,,FALSE,NR,0,1,0,FALSE,Micro-small,FALSE,4/24/2022 8:09
704,1000000250,"Infinity Gardens and Landscape Design, Inc",3737 2 1/2 Str NE,,Columbia Hts,MN,55421,USA,7636398519,,https://www.facebook.com/Infinity-Gardens-and-Landscape-Design-1650975568555016/,00155-000,7/15/2015 0:00,,FALSE,NR,0,1,0,FALSE,Micro-small,FALSE,6/7/2022 8:10
704,1000000252,"Tracy Chiropractic,P.A.",271 3rd St,,Tracy,MN,56175,USA,5076293630,tracychiro@gmail.com,,60205-000,10/5/1998 0:00,,FALSE,NR,0,2,0,FALSE,Micro-small,FALSE,4/24/2022 8:09
704,1000000253,"Signature Woods, LLC",210 County Road 1 E,,Dundas,MN,55019,USA,6512149611,info@signaturewoods.co,https://signaturewoods.co/,50111-000,3/11/2015 0:00,,FALSE,A+,100,3,0,FALSE,Small,FALSE,1/6/2023 9:13
704,1000000254,"Stucco Repair Experts, LLC",2026 Brewster St,,Saint Paul,MN,55108,USA,6129786760,stuccorepairexperts@yahoo.com,http://stuccorepairexperts.biz,10149-000,6/16/2014 0:00,,FALSE,A+,100,1,0,FALSE,Micro-small,FALSE,11/22/2022 8:45
704,1000000255,"Gypsum Plus, LLC",1020 8th Ave S,,South St Paul,MN,55075,USA,6127415548,gypsumplus16@gmail.com,https://www.facebook.com/gypsumplus16,10046-000,2/19/2016 0:00,,FALSE,A+,100,2,0,FALSE,Micro-small,FALSE,2/11/2021 4:05
704,1000000256,Mosquito Squad of Eastern North Dakota,PO Box 847,,Jamestown,ND,58402,USA,7019529735,,http://www.mosquitosquad.com,60650-000,1/1/2005 0:00,,FALSE,A+,100,1,0,FALSE,Micro-small,FALSE,3/22/2022 8:37
704,1000000257,Northland Native American Products LLC,1113 E Franklin Ave,,Minneapolis,MN,55404,USA,6128720390,marilynn@northlandvisions.com,http://www.northlandvisions.com,50310-000,12/31/2009 0:00,,FALSE,A+,100,2,0,FALSE,Small,FALSE,12/3/2022 9:06
704,1000000258,Rare Form Properties,3506 Nicollet Ave,,Minneapolis,MN,55408,USA,6512383216,becky@rareformproperties.com,http://rareformproperties.com/,60729-102,,,FALSE,A+,100,1,0,FALSE,Micro-small,FALSE,11/13/2021 3:59
704,1000000259,REVL,"527 Marquette Ave, Suite 100",,Minneapolis,MN,55402,USA,6128887385,info@revelcar.com,http://www.revlcar.com,70562-100,7/6/2015 0:00,,FALSE,A+,100,1,0,FALSE,Micro-small,FALSE,12/3/2022 9:06
704,1000000260,"Amigos Quality Environmental, LLC",13013 Court Pl,,Burnsville,MN,55337,USA,9525674865,info@amigosenvironmental.com,http://amigosenvironmental.com,10005-000,12/11/2015 0:00,,FALSE,A+,100,4,0,FALSE,Micro-small,FALSE,4/30/2022 8:10
704,1000001260,Travel O View LLC,12795 Collegeview Dr Apt 105,,Eden Prairie,MN,55347,USA,8006708719,support@traveloview.com,http://www.traveloview.com/,70632-000,2/2/2016 0:00,10/2/2018 0:00,FALSE,NR,0,1,0,FALSE,Micro-small,FALSE,11/13/2021 3:59
704,1000001261,"Synergy Software Solutions, Inc",12795 Collegeview Dr Apt 105,,Eden Prairie,MN,55347,USA,6514725744,srenukunta@hotmail.com,http://www.synergysoftwaresolutions.com/,60236-000,2/3/2011 0:00,,FALSE,NR,0,1,0,FALSE,Micro-small,FALSE,11/10/2022 9:22
704,1000001262,Crossfit Credence,3020 Highway 63 North,,Rochester,MN,55906,USA,5072617692,,http://www.crossfitcredence.com/,60430-000,,,FALSE,NR,0,1,0,FALSE,Micro-small,FALSE,6/18/2022 8:22
704,1000001264,Tesch Service Center,321 W. Elm Ave,,Waseca,MN,56093,USA,5078354610,teschservice@qwestoffice.net,http://www.teschservice.net/,60107-700,1/5/1971 0:00,,FALSE,NR,0,1,0,FALSE,Micro-small,FALSE,4/27/2022 8:42
704,1000001265,Huerta Auto Sales,124 Benson Ave SW,,Willmar,MN,56201,USA,3202351178,,,50040-000,9/25/2013 0:00,,FALSE,NR,0,2,0,FALSE,Micro-small,FALSE,6/10/2022 8:25
704,1000001266,Xtreme Yards,14834 werner rd nw,,Bemidji,MN,56601,USA,2187667368,xtremeyards99@gmail.com,,00155-000,1/1/2004 0:00,,FALSE,A+,100,1,0,FALSE,Micro-small,FALSE,12/3/2022 9:06
704,1000001267,Exsalonce,1411 College way,,Fergus Falls,MN,56537,USA,2187362434,kneuleib@gmail.com,,60420-000,4/25/2016 0:00,,FALSE,NR,0,1,0,FALSE,Micro-small,FALSE,10/5/2022 8:45
704,1000001268,Midwest Transport,18468 Amber Ln,,Pine City,MN,55063,USA,6126079878,mwcsolutions26@gmail.com,http://www.mwmover.com/,70630-000,,,FALSE,A+,100,1,0,FALSE,Micro-small,FALSE,11/13/2021 3:59
704,1000001269,Fox & Fox LLC,715 Florida Ave S Ste 402,,Golden Valley,MN,55426,USA,7635453777,admin@foxandfoxcpa.com,http://foxandfoxcpa.com,60005-000,4/1/1991 0:00,,FALSE,A+,100,3,0,FALSE,Micro-small,FALSE,1/14/2023 8:57
704,1000001270,Dodge Dental Clinic,406 W Highway St,,Dodge Center,MN,55927,USA,5073746635,pauljdonnay@frontiernet.net,,60289-000,1/1/1992 0:00,,FALSE,A+,100,4,0,FALSE,Micro-small,FALSE,1/17/2023 8:46
704,1000001271,Stich Angell Kreidler & Dodge,250 2nd Ave S Ste 120,,Minneapolis,MN,55401,USA,6123336251,,http://Stichlaw.com,60075-000,1/1/2001 0:00,,FALSE,NR,0,20,0,FALSE,Micro-small,FALSE,10/4/2022 8:07
704,1000001272,Country Inn & Suites - Duluth South,9330 W Skyline Pkwy,,Duluth,MN,55810,USA,2186280668,deanna.gregorich@gmail.com,,60573-000,4/25/2016 0:00,,FALSE,NR,0,1,0,FALSE,Micro-small,FALSE,5/3/2022 8:15
704,1000001273,Downtown Dental Care of Duluth,324 W Superior St Ste 828,,Duluth,MN,55802,USA,2187223679,,http://www.dentalcareduluth.com,60289-000,1/1/2007 0:00,,FALSE,A+,100,4,0,FALSE,Micro-small,FALSE,10/28/2022 8:24
704,1000001275,North Star Concrete and Stone,5975 Wedgewood Ln N Unit 21,,Plymouth,MN,55446,USA,3202920042,northstarconcretestone@gmail.com,http://www.facebook.com/northstarconcretestone,10032-000,2/4/2016 0:00,,FALSE,NR,0,1,0,FALSE,Micro-small,FALSE,5/13/2021 4:07
704,1000001276,Bengtson Painting Mike,6500 Highway 9 Nw,,Sunburg,MN,56289,USA,3203549098,,,10095-000,4/25/2016 0:00,10/14/2019 0:00,FALSE,NR,0,,0,FALSE,Micro-small,FALSE,10/15/2019 4:06
704,1000001277,Big Mikes Bbq Pit Stop Inc,Po Box 398,,Ironton,MN,56455,USA,2185466153,,,50544-000,4/25/2016 0:00,,FALSE,NR,0,,0,FALSE,Micro-small,FALSE,7/30/2019 3:56
704,1000001278,Big Mikes Stump Removal,9608 Vincent Ave N,,Brooklyn Park,MN,55444,USA,7632273489,,,00219-000,4/28/2003 0:00,,FALSE,NR,0,1,0,FALSE,Micro-small,FALSE,11/29/2022 9:07
704,1000001279,Mike Clark Livestock & Auction Service,PO Box 148,,Little Falls,MN,56345,USA,,,,60088-000,8/30/2010 0:00,10/16/2019 0:00,FALSE,NR,0,2,0,FALSE,Micro-small,FALSE,10/17/2019 4:27
704,1000001280,Dyna-Mike&#39;s Automotive,308 Howe St N,,Clarissa,MN,56440,USA,2187562145,,,60103-000,1/1/1999 0:00,,FALSE,NR,0,3,0,FALSE,Micro-small,FALSE,11/30/2022 9:27
704,1000001281,Mike Arnold Construction Inc,38824 532nd Ave,,Paynesville,MN,56362,USA,3202437545,,,10035-000,2/21/2003 0:00,,FALSE,A+,100,2,0,FALSE,Micro-small,FALSE,10/21/2021 3:59
704,1000001282,Ness Sealcoat Service,24137 498th Street,,Bemidji ,MN,56601,USA,2183330606,,,85295-000,,,FALSE,NR,0,1,0,FALSE,Micro-small,FALSE,9/1/2022 8:30
704,1000001283,Rainbow International of Fargo,102 W Beaton Dr,,West Fargo,ND,58078,USA,7014124776,ned@rainbowfargo.com,https://rainbowintl.com/fargo,60184-000,1/1/2007 0:00,,FALSE,A+,100,3,0,FALSE,Micro-small,FALSE,12/3/2022 9:06
704,1000001284,"WAHU (MPLS Huron Properties, LLC)","1016 Washington Ave. SE, ",,Minneapolis,MN,55414,USA,9527772083,,http://liveatwahu.com/,60042-000,4/25/2016 0:00,,FALSE,NR,0,1,0,FALSE,Micro-small,FALSE,5/3/2022 8:15
704,1000001285,Vasek Construction Inc,37486 Us Highway 2 SW,,Fisher,MN,56723,USA,2188912430,vasek@rrv.net,,10035-000,1/1/1999 0:00,,FALSE,A+,100,1,0,FALSE,Micro-small,FALSE,12/3/2022 9:06
704,1000001286,Ultra Industries,26467 Fallbrook Ave,,Wyoming,MN,55092,USA,6514088861,,,10145-000,4/25/2016 0:00,,FALSE,NR,0,5,0,FALSE,Micro-small,FALSE,5/3/2022 8:15
704,1000001287,Vermilion Range Construction Inc,10101 Allavus Rd,,Mountain Iron,MN,55768,USA,2182634552,gundy@wildblue.net,,10177-000,5/6/1993 0:00,,FALSE,A+,100,1,0,FALSE,Micro-small,FALSE,12/3/2022 9:06
704,1000001288,"Enviro-Air Cleaning, Inc.",2939 Enterprise Ave Ste A,,Hastings,MN,55033,USA,6513190842,office@enviroaircleaning.com,http://enviroaircleaning.com/,80013-000,10/15/2015 0:00,,TRUE,A+,100,5,0,FALSE,Small,FALSE,11/30/2022 9:26
704,1000001289,"Real Estate Liquidators, LLC",1920 Central Ave NE Ste 201,,Minneapolis,MN,55418,USA,8557777355,contact@realestateliquidators.com,http://www.realestateliquidators.com,60729-102,2/18/2011 0:00,,TRUE,A+,100,5,,FALSE,Micro-small,FALSE,10/19/2022 8:28
704,1000001291,Club Z In-Home Tutoring,307 Praire Way S,,Bayport,MN,55033,USA,6514016777,shill@clubztutoring.com,http://www.clubztutoring.com/woodbury,60912-000,2/24/2011 0:00,,FALSE,A+,100,1,0,FALSE,Micro-small,FALSE,1/14/2023 8:57
704,1000001292,Think Significant,2613 Longacres Drive,,Chanhassen,MN,55317,USA,9529346316,amy@thinksignificant.com,,60712-000,8/28/2013 0:00,,FALSE,NR,0,1,0,FALSE,Micro-small,FALSE,10/4/2022 8:07
704,1000001294,"Agassiz Concrete Pumping, LLC",2111 3rd St SE,PO Box 1082,Mandan,ND,58554,USA,7018800172,wags2009@icloud.com,https://northdakotaconcretepumping.com/,10032-000,12/6/2013 0:00,,FALSE,A+,100,1,0,FALSE,Micro-small,FALSE,1/14/2023 8:57
704,1000001295,Velocity Technology Solutions,1200 Washington Ave S,,Minneapolis,MN,55415,USA,6123373526,claire.florin@workoutloud.com,,60539-000,,,FALSE,NR,0,1,0,TRUE,Micro-small,FALSE,6/1/2022 21:27
704,1000001296,"Transformation House, Inc.",1410 S Ferry St,,Anoka,MN,55303,USA,7634277155,b.mathews@transformationhouse.com,http://transformationhouse.com/,60744-000,2/13/1991 0:00,,FALSE,A+,100,47,0,FALSE,Small,FALSE,12/3/2022 9:06
704,1000001297,Enterprise Sales Co,1213 E Main St,,Valley City,ND,58072,USA,7018451272,,https://www.escnd.com/,50440-000,5/20/1959 0:00,,FALSE,NR,0,1,0,FALSE,Micro-small,FALSE,5/5/2022 8:23
704,1000001298,Virgil Hesse Construction Inc,15422 County Road 21,,Watkins,MN,55389,USA,3206857007,,,10035-000,1/1/1992 0:00,,FALSE,NR,0,2,0,FALSE,Micro-small,FALSE,10/4/2022 8:07
704,1000001299,"Redline Architectural Sheet Metal, LLC",45 Ivy Ave W,,Saint Paul,MN,55117,USA,6124812299,jessie@redlineasm.com,http://www.redlineasm.com/,10126-300,2/16/2012 0:00,,FALSE,A+,100,11,0,FALSE,Small,FALSE,12/3/2022 9:06
704,1000001300,"Ivan&#39;s Tree Service, LLC",506 5th Ave S,,South St Paul,MN,55075,USA,6514856870,Ivanstreeservice@yahoo.com,http://www.ivanstreeservice.com,00219-000,12/16/2015 0:00,,FALSE,A+,100,2,0,FALSE,Micro-small,FALSE,1/7/2023 9:07
704,1000001301,"AIGC Group, LLC",2800 Freeway Blvd Ste 110,,Minneapolis,MN,55430,USA,8777827006,service.us@aigc-techsolutions.com,https://www.aigc-techsolutions.com,65243-100,3/15/2014 0:00,,FALSE,A+,100,10,0,FALSE,Micro-small,FALSE,11/1/2022 8:13
704,1000001302,Kingdom Pathways,11825 Bittersweet Str NW,,Coon Rapids,MN,55433,USA,6513878393,,http://www.kingdompathways.org,61090-000,7/27/2006 0:00,,FALSE,NR,0,1,0,FALSE,Micro-small,FALSE,5/15/2020 4:06
704,1000001303,West Central Abstracting,202 W Junious,,Fergus Falls,MN,56537,USA,2187365685,,http://www.fergusfalls.com/list/member/west-central-abstracting-co-464,20072-000,7/15/1988 0:00,,FALSE,NR,0,1,0,FALSE,Micro-small,FALSE,10/4/2022 8:07
704,1000001304,All Cremation Urns,3300 County Road 10 Ste 512N,,Crystal,MN,55429,USA,8778601259,,,61013-000,10/12/2016 0:00,10/29/2019 0:00,FALSE,NR,0,1,0,FALSE,Micro-small,FALSE,10/16/2021 4:13
704,1000001305,Bismarck Animal Clinic & Hospital,1414 E Calgary Ave,,Bismarck,ND,58503,USA,7012228255,bismarckanimalclinic@gmail.com,http://www.bismarckanimalclinic.com,00222-000,1/1/1984 0:00,,FALSE,A+,100,3,0,FALSE,Micro-small,FALSE,12/7/2022 9:09
704,1000001306,"LifeShift Services, LLC",1899 Fairmount Ave,,Saint Paul,MN,55105,USA,6513078513,alice.lifeshift@gmail.com,http://www.lifeshiftservices.com/,60349-000,10/6/2010 0:00,,FALSE,A+,100,1,0,FALSE,Micro-small,FALSE,12/7/2022 9:09
704,1000001307,WH Finance Company,6744 33rd street n. ,,Oakdale,MN,55128,USA,7273171626,hineswilliam45@gmail.com,http://www.hardmoneywebsite.com/whfinancecompany,20049-000,1/1/2012 0:00,,FALSE,A+,100,1,0,FALSE,Micro-small,FALSE,12/3/2022 9:06
704,1000001308,Nathan & Associates,PO Box 211284,,Saint Paul,MN,55121,USA,6514540505,DaleCNathan@nathanandassociatesinc.com,,60075-000,,,FALSE,A+,99.4,1,0,FALSE,Micro-small,FALSE,2/1/2020 4:31
704,1000001309,Nathan Corder Construction LLC,381 Three Havens Dr NE,,Alexandria,MN,56308,USA,3208153692,nathan@nccmn.com,http://nccmn.com/,10035-000,4/21/2009 0:00,,FALSE,A+,100,1,0,FALSE,Micro-small,FALSE,3/24/2021 4:31
704,1000001310,Nathan L. Egge Painting LLC,1009 9th Ave N,,Princeton,MN,55371,USA,7633895160,,,10095-000,4/10/2009 0:00,,FALSE,NR,0,1,0,FALSE,Micro-small,FALSE,11/20/2022 8:59
704,1000001311,"Nathan Leach, LLC",11909 Us 71,,Sauk Centre,MN,56378,USA,,,,60172-100,4/10/2009 0:00,,FALSE,NR,0,1,0,FALSE,Micro-small,FALSE,6/23/2019 4:01
704,1000001312,Nathan M Hansen Law Office,2440 Charles St N # 242,,Saint Paul,MN,55109,USA,6517049600,,http://midwestbankruptcy.com/,60075-000,1/1/2004 0:00,,FALSE,NR,0,1,0,FALSE,Micro-small,FALSE,11/21/2022 8:39
704,1000001313,Kyoto,1250 Town Centre Dr,,Eagan,MN,55123,USA,6519948880,,http://www.kyotomn.com/,50544-000,1/29/2009 0:00,,FALSE,NR,0,1,0,FALSE,Micro-small,FALSE,10/18/2022 8:16
704,1000001314,"Vee Plumbing & Heating, Inc.",317 Benzel Ave NW,,Madelia,MN,56062,USA,5076428700,veeplumbingandheating@gmail.com,,10113-300,11/30/2004 0:00,,FALSE,A+,100,1,0,FALSE,Micro-small,FALSE,12/3/2022 9:06
704,1000001315,Voigt Plumbing & Heating,201 4th Ave NW,,Grand Meadow,MN,55936,USA,5077547403,,,10003-000,1/1/1995 0:00,,FALSE,NR,0,3,0,FALSE,Micro-small,FALSE,10/4/2022 8:07
704,1000001316,"L.A.O. North, LLC",7354 Nelson Rd,,Crane Lake,MN,55725,USA,2189932314,rosehiplodge@frontiernet.net,,60370-000,12/28/2012 0:00,,FALSE,NR,0,1,0,FALSE,Micro-small,FALSE,10/21/2021 3:59
704,1000001317,"Voss Plumbing & Heating of Paynesville, Inc",Po Box 77,,Paynesville,MN,56362,USA,3202433644,,http://Vossplumbing.com,10113-010,1/1/1961 0:00,,FALSE,A+,100,38,0,FALSE,Small,FALSE,11/17/2022 9:21
704,1000001318,Voss Utility & Plumbing,885 Katydid Ln NE,,Saint Michael,MN,55376,USA,7634974577,,,10113-100,1/1/2005 0:00,,FALSE,NR,0,15,0,FALSE,Small,FALSE,11/29/2022 9:07
704,1000001319,Swanville Cooperative Creamery,107 Rhoda,,Swanville,MN,56382,USA,3205472455,marlene@swanvillecreamery.com,,50322-000,1/1/1907 0:00,,FALSE,A+,100,7,0,FALSE,Micro-small,FALSE,12/3/2022 9:06
704,1000001320,Wellness Transitions LLC,1111 7th St NW,,Rochester,MN,55901,USA,5072585052,medcityvapor@gmail.com,,81000-800,10/2/2015 0:00,,FALSE,NR,0,2,0,FALSE,Small,FALSE,6/14/2022 8:20
704,1000001321,Waage Appliance Repair,609 6th Ave NE,,Pencer,MN,56751,USA,2184693269,brennenwaage@yahoo.com,,60043-000,12/5/2014 0:00,,FALSE,A+,100,1,0,FALSE,Micro-small,FALSE,12/10/2022 9:02
704,1000001322,"Build Up Construction, LLC",1381 Felix St,,Mendota Heights,MN,55118,USA,6126007711,BuildUpConstructionServices@gmail.com,http://buildupconstructionservices.com/,10177-000,3/9/2001 0:00,,TRUE,A+,100,1,0,FALSE,Micro-small,FALSE,7/26/2022 8:43
704,1000001323,Magnolia and Vine Inc,11520 K Tel Dr,,Hopkins,MN,55343,USA,9522833123,customersupport@magnoliaandvine.com,http://www.magnoliaandvine.com,50367-000,8/25/2014 0:00,,FALSE,A+,100,1,0,FALSE,Micro-small,FALSE,12/3/2022 9:06
704,1000001324,Simply Ceramics ,1209 Lakeside Dr ,,Alexandria,MN,56308,USA,3203042949,okapi_98@yahoo.com,https://www.facebook.com/Simply-Ceramics-125245870839427/timeline,50192-000,4/29/2016 0:00,,FALSE,NR,0,1,0,FALSE,Micro-small,FALSE,5/5/2022 8:23
704,1000001325,National Credit Restorations LLC,900 American Blvd E Ste 102B,,Bloomington,MN,55420,USA,8558003426,Andrew@nationalcrs.com,https://national-credit-restorations-llc.business.site/,90027-000,8/18/2015 0:00,,FALSE,C,74,9,,FALSE,Micro-small,FALSE,1/20/2022 9:53
704,1000001326,"Inspections Plus, Inc.",4135 Washburn Ave N,,Minneapolis,MN,55412,USA,6122836477,steve@inspectionsplusguru.com,http://inspectionsplusguru.com,60469-000,6/28/2012 0:00,,TRUE,A+,100,1,,FALSE,Micro-small,FALSE,12/10/2022 9:02
704,1000001327,My Legacy Photography LLC,190 S River Ridge Cir,,Burnsville,MN,55337,USA,2294443353,calinn@mylegacymn.com,http://www.mylegacymn.com,60658-000,11/16/2015 0:00,,FALSE,A+,100,1,0,FALSE,Micro-small,FALSE,12/3/2022 9:06
704,1000001328,Dan&#39;s Consulting Inc,3310 River Bluff Dr,,Eagan,MN,55121,USA,6125785544,dbur@dansconsulting.com,http://www.dansconsulting.com,85320-000,1/4/2002 0:00,,FALSE,NR,0,1,0,FALSE,Micro-small,FALSE,11/15/2022 9:12
704,1000001329,"Solarized, LLC",618 2nd Ave SE,,Minneapolis,MN,55414,USA,6123146782,bmaki@solarizedmn.com,,80668-000,1/20/2014 0:00,,FALSE,F,59,3,0,FALSE,Micro-small,FALSE,5/12/2022 20:49
704,1000001330,STMA IT Solutions,5450 Quam Ave NE Ste 190,,Saint Michael,MN,55376,USA,7634970919,support@stmaitsolutions.com,http://www.stmaitsolutions.com,60245-000,1/1/2009 0:00,6/11/2021 0:00,FALSE,NR,0,7,0,FALSE,Micro-small,FALSE,6/30/2021 5:47
704,1000001331,Blue Moon Appliance LLC,101 E Howard St,,Hibbing,MN,55746,USA,2189291400,bluemoonappliance1@gmail.com,http://bluemoonappliance.com,50016-000,4/16/2015 0:00,,FALSE,F,54,1,0,FALSE,Micro-small,FALSE,10/8/2022 8:10
704,1000001332,Ely Area Credit Union,2 E Chapman St,,Ely,MN,55731,USA,2183653131,,http://www.elyareacu.org,20009-000,1/1/2000 0:00,,FALSE,NR,0,6,0,FALSE,Micro-small,FALSE,11/29/2022 9:07
704,1000001333,"Autowerks, Inc.",3718 Cedar Ave S,,Minneapolis,MN,55407,USA,6129878933,ironmanmortal@yahoo.com,http://www.usaircompressor.com/,60103-000,9/29/1997 0:00,,FALSE,NR,0,,0,FALSE,Micro-small,FALSE,3/27/2021 4:08
704,1000001334,Ming's Garden ,4190 Vinewood Ln N Ste 113,,Plymouth,MN,55442,USA,7635593131,,http://www.plymouthmingsgarden.com/,50544-000,7/22/1999 0:00,,FALSE,NR,0,1,0,FALSE,Micro-small,FALSE,5/5/2022 8:23
704,1000001335,MRT Massage,3004 27th Ave S,,Minneapolis,MN,55406,USA,6512399667,mrtmassage1@gmail.com,http://www.mrtmassage1.com/home.html,60543-000,12/18/2015 0:00,10/13/2016 0:00,FALSE,NR,0,,0,FALSE,Micro-small,FALSE,10/14/2019 4:11
704,1000001336,DKK Accounting LLC,530 S 66th Ave W,,Duluth,MN,55807,USA,2184914002,contact@dkkaccounting.com,http://www.dkkaccounting.com,60005-000,1/16/2015 0:00,,FALSE,A+,100,1,,FALSE,Micro-small,FALSE,12/22/2022 9:08
704,1000001337,Upper Midwest Athletic Construction Inc,3017 161st Ave NW,,Andover,MN,55304,USA,7637531127,Eric@umathleticconstruction.com,http://www.umathleticconstruction.com/,41000-000,5/14/2009 0:00,,FALSE,A+,100,2,0,FALSE,Micro-small,FALSE,12/3/2022 9:06
704,1000001338,John's Heating & Air,730 Broadway Ave S,,Cokato,MN,55321,USA,3202862387,,,10003-000,1/1/1993 0:00,,FALSE,NR,0,1,0,FALSE,Micro-small,FALSE,5/5/2022 8:23
704,1000001339,"Friendly Electric, LLC",11022 Quebec Ave N,,Champlin,MN,55316,USA,7635164160,justin@friendlyelectricllc.com,,10049-000,7/13/2014 0:00,,FALSE,A+,100,1,0,FALSE,Small,FALSE,12/2/2022 9:29
704,1000001340,3rd Hand Repair Services,1715 Whitetail Run,,Buffalo,MN,55313,USA,7632296758,3rdhandrepair@gmail.com,http://www.3rdhandrepair.com,15035-000,5/15/2015 0:00,,FALSE,A+,100,1,0,FALSE,Micro-small,FALSE,8/17/2021 4:06
704,1000001341,Water Damage Minneapolis,30780 108th St,,Princeton,MN,55371,USA,7632422103,help@waterdamageminneapolis.us,http://www.waterdamageminneapolis.us,60367-000,1/22/2008 0:00,,FALSE,A+,100,1,0,FALSE,Small,FALSE,9/14/2022 8:40
704,1000001342,"A. Bettin Enterprises, Inc.",7711 Lake Elmo Ave N,,Stillwater,MN,55082,USA,6517072316,adam.bettin@gmail.com,,60772-100,12/7/2006 0:00,,FALSE,A+,100,1,0,FALSE,Micro-small,FALSE,1/11/2023 9:00
704,1000001343,K C Colors,2515 Us Highway 12 SW,,Montrose,MN,55363,USA,7636584608,,,80398-000,1/1/1988 0:00,,FALSE,A+,100,7,0,FALSE,Micro-small,FALSE,2/1/2020 4:31
704,1000001344,Junction Plumbing & Heating Inc.,18872 95th St SE,,Becker,MN,55308,USA,6129197420,junctionpandh@yahoo.com,https://www.facebook.com/junction-plumbing-heating-inc-138552206318114/,10113-300,10/18/2012 0:00,,FALSE,A+,100,1,0,FALSE,Micro-small,FALSE,4/16/2022 8:14
704,1000001345,"Winter Home Construction, LLC",113 7th Ave NW,,Saint Joseph,MN,56374,USA,3203331813,mwinterhc@gmail.com,https://www.facebook.com/winterhomeconstruction/,10035-000,7/16/2012 0:00,,FALSE,A+,100,1,0,FALSE,Micro-small,FALSE,11/18/2021 4:10
704,1000001346,"Kokesh Landscape, LLC",3225 Shores Blvd,,Wayzata,MN,55391,USA,9524734157,kokeshlandscape@gmail.com,http://www.kokeshlandscape.com,00155-000,4/11/2011 0:00,,TRUE,A+,100,1,0,FALSE,Micro-small,FALSE,7/15/2022 8:35
704,1000001347,Kaduce Plumbing & Heating Inc,1060 South Victory Dr,,Mankato,MN,56001,USA,5078934456,kimk@kaduceplumbing.net,https://www.kaduceplumbing.com/,10003-000,1/1/1997 0:00,,FALSE,A+,100,12,0,FALSE,Micro-small,FALSE,9/10/2022 8:39
704,1000001348,"Kampsen Heating & Air Conditioning, Inc.",43736 County Road 183,,Sauk Centre,MN,56378,USA,3203514328,kampsenheating@gmail.com,,10182-000,3/5/2004 0:00,,FALSE,A+,100,4,0,FALSE,Micro-small,FALSE,12/9/2022 9:20
704,1000001349,Kasper Plumbing,1735 Wood Duck Ln,,Owatonna,MN,55060,USA,5074752270,joshua.kasper@hotmail.com,,10003-000,1/1/2007 0:00,,FALSE,A+,100,1,0,FALSE,Micro-small,FALSE,4/20/2022 8:36
704,1000001350,Riverstone Realty Llc,112 2nd St E,,Browerville,MN,56438,USA,6514800112,,,60729-000,,6/8/2016 0:00,FALSE,NR,0,1,,FALSE,Micro-small,FALSE,11/13/2021 3:59
704,1000001351,Block Plumbing & Heating,614 Rice Lake St,,Owatonna,MN,55060,USA,5074519545,blockplbg@gofast.am,http://www.owatonnaplumbers.com,10113-000,1/1/1984 0:00,,FALSE,A+,100,5,0,FALSE,Micro-small,FALSE,12/3/2022 9:06
704,1000001352,Koochiching Sportsman Assn,2045 Highway 11 E,,International Falls,MN,56649,USA,2182865553,,,70566-000,1/1/2003 0:00,,FALSE,A+,100,1,0,FALSE,Micro-small,FALSE,2/1/2020 4:31
704,1000001353,Premiere Lawn & Snow LLC,30010 Lanesburgh Dr,,New Prague,MN,56071,USA,9522925370,premierelawn@gmail.com,,00157-000,5/9/2011 0:00,,FALSE,A+,100,4,0,FALSE,Micro-small,FALSE,12/3/2022 9:06
704,1000001354,Northland Painting & Truck,5506 Thompson Hill Rd,,Duluth,MN,55810,USA,2186282438,jamie@northlandpainting.com,,10095-000,1/1/2004 0:00,,FALSE,A+,100,7,0,FALSE,Micro-small,FALSE,7/23/2022 8:44
704,1000001355,J J Cash & Pawn,49o University,,Saint Paul,MN,55106,USA,6517718156,,,50626-000,,6/8/2016 0:00,FALSE,NR,0,1,,FALSE,Micro-small,FALSE,6/10/2019 4:04
704,1000001356,Radiance Medspa Woodbury,7801 Afton Rd,,Woodbury,MN,55125,USA,6512049338,info@radiancewoodbury.com,http://www.radiancewoodbury.com,65134-100,2/22/2007 0:00,,FALSE,B-,80,20,0,FALSE,Small,FALSE,11/13/2021 3:59
704,1000001357,Broadband Marketing Group,7445 99th St N,,Dellwood,MN,55110,USA,6513935974,paullandgraf@broadbandmarketing.com,http://www.broadbandmarketing.com/,60538-000,1/12/2016 0:00,,FALSE,NR,0,1,0,FALSE,Micro-small,FALSE,6/22/2022 11:35
704,1000001358,Menorah West Apartments,3600 Phillips Pkwy,,Minneapolis,MN,55426,USA,9529270460,,,60042-000,1/1/1988 0:00,,FALSE,A+,100,10,0,FALSE,Small,FALSE,2/1/2020 4:31
704,1000001359,Car Coverz,2321 Carver Ave,,Saint Paul,MN,55119,USA,6513002526,,,50810-000,,,FALSE,A+,100,1,0,FALSE,Micro-small,FALSE,2/25/2022 9:44
704,1000001360,The Law Office of Iris Ramos LLC,"118 E. 26th Street, Suite 210B",,Minneapolis,MN,55404,USA,6128714477,iris@irisramoslaw.com,http://www.irisramoslegal.com/,60075-000,11/8/2012 0:00,,FALSE,A+,100,1,0,FALSE,Micro-small,FALSE,12/3/2022 9:06
704,1000001361,Osborne Apartments,659 Osborne Rd Ne,,Minneapolis,MN,55432,USA,7637802169,kedrey1@fairview.org,,60617-000,1/1/1994 0:00,,FALSE,A+,100,4,0,FALSE,Micro-small,FALSE,11/13/2021 3:59
704,1000001362,Marty Chiropractic,2424 E 117th St,,Burnsville,MN,55337,USA,9528945108,,http://martychiroclinic.com,60205-000,1/20/1993 0:00,,FALSE,NR,0,1,0,FALSE,Micro-small,FALSE,5/30/2022 8:36
704,1000001363,Builders Institute,7420 Unity Ave W #201,,Brooklyn Park,MN,55443,USA,6124626239,justiceford2000@gmail.com,,10035-000,8/8/2012 0:00,,FALSE,A+,100,1,0,FALSE,Micro-small,FALSE,12/3/2022 9:06
704,1000001364,Novy Media,6700 Elliot Ave S,,Edina,MN,55423,USA,9523562276,anthony.iverson@novymedia.com,http://www.novymedia.com,89000-000,8/25/2014 0:00,,FALSE,A+,100,1,0,FALSE,Micro-small,FALSE,12/7/2022 9:09
704,1000001365,Find My Lake Lot,39398 Outback Trl,,Browerville,MN,56438,USA,3208284262,hniki4@yahoo.com,http://findmylakelot.com/,60729-000,5/3/2016 0:00,,FALSE,NR,0,1,0,FALSE,Micro-small,FALSE,11/22/2022 8:45
704,1000001366,O&#39;Neall Electric,15118 64th St N,,Stillwater,MN,55082,USA,6512396026,info@oneillelectricmn.com,http://www.oneillelectric.com,60321-000,5/3/2016 0:00,,FALSE,A+,100,1,0,FALSE,Micro-small,FALSE,12/3/2022 9:06
704,1000001367,Cornerstone Construction LLC,13501 Pleasant Ln,,Burnsville,MN,55337,USA,7133598675,,https://www.facebook.com/cstone777/timeline,10177-000,2/20/2014 0:00,,FALSE,NR,0,2,0,FALSE,Micro-small,FALSE,6/15/2022 9:02
704,1000001368,Landreau Agency Inc.,2615 E Franklin Ave,,Minneapolis,MN,55406,USA,6122767035,carlos@ligmn.com,http://ligmn.com,20019-100,2/22/2008 0:00,,FALSE,NR,0,1,0,FALSE,Micro-small,FALSE,5/7/2022 8:21
704,1000001369,A & B Welding & Construction,8021 199th Ave Nw,,Elk River,MN,55330,USA,7637577191,lynn@abweldinginc.com,http://www.abweldinginc.com,60257-000,1/1/1998 0:00,,FALSE,A+,100,65,0,FALSE,Micro-small,FALSE,12/3/2022 9:06
704,1000001370,Trosen Construction,11211 33rd St Se,,Valley City,ND,58072,USA,7018454236,,,10126-000,6/30/2009 0:00,,FALSE,NR,0,3,0,FALSE,Micro-small,FALSE,5/11/2022 8:37
704,1000001371,"Minnesota Concrete, LLC",16620 Murphy Lake Blvd,,Prior Lake,MN,55372,USA,6128868777,john@mnconcrete.com,http://www.mnconcrete.com,50178-100,3/31/2014 0:00,,FALSE,B-,80,5,0,FALSE,Micro-small,FALSE,11/6/2022 9:03
704,1000001372,Rebound Sales Group,13497 Fenway Blvd Circle N STE 200,,Hugo,MN,55038,USA,6516334430,iviewhl@aol.com,http://ww.iview-headlamp.com,60558-000,8/22/2003 0:00,,FALSE,A+,100,1,0,FALSE,Small,FALSE,2/11/2021 4:06
704,1000001373,Jeffrey Gray Construction,43560 232nd Ave,,Mazeppa,MN,55956,USA,5072544927,,,10177-000,,,FALSE,A+,99.36,1,0,FALSE,Micro-small,FALSE,2/1/2020 4:31
704,1000001374,Mark Soschnik Remodeling,1027 Orchard Dr NE,,Sauk Rapids,MN,56379,USA,3202677792,,,10035-000,1/1/2000 0:00,10/18/2019 0:00,FALSE,NR,0,1,,FALSE,Micro-small,FALSE,11/25/2020 4:56
704,1000001375,"Card Surge, LLC",PO Box 144,,Sauk Centre,MN,56378,USA,8009853586,support@cardsurge.com,https://www.cardsurge.com,75000-000,4/29/2016 0:00,,TRUE,A+,100,1,0,FALSE,Micro-small,FALSE,12/16/2022 9:11
704,1000001376,Trynowski Construction Inc,1260 Frontage Rd,,Dakota,MN,55925,USA,5076436539,,,10032-000,2/6/1973 0:00,11/25/2019 0:00,FALSE,NR,0,3,0,FALSE,Micro-small,FALSE,11/28/2022 8:54
704,1000001377,Turtle Creek Construction Inc,701 18th Ave NW Ste 300,,Austin,MN,55912,USA,5074381653,lancep@gppaustin.com,,10035-000,9/12/2003 0:00,,FALSE,A+,100,5,0,FALSE,Micro-small,FALSE,12/3/2022 9:06
704,1000001378,Gilbert Alden PLLC,"2801 Cliff Rd. E., Suite 200",,Burnsville,MN,55337,USA,6125643622,info@gilbertalden.com,http://www.gilbertalden.com/,60075-000,12/31/2015 0:00,,FALSE,A+,100,4,,FALSE,Micro-small,FALSE,12/3/2022 9:06
704,1000001379,Residential Pest Solutions LLC,16564 Farrago Trl,,Farmington,MN,55024,USA,6124831499,,,60650-000,7/13/2015 0:00,7/28/2021 0:00,FALSE,NR,0,1,0,FALSE,Micro-small,FALSE,3/8/2022 9:29
704,1000001380,Great Residential Economical Environmental New Homes LLC ,9424 4TH AVE S,,Minneapolis,MN,55420,USA,6512455502,tomhandy123@gmail.com,,10078-000,8/15/2013 0:00,,FALSE,A+,100,1,0,FALSE,Micro-small,FALSE,12/3/2022 9:06
704,1000001381,MDinnovations L. L. C.,7455 France Ave S Ste 318,,Bloomington,MN,55435,USA,8443228671,info@migrainefactorx.com,http://www.migrainefactorx.com/,50712-000,3/23/2013 0:00,,FALSE,A+,100,1,0,FALSE,Micro-small,FALSE,10/30/2019 5:35
704,1000001382,Continental Hair Salon,4629 E Superior St,,Duluth,MN,55804,USA,2185255161,,,60134-000,1/1/1984 0:00,5/18/2016 0:00,FALSE,NR,0,2,,FALSE,Micro-small,FALSE,5/20/2019 4:18
704,1000001384,Continental Investors Rl Est,430 2nd Ave S,,Waite Park,MN,56387,USA,3202533473,,,60729-000,,,FALSE,A+,99.36,1,0,FALSE,Micro-small,FALSE,2/1/2020 4:31
704,1000001385,Continental Lift Truck Corp,16600 Johnson Memorial Dr,,Jordan,MN,55352,USA,9524923900,sales@continental-lift.com,http://Continental-Lift.com,80398-000,1/1/1984 0:00,,FALSE,A+,100,13,0,FALSE,Micro-small,FALSE,2/1/2020 4:31
704,1000001386,Continental Press Inc,34 Riverside Dr NE,,Saint Cloud,MN,56304,USA,3202515875,,http://Cpionline.com,30531-000,1/1/1984 0:00,,FALSE,NR,0,16,0,FALSE,Micro-small,FALSE,7/25/2021 4:13
704,1000001387,Continental Rehab Llc,10700 Old County Road 15 # 300,,Minneapolis,MN,55441,USA,9525460366,,,60205-000,1/1/2006 0:00,5/18/2016 0:00,FALSE,NR,0,4,,FALSE,Micro-small,FALSE,5/20/2019 4:18
704,1000001388,Continental Safety Equipment Inc,7143 Shady Oak Rd,,Eden Prairie,MN,55344,USA,6514547233,sales@csesafety.com,http://www.csesafety.com,30402-000,4/30/1946 0:00,,FALSE,A+,100,5,,FALSE,Micro-small,FALSE,12/21/2022 9:22
704,1000001390,Man Can Do,1336 Delaware Ave,,W Saint Paul,MN,55118,USA,6512711812,jcorniea@gmail.com,,15035-000,3/31/2010 0:00,,FALSE,A+,100,1,0,FALSE,Micro-small,FALSE,12/7/2022 9:09
704,1000001391,"U-CAN-TAN, LLC",2964 N Chestnut St,,Chaska,MN,55318,USA,9524485556,deblarso_2002@yahoo.com,http://www.ucantan.net/,60853-000,5/21/2014 0:00,,FALSE,A+,100,1,0,FALSE,Micro-small,FALSE,12/3/2022 9:06
704,1000001392,Universal AM-Can Ltd,656 Pelham Blvd Ste 1,,Saint Paul,MN,55114,USA,6519177771,,,70640-000,,6/3/2016 0:00,FALSE,NR,0,50,,FALSE,Medium,FALSE,11/13/2021 3:59
704,1000001393,We Can Ride,14300 County Road 62,,Minnetonka,MN,55345,USA,9529340288,,http://Wecanride.org,85271-000,8/30/2010 0:00,,FALSE,A+,100,15,0,FALSE,Micro-small,FALSE,5/12/2021 4:36
704,1000001394,"AHE Construction, LLC",16094 7th Ave NW,,Ham Lake,MN,55304,USA,6125987688,,,10035-000,12/17/2010 0:00,,FALSE,NR,0,1,0,FALSE,Micro-small,FALSE,6/3/2022 9:04
704,1000001395,"Surge Cycling, LLC",801 Tyrol Trl,,Golden Valley,MN,55416,USA,6123856911,kanderson@surgecycling.com,http://www.surgecycling.com,60353-000,1/24/2013 0:00,,FALSE,A+,100,1,0,FALSE,Micro-small,FALSE,12/3/2022 9:06
704,1000001396,Midwest Bus Parts Inc,15794 County Road 50 SE,,Big Lake,MN,55309,USA,7634949028,,http://www.midwestbusparts.com,70529-000,1/1/2007 0:00,,FALSE,A+,100,4,0,FALSE,Micro-small,FALSE,2/1/2020 4:31
704,1000001401,American Mortgage,,,Lakeville,MN,55044,USA,6122001052,,,20053-200,,10/16/2019 0:00,FALSE,NR,0,1,0,FALSE,Micro-small,FALSE,7/10/2021 4:23
704,1000001402,"Ryan Williams Home Services, LLC",2767 Highway 3,,Two Harbors,MN,55616,USA,2188345358,rjwilliams6_2008@yahoo.com,,10035-000,6/25/2013 0:00,,TRUE,A+,100,1,0,FALSE,Micro-small,FALSE,5/24/2022 8:16
704,1000001406,Otis-Magie Insurance Agency,332 West Superior St. Suite #700,,Duluth,MN,55802,USA,2187227753,tstender@otismagie.com,,20037-000,1886-01-01 00:00:00,,FALSE,NR,0,1,0,FALSE,Micro-small,FALSE,12/14/2022 9:35
704,1000001407,"Kiel Brothers Ventures, Inc.",108 Trim,,Willernie,MN,55090,USA,6517688389,abbottservice@qwestoffice.net,http://www.kielbrothers.com,50333-000,6/20/2006 0:00,,FALSE,A+,100,27,0,FALSE,Micro-small,FALSE,12/7/2022 9:09
704,1000001408,Investment Contracting LLC,3375 Hunter Drv,,Medina,MN,55340,USA,,,,20085-200,3/19/2010 0:00,5/31/2018 0:00,FALSE,NR,0,1,0,FALSE,Micro-small,FALSE,6/1/2021 4:03
704,1000001409,Ameritech Electric,601 S Garden St,,Lake City,MN,55041,USA,5079517813,,http://www.ameritech-electric.com,10049-000,1/1/2005 0:00,,FALSE,A+,100,1,0,FALSE,Micro-small,FALSE,3/30/2021 3:56
704,1000001410,"Panel Power, LLC",10612 Oregon Ave S,,Minneapolis,MN,55438,USA,6125479752,sales@powerpanels.net,,80668-200,12/18/2013 0:00,,FALSE,A+,100,1,0,FALSE,Micro-small,FALSE,12/3/2022 9:06
704,1000001412,"Employer Solutions, LLC",5775 Wayzata Blvd Ste 700,,St Louis Park,MN,55416,USA,9522616571,cgoldstein01@gmail.com,http://employersolutions.com,60172-101,3/14/2016 0:00,,FALSE,A+,100,1,0,FALSE,Micro-small,FALSE,1/10/2023 8:49
704,1000001413,Todd Signs ,5147 Miller Truck Hwy,,Hermantown,MN,55811,USA,2187296800,info@toddsigns.com,http://toddsigns.com,30614-000,12/31/2008 0:00,,FALSE,NR,0,1,0,FALSE,Micro-small,FALSE,5/9/2022 8:19
704,1000001414,TLC Coaching and Mediation Services,2202 Norton Rd,,Duluth,MN,55803,USA,2183907552,tlccoachingduluth@gmail.com,,60547-000,3/25/2015 0:00,,FALSE,A+,100,1,0,FALSE,Micro-small,FALSE,12/3/2022 9:06
704,1000001415,"BOSS, The Salon, LLC",111 3rd St S,,Stillwater,MN,55082,USA,2184817900,lenacooper22@gmail.com,https://www.facebook.com/Boss-The-Salon-662909337183437/,60134-000,11/11/2014 0:00,,FALSE,NR,0,1,0,FALSE,Micro-small,FALSE,11/28/2022 8:54
704,1000001418,Duane P Schroeder,10211 Cedar Lake Rd,,Hopkins,MN,55305,USA,9525455765,dps9@comcast.net,http://WWW.HomeSearch.Directory,60729-105,2/14/2001 0:00,,FALSE,A+,100,1,0,FALSE,Micro-small,FALSE,1/26/2021 4:03
704,1000001419,"Green Valley Roofing, LLC",11640 110th St,,Menahga,MN,56464,USA,2182553425,tammygvr@gmail.com,http://gvroofing.com,10126-200,1/1/2015 0:00,,FALSE,A+,100,7,0,FALSE,Micro-small,FALSE,12/3/2022 9:06
704,1000001420,Freeport Floral & Gifts,111 N 1st Ave,,Freeport,MN,56331,USA,3208367177,michele@freeportfloraldesign.com,http://www.freeportfloraldesign.com/,50275-000,1/1/2003 0:00,,FALSE,A+,100,2,0,FALSE,Micro-small,FALSE,2/2/2020 4:20
704,1000001421,"Modern Design, LLC",209 Paul Ave S,,Cologne,MN,55322,USA,9524664766,info@moderndesigncabinetry.com,https://www.moderndesigncabinetry.com,50121-000,9/1/1991 0:00,,FALSE,A+,100,50,0,FALSE,Small,FALSE,7/12/2022 8:33
704,1000001422,Feminist Eclectic Martial Arts,3743 Cedar Ave S,,Minneapolis,MN,55407,USA,6127297233,,,60037-000,1/1/1998 0:00,5/11/2016 0:00,FALSE,NR,0,1,,FALSE,Micro-small,FALSE,5/13/2019 4:10
704,1000001423,Sally&#39;s Laundro-matic,944 Rice S,,Saint Paul,MN,55117,USA,6514871998,,,60497-000,8/28/2006 0:00,,FALSE,NR,0,1,0,FALSE,Micro-small,FALSE,11/15/2022 9:11
704,1000001424,Acoustical Ceilings Inc,24078 Greenway Rd Ste 5,,Forest Lake,MN,55025,USA,6514624888,darrinaci@frontiernet.net,,10025-100,4/1/2007 0:00,,FALSE,A+,100,6,0,FALSE,Micro-small,FALSE,12/3/2022 9:06
704,1000001425,Mill City Painting LLC,22128 Red Oak Dr,,Rogers,MN,55374,USA,6128161411,,,10095-000,9/13/2013 0:00,,FALSE,NR,0,1,0,FALSE,Micro-small,FALSE,11/23/2022 9:43
704,1000001426,4MX LLC,21090 Prairie Hills Ln,,Prior Lake,MN,55372,USA,6124992793,,,50441-100,2/26/2009 0:00,11/11/2019 0:00,FALSE,NR,0,,0,FALSE,Micro-small,FALSE,11/12/2019 4:10
704,1000001428,JK Build By Design Construction Company LLC,7301 Franklin Circle E,,Eden Prairie,MN,55346,USA,6125548829,,,10035-000,3/13/2008 0:00,,FALSE,NR,0,1,0,FALSE,Micro-small,FALSE,9/20/2022 9:17
704,1000001429,Quicken Loans,,,,,,,,help@quickenloans.com,http://www.quickenloans.com,20049-000,5/6/2016 0:00,,FALSE,NR,0,1,0,FALSE,Micro-small,FALSE,8/16/2022 8:21
704,1000001430,MCS Remodel LLC,675 Innsbruck Drive,,Chaska,MN,55318,USA,6128500060,mcsremodel@gmail.com,,10035-000,4/29/2015 0:00,,FALSE,A+,100,1,,FALSE,Micro-small,FALSE,7/17/2021 4:10
704,1000001431,Holmstrom & Kvam PLLP Attorneys,685 Prentice St,,Granite Falls,MN,56241,USA,3207652263,,,60075-000,,,FALSE,A+,99.35,1,0,FALSE,Micro-small,FALSE,2/1/2020 4:31
704,1000001432,"Darrin James, LLC",5105 Minnetonka road,,Crystal,MN,55429,USA,9529223100,info@darrinjamessalon.com,http://www.darrinjamessalon.com,60134-000,12/6/2006 0:00,,FALSE,NR,0,1,0,FALSE,Micro-small,FALSE,5/9/2022 8:19
704,1000001433,Michael Lynne&#39;s Tennis Shop,5011 Excelsior Blvd,,Minneapolis,MN,55416,USA,9529261520,shop@mltennis.com,http://www.mltennis.com,50652-000,7/17/1990 0:00,,FALSE,A+,100,1,0,FALSE,Micro-small,FALSE,12/10/2022 9:02
704,1000001434,"RNN Construction, LLC",PO Box 61,,Gilman,MN,56333,USA,3203872464,,,10177-000,12/22/2009 0:00,,FALSE,NR,0,1,0,FALSE,Micro-small,FALSE,11/29/2022 9:07
704,1000001436,Nationwide Homes LLC,17013 Galleon Cir,,Rosemount,MN,55068,USA,6122724034,,,10035-000,12/29/2014 0:00,,FALSE,NR,0,1,0,FALSE,Micro-small,FALSE,6/22/2022 11:35
704,1000001438,Value Home Exteriors LLC,1623 Brunswick Ave S,,St Louis Park,MN,55416,USA,9206290245,vhe.llc@outlook.com,https://www.facebook.com/Value-Home-Exteriors-719475281501433/,10035-200,1/2/2015 0:00,,FALSE,A+,100,1,,FALSE,Micro-small,FALSE,7/26/2022 8:43
704,1000001442,Classic Coaches,209 N Black Eagle Dr,,Mankato,MN,56001,USA,5073441200,classicmn99@aol.com,,70529-000,1/21/2010 0:00,,FALSE,A+,100,2,0,FALSE,Micro-small,FALSE,12/3/2022 9:06
704,1000001443,"Landscaping Plus, Inc.",439 E 9th St,,Fairmont,MN,56031,USA,5072385437,landscapingplusinc@gmail.com,https://www.facebook.com/LandscapingPlusInc/timeline,00155-000,2/3/1997 0:00,,FALSE,A+,100,6,0,FALSE,Micro-small,FALSE,10/2/2022 8:16
704,1000001444,Decorative Concrete Designs,36435 615th Ave,,Gibbon,MN,55335,USA,5072171189,,,10032-000,5/9/2016 0:00,7/1/2019 0:00,FALSE,NR,0,1,0,FALSE,Micro-small,FALSE,7/8/2022 12:28
704,1000001445,"By Your Side, LLC",1 Farmdale Rd E Ste 200,,Hopkins,MN,55343,USA,6122200790,Norma@BYSMN.com,,85296-500,10/26/2015 0:00,,FALSE,A+,100,2,0,FALSE,Micro-small,FALSE,12/22/2022 9:08
704,1000001446,A + Home Services,3451 Interlachen Dr Ne,,Andover,MN,55304,USA,7634138809,,,50403-000,1/1/2005 0:00,,FALSE,NR,0,1,,FALSE,Micro-small,FALSE,6/7/2022 8:10
704,1000001447,PMG Advertising,314 Harbor Ln N,,Minneapolis,MN,55447,USA,7637463589,,,60016-000,5/9/2016 0:00,11/19/2019 0:00,FALSE,NR,0,1,0,FALSE,Micro-small,FALSE,11/21/2022 8:39
704,1000001448,Ram Janitorial,244 Broadway St W,,Rockville,MN,56369,USA,3202521888,,,60478-000,,,FALSE,A+,100,1,0,FALSE,Micro-small,FALSE,11/20/2022 8:59
704,1000001449,"Mid Valley Electric, LLC",206 Elm St NE,,Fertile,MN,56540,USA,2189456060,craig@gvtel.com,,10049-000,1/1/1991 0:00,,TRUE,A+,100,3,0,FALSE,Micro-small,FALSE,7/8/2022 12:29
704,1000001451,"Eagle Home Restorations, LLC",4057 Idaho Ave N,,New Hope,MN,55427,USA,9528552232,shalverson0101@gmail.com,,10177-000,2/3/2016 0:00,,FALSE,B-,80,2,0,FALSE,Micro-small,FALSE,8/5/2022 8:38
704,1000001452,Bella Mechanical LLC,2557 Maplewood Dr,,Saint Paul,MN,55109,USA,6514422173,,http://www.thebluebook.com/iProView/1238382,10182-200,10/13/2009 0:00,6/18/2014 0:00,FALSE,NR,0,1,0,FALSE,Micro-small,FALSE,6/7/2018 5:37
704,1000001453,The Exchange Nightclub,"#B100, 10 S 5th St",,Minneapolis,MN,55402,USA,6128862233,info@theexchangempls.com,http://theexchangempls.com/,50456-000,,,FALSE,A+,99.32,,0,FALSE,Micro-small,FALSE,2/1/2020 4:31
704,1000001454,Guth Electric Inc,700 Weaver Ln,,Northfield,MN,55019,USA,5076459760,zulma.beniquez@guthelectric.com,,10049-000,1/1/1984 0:00,,FALSE,A+,100,6,,FALSE,Micro-small,FALSE,1/14/2023 8:57
704,1000001455,Bueno Construction,515 78th Ave #4,,Minneapolis,MN,55432,USA,6122326871,,,10177-000,,,FALSE,A+,100,1,0,FALSE,Micro-small,FALSE,1/8/2021 4:02
704,1000001456,Franklin City Shop,320 2nd Ave E,,Franklin,MN,55333,USA,5075572728,,,99998-000,8/30/2010 0:00,,FALSE,NR,0,3,0,FALSE,Micro-small,FALSE,2/1/2020 4:31
704,1000001457,Balmoral Golf Course,28294 State Highway 78,,Battle Lake,MN,56515,USA,2183672055,balmoralproshop@arvig.net,http://www.golfbalmoral.com,60410-000,1/1/1995 0:00,,FALSE,A+,100,10,0,FALSE,Small,FALSE,11/18/2021 4:09
704,1000001458,Meadowridge Assisted & Memory Care Living,7545 Country Club Dr,,Golden Valley,MN,55427,USA,7637627300,,,61002-100,7/2/2015 0:00,,FALSE,NR,0,1,0,FALSE,Micro-small,FALSE,12/4/2022 9:03
704,1000001460,Southwest Insurance Service,205 Saint Olaf Ave N,,Canby,MN,56220,USA,5072237248,kari@swiscanby.com,http://www.swiscanby.com,20080-000,1/1/1984 0:00,,FALSE,A+,100,3,0,FALSE,Micro-small,FALSE,2/1/2020 4:31
704,1000001461,Elan Construction LLC,610 1st St SE,,Wadena,MN,56482,USA,2186400789,paul@elanconstructionllc.com,,10035-000,4/3/2015 0:00,1/12/2021 0:00,FALSE,NR,0,2,0,FALSE,Micro-small,FALSE,5/13/2022 19:57
704,1000001464,Dedicated Financial GBC,1970 Oakcrest Ave Ste 217,,Roseville,MN,55113,USA,8443513945,info@dedicatedcri.com,http://www.dedicatedcri.com/,60226-000,1/10/2015 0:00,,TRUE,A+,100,34,0,FALSE,Small,FALSE,1/10/2023 8:49
704,1000001466,All Type's Construction,2700 O&#39;Henry Road,,Brooklyn Center,MN,55430,USA,7635616036,,,10177-000,,,FALSE,A+,99.32,1,0,FALSE,Micro-small,FALSE,2/1/2020 4:31
704,1000001467,Ace Rent A Car,2143 77th St,,Minneapolis,MN,55450,USA,9523454017,legal@walser.com,https://www.acerentacar.com/LocationsUs.aspx#Minnesota,60102-000,11/28/2012 0:00,,TRUE,A+,100,24,0,FALSE,Medium,FALSE,1/10/2023 8:49
704,1000001468,ATEK Companies Inc,"10025 Valley View Road, Suite 190",,Eden Prairie,MN,55344,USA,7635537700,,https://www.atekcompanies.com/,80706-000,8/30/2010 0:00,,FALSE,A+,100,2,0,FALSE,Micro-small,FALSE,12/22/2022 9:08
704,1000001469,Downing Dittrich & Lawrence,2400 Crest Ln SW,,Rochester,MN,55902,USA,5072888432,,,60075-000,1/1/2000 0:00,,FALSE,A+,100,5,0,FALSE,Micro-small,FALSE,11/13/2021 3:59
704,1000001470,"construction2style, LLC",14390 Ranch Rd NW,,Elk River,MN,55330,USA,7632584839,construction2style@gmail.com,http://www.construction2style.com,10035-101,11/19/2013 0:00,,FALSE,A+,100,2,0,FALSE,Micro-small,FALSE,1/13/2023 9:01
704,1000001471,Evolution Appraisals L. L. C.,405 N 80th Avenue W,,Duluth,MN,55807,USA,2187212522,,,61100-000,1/11/2016 0:00,,FALSE,NR,0,1,0,FALSE,Micro-small,FALSE,11/23/2022 9:43
704,1000001472,"Eagle Creek Contractors, LLC",5035 Eagle Creek Blvd,,Shakopee,MN,55379,USA,6128022199,tony@eaglecreekcontractors.com,http://www.eaglecreekcontractors.com,10126-000,10/8/2013 0:00,,TRUE,A+,100,2,0,FALSE,Micro-small,FALSE,8/5/2022 8:39
704,1000001473,"Tony Simon Construction, LLC",13329 Lexington Rd,,Montgomery,MN,56069,USA,5077442636,tsimonconstruction@gmail.com,,10177-000,2/19/2010 0:00,,FALSE,A+,100,1,0,FALSE,Micro-small,FALSE,12/7/2022 9:09
704,1000001474,"Eagle Construction Company, Inc.",515 9th Avenue NW,,Little Falls,MN,56345,USA,3206325429,,,10177-000,1/10/1973 0:00,,FALSE,NR,0,1,0,FALSE,Micro-small,FALSE,6/15/2022 9:02
704,1000001475,Royal Care Car Wash,408 N Highway 10,,Royalton,MN,56373,USA,3205840191,,,60180-000,7/2/2009 0:00,,FALSE,NR,0,1,0,FALSE,Micro-small,FALSE,10/26/2022 8:41
704,1000001476,"Kampmeyer Law, PLLC",310 4th Ave S,Ste 5010,Minneapolis,MN,55415,USA,7634585145,rkampmeyer@kampmeyerlaw.com,https://www.facebook.com/kampmeyerlaw/,60075-000,3/18/2014 0:00,,FALSE,A+,100,1,0,FALSE,Micro-small,FALSE,12/3/2022 9:06
704,1000001477,"The Coachables, LLC",10001 Liatris Lane,,Eden Prairie,MN,55347,USA,6123512296,sanderson@thecoachables.com,http://thecoachables.com,85260-000,1/21/2014 0:00,,FALSE,A+,100,1,0,FALSE,Micro-small,FALSE,12/3/2022 9:06
704,1000001478,Creative Incentives Inc,571 79th Way NE Ste 101,,Fridley,MN,55432,USA,7637802340,custserv@logohere.com,http://logohere.com,60539-000,2/24/1994 0:00,,FALSE,A+,100,1,0,FALSE,Micro-small,FALSE,12/23/2022 9:05
704,1000001479,Prescott Sales Pilots,3660 Black Oaks Lane North,,Plymouth,MN,55446,USA,6124054402,cdprescott@prescottpilots.com,,60705-000,12/18/2015 0:00,,FALSE,NR,0,1,0,FALSE,Micro-small,FALSE,5/15/2022 8:13
704,1000001480,Robtopia Creative LLC,4097 Pennsylvania Ave.,,Saint Paul,MN,55123,USA,6123842495,robtopiacreative@gmail.com,http://robtopiacreative.com,87200-000,3/4/2015 0:00,,FALSE,A+,100,1,0,FALSE,Micro-small,FALSE,12/7/2022 9:09
704,1000001481,Midland Nursery Inc,3536 State Highway 55 SE,,Buffalo,MN,55313,USA,7634786122,info@midlandnursery.com,http://Midlandnursery.com,00155-000,1/1/1984 0:00,,FALSE,A+,100,25,0,FALSE,Micro-small,FALSE,12/17/2022 9:00
704,1000001482,"Sell It Online MN, LLC",5263 Edina Industrial Blvd.,,Edina,MN,55439,USA,6128400130,marisa@sellitonlinemn.com,http://sellitonlinemn.com,62100-000,3/11/2015 0:00,,FALSE,A+,100,2,0,FALSE,Micro-small,FALSE,12/17/2022 9:01
704,1000001483,"First Call Renovation, LLC",721 E 38th St,,Hibbing,MN,55746,USA,2189661470,tjsinc@yahoo.com,,10035-000,6/21/2013 0:00,,TRUE,A+,100,3,0,FALSE,Micro-small,FALSE,5/24/2022 8:16
704,1000001484,Millards Creative Customs,14070 37th Place N.,,Minneapolis,MN,55447,USA,6125671622,millardscustoms@gmail.com,,30760-000,11/7/2013 0:00,,FALSE,NR,0,1,0,FALSE,Micro-small,FALSE,5/23/2022 8:19
704,1000001485,A & L Painting,720 20th Ave N,,Sartell,MN,56377,USA,3204204113,alanlipp@yahoo.com,,10095-000,4/14/2005 0:00,,FALSE,A+,100,2,0,FALSE,Micro-small,FALSE,11/4/2022 8:21
704,1000001486,Northwest Glass & Service,PO Box 505,,Pelican Rapids,MN,56572,USA,2188634442,,,50476-000,1/1/2005 0:00,,FALSE,A+,100,1,0,FALSE,Micro-small,FALSE,12/5/2020 4:10
704,1000001487,"Northern Propane and Fuel, LLC",102B W Main Ave,,Fertile,MN,56540,USA,2189645020,,http://www.northernpropane.com,30479-000,12/29/2006 0:00,,FALSE,NR,0,3,0,FALSE,Micro-small,FALSE,11/27/2022 9:00
704,1000001488,Lebsock Welding & Machine,PO Box 1260,,Watford City,ND,58854,USA,7018443378,nancy@guthelectric.com,,60948-000,1/1/2003 0:00,,FALSE,A+,100,3,0,FALSE,Micro-small,FALSE,2/1/2020 4:31
704,1000001489,American Casing & Equipment,2721 Front St W,,Williston,ND,58801,USA,7015724573,,,00174-000,1/1/1992 0:00,,FALSE,A+,100,110,0,FALSE,Micro-small,FALSE,5/10/2022 21:11
704,1000001491,Northland General LLC,58691 185th Ave,,Kellogg,MN,55945,USA,5072594676,ngdank1@gmail.com,,10035-000,,,FALSE,A+,100,1,0,FALSE,Micro-small,FALSE,11/24/2020 4:02
704,1000001493,MSL Landscape and Fencing,1975 Diablo Dr SE,,Owatonna,MN,55060,USA,5074136315,wdmiller30@yahoo.com,http://msllandscapingandfencing.com/,00155-000,4/13/2012 0:00,,FALSE,A+,100,1,0,FALSE,Micro-small,FALSE,12/7/2022 9:09
704,1000001494,"Staffing Partners, Inc.","5909 Baker Road, Suite 570",,Minnetonka,MN,55345,USA,9529264200,info@staffingpartnersinc.com,http://www.staffingpartnersinc.com/,60327-000,9/14/1987 0:00,,FALSE,A+,100,1,0,FALSE,Micro-small,FALSE,12/7/2022 9:09
704,1000001495,Minnesota Native Landscapes,8740 77th St NE,,Otsego,MN,55362,USA,7632950010,Info@MNLcorp.com,http://mnnativelandscapes.com/,00155-000,1/1/2008 0:00,,FALSE,A+,100,15,0,FALSE,Micro-small,FALSE,4/13/2022 8:06
704,1000001496,"Anvil Construction, LLC",10817 OPAL ST NE,,Circle Pines,MN,55014,USA,6519558632,anvilconstruction@icloud.com,,10035-000,2/25/2015 0:00,,FALSE,A+,100,4,0,FALSE,Micro-small,FALSE,12/7/2022 9:09
704,1000001497,Maya Cuisine,1840 Central Ave NE,,Minneapolis,MN,55418,USA,6127890775,,http://www.mayacuisineusa.com/,50544-000,,,FALSE,A+,100,1,0,FALSE,Micro-small,FALSE,2/16/2022 10:06
704,1000001498,Lenzen Roofing & Siding L. L. C.,2108 Parkside Cir,,Cologne,MN,55322,USA,6122268092,,,85318-300,5/10/2016 0:00,,FALSE,A+,100,1,0,FALSE,Micro-small,FALSE,6/12/2021 6:08
704,1000001499,Cloud 9 Spa & Salon ,108  1st  Ave SW,,Rochester,MN,55902,USA,5072886689,massagecloud99@gmail.com,http://www.massagecloud9.com,60542-000,,,FALSE,A+,99.31,1,0,FALSE,Micro-small,FALSE,2/1/2020 4:31
704,1000001500,YMCA--Bismarck,1608 N Washington St.,,Bismarck,ND,58501,USA,7012551525,,http://www.bismarckymca.org/,60430-100,,,FALSE,NR,0,1,0,FALSE,Micro-small,FALSE,6/15/2022 9:02
704,1000001501,"Northern Rx Construction, LLP",5601 Smetana Dr,,Hopkins,MN,55343,USA,7632807654,mariah@northernrxconstruction.com,http://www.northernrxconstruction.com,10177-000,3/14/2016 0:00,,FALSE,NR,0,2,0,FALSE,Micro-small,FALSE,8/17/2022 8:56
704,1000001502,"Space Crafting, Inc. ",2657 dupont ave s #100,,Minneapolis,MN,55408,USA,6123534073,info@spacecrafting.com,http://www.spacecrafting.com,61044-000,4/28/2004 0:00,,FALSE,A+,100,1,0,FALSE,Micro-small,FALSE,12/7/2022 9:09
704,1000001503,Fix Design Haus,5301 Edina Industrial Blvd Ste 5,,Edina,MN,55439,USA,9525009796,info@fixdesignhaus.com,https://fixdesignhaus.com/,85269-000,4/9/2015 0:00,,FALSE,A+,100,1,0,FALSE,Micro-small,FALSE,1/13/2023 9:01
704,1000001504,Countryside Service of Mankato LLC,901 Wettergren St,,Saint Peter,MN,56082,USA,5073444357,countrysideservice.pm@gmail.com,,10035-000,5/28/2015 0:00,,FALSE,A+,100,1,0,FALSE,Micro-small,FALSE,12/7/2022 9:09
704,1000001505,Christian Dean Architecture LLC,4221 Beard Ave S,,Minneapolis,MN,55410,USA,6123822883,cdean@deanarch.com,http://www.deanarch.com,60057-000,3/30/2013 0:00,,FALSE,A+,100,1,0,FALSE,Micro-small,FALSE,12/7/2022 9:09
704,1000001506,Lawn & Snow Express,3500 Vicksburg Ln N # 328,,Minneapolis,MN,55447,USA,8554669464,customerservice@lawncareexpress.com,http://www.lawnandsnowexpress.com,82300-000,3/16/2015 0:00,,FALSE,A+,100,47,,FALSE,Small,FALSE,12/28/2022 9:14
704,1000001507,701 Customs Inc,1518 S Broadway,,Minot,ND,58701,USA,7018378934,seven01customs@srt.com,http://www.701customs.com,50045-000,9/1/2008 0:00,,FALSE,A+,100,3,0,FALSE,Micro-small,FALSE,12/7/2022 9:09
704,1000001508,"HTraders.com, LLC",4828 Erickson Dr,,New Hope,MN,55428,USA,9164206122,customercare@htraders.com,http://www.htraders.com/,62100-000,1/6/2015 0:00,7/1/2019 0:00,FALSE,NR,0,1,0,FALSE,Micro-small,FALSE,7/8/2022 12:28
704,1000001509,"Bee Line Towing, LLC",11724 Bittersweet St NW,,Coon Rapids,MN,55433,USA,5153317643,,,60891-000,11/5/2012 0:00,,FALSE,B-,80,1,0,FALSE,Micro-small,FALSE,10/24/2022 7:58
704,1000001510,Gluten free Savonnerie ,11310 89th Street NW ,,Wildrose ,ND,58795,USA,7015392256,,http://www.gfsoap.com,30632-000,,,FALSE,NR,0,1,0,FALSE,Micro-small,FALSE,10/28/2022 8:24
704,1000001511,Moving Up Enterprise,1100 Village St SE,,New Prague,MN,56071,USA,9527583810,,,60618-000,,,FALSE,A+,99.31,,0,FALSE,Micro-small,FALSE,2/1/2020 4:31
704,1000001513,Rick's Car Cleaning & Detailing,163 4th St S,,Winsted,MN,55395,USA,3204854269,,,60180-000,1/1/1997 0:00,5/12/2016 0:00,FALSE,NR,0,1,,FALSE,Micro-small,FALSE,5/13/2019 4:10
704,1000001514,Monticello Bait & Tackle,1213 Highway 25 S,,Monticello,MN,55362,USA,7632951187,,,50608-000,1/1/2009 0:00,5/13/2016 0:00,FALSE,NR,0,6,,FALSE,Micro-small,FALSE,5/20/2019 4:18
704,1000001515,Mbd Merchant,25 Birch Ave S,,Maple Lake,MN,55358,USA,3209637345,,,50085-000,,,FALSE,NR,0,1,,FALSE,Micro-small,FALSE,5/24/2022 8:16
704,1000001516,CHI St. Alexius Health Devils Lake Hospital,1031 7th St NE,,Devils Lake,ND,58301,USA,7016622131,AndrewLankowicz@catholichealth.net,https://www.chistalexiushealth.org/locations/devils-lake,60445-000,1884-01-01 00:00:00,,FALSE,NR,0,150,0,FALSE,Medium,FALSE,11/23/2021 6:33
704,1000001517,Kearney Properties Cottage,Lake Washington,,Madison Lake,MN,56063,USA,5072433533,,,60729-000,,,FALSE,A+,100,1,0,FALSE,Micro-small,FALSE,11/1/2022 8:13
704,1000001518,Legal Service-north Dakota,345 Main St,,New Town,ND,58763,USA,7016274719,,,60075-000,1/1/1989 0:00,,FALSE,A+,100,3,0,FALSE,Micro-small,FALSE,10/21/2021 3:59
704,1000001519,Miller Trucking,PO Box 414,,Isle,MN,56342,USA,3206763421,,,70637-000,1/1/1984 0:00,,FALSE,A+,100,1,0,FALSE,Micro-small,FALSE,11/1/2022 8:13
704,1000001520,Ry&#39;s Diesel Service,73925 242nd St,,Beardsley,MN,56211,USA,3207487629,,,80398-000,1/1/1993 0:00,,FALSE,A+,100,1,0,FALSE,Micro-small,FALSE,10/26/2022 8:41
704,1000001521,"Two Men and Their Tools, LLC",4542 Nicollet Ave,,Minneapolis,MN,55419,USA,6123559785,korsmoben@gmail.com,,10035-000,2/16/2015 0:00,,FALSE,A+,100,2,0,FALSE,Micro-small,FALSE,8/16/2022 8:20
704,1000001522,Matt Langland Construction LLC,202 E Woodman St,,Jeffers,MN,56145,USA,5073170157,mlangland1981@gmail.com,,10177-000,1/12/2010 0:00,,FALSE,A+,100,1,0,FALSE,Micro-small,FALSE,11/8/2022 9:19
704,1000001523,Epic Auto And Sports Center,3256 Pine Tree St,,Jenkins,MN,56474,USA,2185685553,,http://www.epicautoandsports.com,50040-000,,,FALSE,B-,80,1,0,FALSE,Micro-small,FALSE,12/20/2022 8:57
704,1000001524,The Cut Above,524 Washington St,,Brainerd,MN,56401,USA,2188291234,,,60134-000,1/1/1984 0:00,,FALSE,NR,0,7,0,FALSE,Micro-small,FALSE,8/15/2021 4:22
704,1000001525,Chris Robichaud Painting,2081 Fairmount Ave,,Saint Paul,MN,55105,USA,6514504340,,,10095-300,9/8/1992 0:00,7/28/2021 0:00,FALSE,NR,0,1,0,FALSE,Micro-small,FALSE,7/30/2021 4:16
704,1000001526,Basin Concrete Trucking & Rental,9 32nd Ave NW,,Williston,ND,58801,USA,7017743085,sara@basintrucking.com,,00174-000,1/30/1981 0:00,,FALSE,A+,100,90,0,FALSE,Small,FALSE,12/7/2022 9:09
704,1000001528,Aileron Financial LLC,14577 Grand Ave Ste 250,,Burnsville,MN,55306,USA,6513304249,john@stcroixwm.com,http://aileronfinancial.com/,20012-000,3/4/2014 0:00,,FALSE,A+,100,1,0,FALSE,Micro-small,FALSE,12/7/2022 9:09
704,1000001529,Hill City Service,140 Linden Ave Ste 169,,Hill City,MN,55748,USA,2186978174,,,60107-700,1/2/2002 0:00,,FALSE,NR,0,1,0,FALSE,Micro-small,FALSE,12/4/2022 9:03
704,1000001530,Aroona Events,4881 Steeplechase Way,,Eagan,MN,55122,USA,6122163663,aruna@aroonaevents.com,http://aroonaevents.com/,65259-000,3/14/2010 0:00,,TRUE,A+,100,1,0,FALSE,Micro-small,FALSE,1/13/2023 9:01
704,1000001531,"Johnson Spinal Care Associates, P.A.",14859 Energy Way,,Apple Valley,MN,55124,USA,9524323333,frontdesk@johnsonspinalcare.com,http://www.johnsonspinalcare.com,60205-000,10/13/1986 0:00,,FALSE,A+,100,13,0,FALSE,Small,FALSE,12/7/2022 9:09
704,1000001532,"Gordy Serbus & Sons Gravel, LLC",71731 310th St,,Redwood Falls,MN,56283,USA,5076976459,cserbus@hotmail.com,https://www.serbusandsons.com/,50101-000,3/3/1998 0:00,,FALSE,A+,100,9,0,FALSE,Micro-small,FALSE,1/11/2023 9:00
704,1000001533,"Baker Williams, LLP",2097 E County Rd D,,Saint Paul,MN,55109,USA,6517734111,jbaker@bakerwilliamslaw.com,http://bakerwilliamslaw.com,60075-000,1/2/2008 0:00,,FALSE,NR,0,1,0,FALSE,Micro-small,FALSE,9/17/2021 4:03
704,1000001534,"MRK Financial Solutions, Inc.",3020 Harbor Ln N,,Plymouth,MN,55447,USA,7635418400,carlas@mrkfs.com,http://www.mrkfinancial.com,20012-000,6/24/1993 0:00,,FALSE,A+,100,17,0,FALSE,Small,FALSE,12/7/2022 9:09
704,1000001535,Orange Brain Technology LLC,25501 Lost Long Lake Rd,,Aitkin,MN,56431,USA,2182321860,maasseen@icloud.com,http://www.orangebrainit.com,60235-300,4/20/2016 0:00,,FALSE,NR,0,1,,FALSE,Micro-small,FALSE,12/1/2022 9:22
704,1000001537,Kortus Contracting & Remodeling LLC,37866 309th St,,Aitkin,MN,56431,USA,6513256691,tskortus@gmail.com,https://www.facebook.com/Kortus-Contracting-and-Remodeling-LLC-232198780316911/,10079-000,6/2/2009 0:00,,FALSE,A+,100,1,0,FALSE,Micro-small,FALSE,12/7/2022 9:09
704,1000001538,Maynards Of Lake Lillian,661 Lakeview St,,Lake Lillian,MN,56253,USA,3206644450,,,50322-000,1/1/2004 0:00,5/13/2016 0:00,FALSE,NR,0,4,,FALSE,Micro-small,FALSE,5/20/2019 4:18
704,1000001539,P C Christopherson & Assoc,1719 Norfolk Ave,,Saint Paul,MN,55116,USA,6516990886,,,60729-000,,6/3/2016 0:00,FALSE,NR,0,1,,FALSE,Micro-small,FALSE,10/22/2021 3:45
704,1000001540,The Garage Bar & Grill,3108 9th St S,,Moorhead,MN,56560,USA,2182870100,al@thegaragebarpresents.com,,50544-000,6/11/2009 0:00,,FALSE,A+,100,1,0,FALSE,Micro-small,FALSE,12/7/2022 9:09
704,1000001541,Meeks Lawn Care,6384 Pinecone Ln Nw,,Walker,MN,56484,USA,2185473729,,,00155-000,8/30/2010 0:00,5/18/2016 0:00,FALSE,NR,0,1,,FALSE,Micro-small,FALSE,5/20/2019 4:18
704,1000001542,Eric Solheid Construction,312 lyndale ave north,,New Prague,MN,56071,USA,9522920924,esolheid33@gmail.com,,10079-000,,,FALSE,A+,100,1,0,FALSE,Micro-small,FALSE,10/8/2022 8:10
704,1000001543,Burger Burger,321 South Ave.,,Bloomington,MN,55425,USA,9528557800,csonterre@kaskaidhospitality.com,https://www.eatburgerburger.com,50544-000,2/26/2015 0:00,,FALSE,NR,0,1,0,FALSE,Micro-small,FALSE,6/22/2022 11:34
704,1000001544,"Platinum Construction, LLC",16230 94th St. ,,Young America,MN,55397,USA,9522402813,mikefasching22@yahoo.com,,10035-000,4/2/2014 0:00,,FALSE,A+,100,1,0,FALSE,Micro-small,FALSE,12/7/2022 9:09
704,1000001545,Noor Batres Companies LLC,6600 Pleasant Ave # 117,,Edina,MN,55423,USA,6125902758,,,10035-000,6/22/2015 0:00,,FALSE,A+,100,1,0,FALSE,Micro-small,FALSE,3/6/2020 4:07
704,1000001546,Northern Edge Plumbing & Service LLC,31344 103rd St,,Princeton,MN,55371,USA,6124067859,info@northernedgeplumbing.com,,10113-000,1/5/2015 0:00,,FALSE,A+,100,1,0,FALSE,Micro-small,FALSE,12/7/2022 9:09
704,1000001547,"Neighborhood Landscaping and Design, LLC",3716 County Road 77,,Nisswa,MN,56468,USA,2188317289,scott@nldservices.com,,00156-000,,,FALSE,A+,100,1,0,FALSE,Micro-small,FALSE,9/21/2021 4:00
704,1000001548,Posi-Pack Corporation,7180 Northland Cir N,,Minneapolis,MN,55428,USA,7635319022,info@posipack.com,http://posipack.com,30132-000,4/20/1979 0:00,,FALSE,A+,100,1,0,FALSE,Micro-small,FALSE,12/7/2022 9:09
704,1000001549,Top Notch Woodworking and Construction LLC,8417 39th Ave N,,New Hope,MN,55427,USA,5072177192,joebernau@hotmail.com,,10177-000,8/17/2009 0:00,,FALSE,A+,100,1,0,FALSE,Micro-small,FALSE,12/7/2022 9:09
704,1000001550,"Binz Plumbing, LLC",18164 Luedke Ln,,Prior Lake,MN,55372,USA,9522124636,,,10113-000,7/8/2009 0:00,,FALSE,A+,100,1,,FALSE,Micro-small,FALSE,1/18/2023 9:32
704,1000001551,"All American Readers, Inc.",2230 Edgewood Ave S Ste 3B,,Saint Louis Park,MN,55426,USA,8889060162,mrchrishanssen@gmail.com,,30543-000,10/23/2013 0:00,4/4/2021 0:00,FALSE,NR,0,15,0,FALSE,Micro-small,FALSE,3/16/2022 8:53
704,1000001552,Creative Color Solutions LLC,4621 3rd Ave S,,Minneapolis,MN,55419,USA,6129635714,andrew@creativecolorsolutions.com,http://www.creativecolorsolutions.com,10095-000,,,FALSE,A+,100,2,0,FALSE,Micro-small,FALSE,12/7/2022 9:09
704,1000001553,Anhorn&#39;s Gas & Tire,216 S. Main St.,,Medford,MN,55049,USA,5074511651,john@anhorns.com,http://www.anhorns.com,60997-000,1/1/1949 0:00,,FALSE,A+,100,3,,FALSE,Micro-small,FALSE,12/7/2022 9:09
704,1000001554,"Ideal Concrete Construction, Inc.", 7673 Interlachen Rd,,Nisswa,MN,56468,USA,3204202458,zachweberg@idealconcretemn.com,http://www.idealconcretemn.com,10032-000,9/12/2013 0:00,,FALSE,A+,100,4,,FALSE,Small,FALSE,12/30/2022 8:57
704,1000001555,"Advanced Hardwood Floors, Inc.",4951 23rd Ave NW,,Rochester,MN,55901,USA,5072541934,ljriess64@gmail.com,https://advancedhardwoodfloorsinc.com/,85366-000,1/1/2004 0:00,,FALSE,A+,100,1,0,FALSE,Micro-small,FALSE,3/18/2022 8:14
704,1000001557,"Blomberg and Sons, Inc.",26 North Drive,,Babbitt,MN,55706,USA,2188273618,wallygriffon16@gmail.com,,10113-000,11/13/1979 0:00,,FALSE,A+,100,1,0,FALSE,Micro-small,FALSE,12/7/2022 9:09
704,1000001558,"All States Flooring, Inc.",1740 Main Ave W Ste F,,West Fargo,ND,58078,USA,7013712345,allstates.ac@gmail.com,,85366-000,6/29/2010 0:00,,FALSE,A+,100,3,0,FALSE,Micro-small,FALSE,12/22/2022 9:09
704,1000001559,Keats Group LLC,8955 33rd St N,,Lake Elmo,MN,55042,USA,6517738400,rcattanach@keatsgroup.com,,55683-000,3/7/2002 0:00,,FALSE,A+,100,2,0,FALSE,Micro-small,FALSE,6/9/2022 8:18
704,1000001560,C T Construction,12835 34th Ave N,,Minneapolis,MN,55441,USA,6123277843,chris@ctconstruction.net,https://www.yelp.com/biz/ct-construction-bloomington,10035-000,1/1/2005 0:00,,FALSE,A+,100,1,0,FALSE,Micro-small,FALSE,10/13/2021 4:28
704,1000001562,Ray Devine,1695 Main St,,Hugo,MN,55038,USA,6514070388,,,50173-000,,5/17/2016 0:00,FALSE,NR,0,,,FALSE,Micro-small,FALSE,5/20/2019 4:18
704,1000001563,Natural Impressions Photo,33 Main St,,Hazen,ND,58545,USA,7017485656,,,60658-000,1/1/2006 0:00,,FALSE,NR,0,2,0,FALSE,Micro-small,FALSE,2/1/2020 4:31
704,1000001564,Lazy L Motel,280 2nd Ave Nw,,Killdeer,ND,58640,USA,7017646560,,,60447-000,,5/16/2016 0:00,FALSE,NR,0,1,,FALSE,Micro-small,FALSE,5/20/2019 4:18
704,1000001565,Mauer Amoco Oil Co,411 1st St SW,,Hankinson,ND,58041,USA,7012427286,,,50567-000,1/1/1994 0:00,,FALSE,A+,100,1,0,FALSE,Micro-small,FALSE,2/1/2020 4:31
704,1000001566,Roger Langenbau Excavating,4190 Langenbau Rd,,Pequot Lakes,MN,56472,USA,2185684183,,,10050-000,,,FALSE,A+,99.28,1,0,FALSE,Micro-small,FALSE,2/1/2020 4:31
704,1000001567,Saris Web Design LLC,1221 Bluff Creek Dr,,Chaska,MN,55318,USA,6124541859,riehl89@gmail.com,http://sariswebdesign.com,60980-000,4/11/2014 0:00,,FALSE,A+,100,1,0,FALSE,Micro-small,FALSE,12/7/2022 9:09
704,1000001568,A Too Z Process Service,1125 Sibley Memorial Hwy,,Mendota Hts,MN,55118,USA,6514524001,,,60704-000,7/19/2007 0:00,,FALSE,NR,0,1,0,FALSE,Micro-small,FALSE,10/7/2022 8:31
704,1000001569,Pretty Petals Floral,401 Main St W,,Hazen,ND,58545,USA,7017486080,,,50275-000,1/1/2009 0:00,,FALSE,A+,100,4,0,FALSE,Micro-small,FALSE,12/25/2020 3:51
704,1000001570,Wing Financial Service,120 S Main St,,Stanley,ND,58784,USA,7016282063,,,20067-000,1/1/2007 0:00,,FALSE,A+,100,2,0,FALSE,Micro-small,FALSE,2/1/2020 4:31
704,1000001571,Doris' Upholstery,6339 89th Avenue Northwest,,Ross,ND,58776,USA,7017553255,,,60915-000,1/1/2005 0:00,,FALSE,NR,0,1,0,FALSE,Micro-small,FALSE,6/15/2022 9:02
704,1000001572,Stan Sievert Agency,330 Main St,,Lakefield,MN,56150,USA,5076625351,eric@stansievert.com,http://stansievert.com,60729-000,12/27/2007 0:00,,FALSE,A+,100,1,0,FALSE,Micro-small,FALSE,12/7/2022 9:09
704,1000001573,Quality Foundations Llc,PO Box 906,,Devils Lake,ND,58301,USA,7016621090,,,10032-000,1/1/2002 0:00,,FALSE,A+,100,6,0,FALSE,Micro-small,FALSE,5/13/2021 4:07
704,1000001574,First Choice Flooring LLC,3542 James Ave N,,Minneapolis,MN,55412,USA,6126002730,phillip.stueve.39@gmail.com,,85366-000,10/12/2004 0:00,,FALSE,A+,100,2,0,FALSE,Micro-small,FALSE,1/11/2023 9:00
704,1000001575,"BNJ Plumbing, Inc.",PO Box 99,,Thief River Falls,MN,56701,USA,2186835429,,,10003-000,2/5/2003 0:00,,FALSE,NR,0,1,0,FALSE,Micro-small,FALSE,7/8/2022 12:27
704,1000001576,Bella's On Broadway,523 Broadway Street,,Alexandria,MN,56308,USA,3208460900,,,50544-000,,,FALSE,NR,0,1,0,FALSE,Micro-small,FALSE,8/19/2021 4:22
704,1000001583,"PriorityOne Technologies, Inc.",1171 Jackson St Suite B,,Saint Paul,MN,55117,USA,6512859718,info@priorityonetech.com,http://www.priorityonetech.com,60235-300,4/22/2009 0:00,,FALSE,A+,100,3,0,FALSE,Micro-small,FALSE,12/7/2022 9:09
704,1000001587,Torgersen Construction,1252 Airport Rd,,Two Harbors,MN,55616,USA,2188346561,,,10035-000,1/1/1998 0:00,,FALSE,A+,100,3,0,FALSE,Micro-small,FALSE,2/1/2020 4:31
704,1000001588,Tourand Construction Inc,1902 Meadow Rose Blvd,,Saint Cloud,MN,56301,USA,3202533807,tourandconstruction@hotmail.com,,10035-000,12/23/1993 0:00,,FALSE,A+,100,2,0,FALSE,Micro-small,FALSE,12/7/2022 9:09
704,1000001589,"Christianson&#39;s Business Furniture, Inc",2828 13th Ave S,,Fargo,ND,58103,USA,7012933944,rick@cbfplus.com,http://www.cbfplus.com/,80509-000,1/27/2005 0:00,,FALSE,A+,100,15,0,FALSE,Small,FALSE,12/7/2022 9:09
704,1000001590,"TPC Construction, LLC",10 Michael St,,Saint Paul,MN,55119,USA,6513538128,,,10177-000,11/2/2007 0:00,,FALSE,NR,0,1,0,FALSE,Micro-small,FALSE,10/7/2022 8:31
704,1000001591,TK Construction Management Services LLC,1920 Whitetail Ridge Ct,,Excelsior,MN,55331,USA,6123631835,THOMASKASPRVAK@GMAIL.COM,,10177-000,1/4/2010 0:00,,FALSE,A+,100,1,0,FALSE,Micro-small,FALSE,12/7/2022 9:09
704,1000001592,All - Type Construction,5585 274th Street,,Wyoming,MN,55092,USA,6127018139,,,10177-000,,,FALSE,A+,99.27,1,0,FALSE,Micro-small,FALSE,2/1/2020 4:31
704,1000001593,"Her Happy Place, LLC",323 South front st,,Saint Peter,MN,56082,USA,5076656017,eideltimes6@gmail.com,,50743-000,9/24/2015 0:00,,FALSE,A+,100,1,0,FALSE,Micro-small,FALSE,12/10/2022 9:02
