,BBBID,BusinessID,BusinessName,StreetAddress,StreetAddress2,City,StateProvince,PostalCode,Country,Phone,Email,Website,TOBID,TOBDescription,DateBusinessStarted,DateBusinessClosed,IsBBBAccredited,BBBRatingGrade,BBBRatingScore,NumberOfEmployees,NumberOfPartTimeEmployees,IsHQ,SizeOfBusiness,IsCharity,CDWLastUpdate,FoundVia
800,704,96018753,Wenzel Engineering Inc,10100 Morgan Ave S,,Minneapolis,MN,55431,USA,9528886516,tclark@wenzelengineering.com,http://www.wenzelengineering.com,60339-000,Engineers - Structural,9/1/1990 0:00,,False,A+,100.0,6.0,,False,Micro-small,False,8/20/2022 8:39,BBB
801,704,96541312,DCI Construction,7794 69th Street Ct S,,Cottage Grove,MN,55016,USA,6514584400,dciconstruction@q.com,https://www.facebook.com/people/DCI-Construction-MN/100057614312152/,10035-000,Contractors - General,6/18/1999 0:00,,False,A+,100.0,1.0,0.0,False,Micro-small,False,7/8/2022 12:27,BBB
802,704,96104839,Benchmark Electronics-Winona Division,4065 Theurer Blvd,,Winona,MN,55987,USA,5074528932,paula.matzke@bench.com,http://www.bench.com,30132-000,Contract Manufacturing,1/1/1988 0:00,,False,A+,100.0,1199.0,,False,Large,False,1/29/2022 9:44,BBB
803,704,96082827,NatureScape News,52780 145th Pl,,Tamarack,MN,55787,USA,2187682473,,http://www.naturescapenews.com,80502-000,"News Publications - Trade, Association",,,False,A+,100.0,1.0,,False,Micro-small,False,2/6/2022 9:11,BBB
804,704,1000046455,Touchtech Computer Service,1248 Wagonwheel Road ,,Hopkins,MN,55343,USA,6123858905,touchtech@tcsadmin.com,http://www.touchtechcomoputerservice.com,60235-300,Computer Business Services,5/3/2012 0:00,,False,A+,100.0,1.0,,False,Micro-small,False,9/22/2021 4:11,BBB
805,704,96158960,Rock on Enterprises,3100 7th St S,,Waite Park,MN,56387,USA,3202302998,krystal@rockontrucks.com,http://www.rockontrucks.com,70637-000,Trucking - Heavy Hauling,8/21/2001 0:00,,False,A+,100.0,56.0,,False,Micro-small,False,11/1/2022 8:12,BBB
806,704,50002267,Simonson&#39;s Salon & Spa,13950 Grove Dr # 300,,Osseo,MN,55311,USA,7637468180,info@simonsons.com,http://www.simonsons.com,65134-000,Day Spas,10/1/1983 0:00,,False,A+,100.0,100.0,,False,Giant,False,1/14/2023 8:57,BBB
807,704,96368391,Brighton Collectibles,1885 Southdale Ctr,,Minneapolis,MN,55435,USA,9529208430,,http://www.brightoncollectibles.com,50169-000,Collectibles,1/1/2003 0:00,,False,A+,100.0,8.0,0.0,False,Micro-small,False,4/29/2022 8:16,BBB
808,704,96126015,Cruise King LLC,22250 Glynview TRL,,Faribault,MN,55021,USA,5073340250,mail@cruisecontrolking.com,http://www.cruisecontrolking.com/,70632-000,Travel Agencies & Bureaus,7/10/2003 0:00,,False,A+,100.0,3.0,0.0,False,Micro-small,False,3/16/2022 8:51,BBB
809,704,1000016203,"Happy Employees Cleaning, LLC",3230 9th St W Apt 211,,West Fargo,ND,58078,USA,7017936066,justin@happyemployeescleaning.com,https://www.happyemployeescleaning.com/,66002-100,Cleaning Services - Commercial Office,7/7/2017 0:00,,False,NR,0.0,1.0,0.0,False,Micro-small,False,1/27/2023 9:09,BBB
810,704,96086960,Mortenson Development Inc,700 Meadow Ln N,,Minneapolis,MN,55422,USA,7635222100,bob.solfelt@mortenson.com,http://www.mortenson.com,20061-000,Real Estate Developers,10/6/2000 0:00,,False,A+,100.0,10.0,0.0,False,Micro-small,False,3/3/2022 9:49,BBB
811,704,1000013740,Kreativ Stone & Design LLC,2081 Ellis Ave,,Saint Paul,MN,55114,USA,6516468408,tbohman@kreativstone.com,http://www.kreativstone.com/,00203-000,Quartz,1/28/2015 0:00,,False,A+,100.0,1.0,0.0,False,Micro-small,False,7/8/2022 12:29,BBB
812,704,96022364,Fury Motorcycle,740 Concord St N,,South Saint Paul,MN,55075,USA,6512518230,tjl@furymotors.com,http://www.furymotorcycle.com,50441-000,Motorcycles - Repairing & Service,1/1/2001 0:00,,False,A+,100.0,6.0,,False,Micro-small,False,1/21/2022 9:34,BBB
813,704,1000061864,BP Gas Station,1815 Diffley Road,,Eagan,MN,55122,USA,6516883566,,https://map.bp.com/en-US/US/gas-station/saint-paul/bp/11464087678155512200100000000000,50567-000,Service Stations - Gasoline & Oil,,,False,NR,0.0,1.0,,False,Micro-small,False,1/31/2023 8:47,BBB
814,704,96085314,A Infidelity Investigations Inc,7953 200th St W,,Lakeville,MN,55044,USA,9522393850,investigateAFI@AOL.com,https://www.AOL.com/,60297-000,Detective Agencies,3/28/2002 0:00,,False,A+,100.0,1.0,0.0,False,Micro-small,False,3/8/2022 9:28,Email
815,704,96083231,Brenne Builders Inc.,766 Creek Ave,,Mendota Heights,MN,55120,USA,6125185363,brennebuilders@gmail.com,http://www.brennebuilders.com,10035-000,Contractors - General,1/1/2003 0:00,,False,A+,100.0,1.0,,False,Micro-small,False,9/27/2022 8:58,BBB
816,704,50002528,Duke's Inc.,6110 Grand Ave,,Duluth,MN,55807,USA,2187228885,dlind@dukeboys.us,http://dukeboys.us/,50040-000,Auto Dealers - Used Cars,9/1/1997 0:00,,False,A+,100.0,2.0,0.0,False,Micro-small,False,2/20/2022 9:00,BBB
817,704,96127637,American Lettering,10035 Trail Haven Rd,,Hamel,MN,55340,USA,7634208941,,http://www.americanlettering.com,30588-000,Screen Printing ,1/1/1992 0:00,7/28/2021 0:00,False,NR,0.0,1.0,,False,Micro-small,False,7/30/2021 4:16,BBB
818,704,96024120,So Low Grocery Outlet,3111 Emerson Ave N,,Minneapolis,MN,55411,USA,6123028855,,https://www.facebook.com/pages/So-Low-Grocery-Outlet/154161987952652,50758-000,Grocery - Bulk Food Stores,9/1/2005 0:00,,False,A+,100.0,30.0,,False,Small,False,2/18/2022 9:11,BBB
819,704,22000716,Majestic Log Homes Inc,17717 67th St,,Becker,MN,55308,USA,7632633050,info@majesticlog.com,http://www.majesticlog.com,60469-000,Home Inspection Service,1/1/1988 0:00,,False,A+,100.0,3.0,0.0,False,Micro-small,False,5/5/2022 8:21,BBB
820,704,1000006401,Hal Tiffany Agency Inc,2573 Hamline Ave N,,Roseville,MN,55113,USA,6514844002,,http://haltiffanyinsurance.com,20019-100,Insurance Agency,9/20/1990 0:00,,False,A+,100.0,1.0,0.0,False,Micro-small,False,11/17/2021 4:33,BBB
821,704,96175124,Peters&#39; Patio & Landscape Inc,2779 450th St,,Kenyon,MN,55946,USA,5077895990,peterspatiolandscape@yahoo.com,http://www.peterspatiolandscape.com,00155-000,Landscape Contractors,1/25/2010 0:00,,False,A+,100.0,4.0,0.0,False,Micro-small,False,12/8/2022 9:13,BBB
822,704,1000045696,Autoimmune Angels LLC,3143 Superior Dr NW Ste B,,Rochester,MN,55901,USA,5072584465,info@autoimmuneangels.com,http://autoimmuneangels.com,44059-000,Health Care,12/2/2014 0:00,,False,A+,100.0,2.0,,False,Micro-small,False,1/24/2023 8:58,BBB
823,704,1000060759,Combined Benefits Co,6201 Auto Club Rd,,Minneapolis,MN,55438,USA,9528816081,,http://www.combined-benefits.com,20080-000,Insurance Services,1/1/1995 0:00,,False,A+,100.0,2.0,,False,Micro-small,False,1/10/2023 8:49,BBB
824,704,1000008090,Foley Locker Service,270 4th Ave N,,Foley,MN,56329,USA,3209687267,valerie@foleylocker.com,http://Foleylocker.com,30382-000,Meat Packers,8/30/2010 0:00,,False,A+,100.0,12.0,0.0,False,Micro-small,False,3/18/2020 4:21,BBB
825,704,1000052033,EXP Realty,16201 90th St NE Ste 100,,Otsego,MN,55330,USA,7639234655,galindorealestategroupmn@gmail.com,https://soldbyamandagalindo.com/,60729-102,Real Estate Agents,5/10/2013 0:00,,False,A+,100.0,1.0,,False,Micro-small,False,2/17/2022 9:43,BBB
826,704,21002867,Tom's Electric Service Company,7908 172nd St W,,Lakeville,MN,55044,USA,9524317446,,http://www.tes.net,10049-000,Electricians,5/1/1995 0:00,8/3/2016 0:00,False,NR,0.0,1.0,,False,Micro-small,False,8/5/2019 4:02,BBB
827,704,96119511,Schmitz Electric Co.,308 W Main St,,Adams,MN,55909,USA,5075823528,alanschmitz@schmitzelectric.com,http://www.schmitzelectric.com,10049-000,Electricians,1/1/1948 0:00,,True,A+,100.0,9.0,0.0,False,Micro-small,False,1/28/2023 8:47,BBB
828,704,1000004769,Hilltop Greenhouse,83204 300th St,,Ellendale,MN,56026,USA,5078893271,sales@hilltopgreenhouse.com,http://Hilltopgreenhouse.com,50299-000,Garden Centers,7/17/2003 0:00,,False,NR,0.0,1.0,0.0,False,Micro-small,False,8/26/2019 4:11,BBB
829,704,96086751,Red Fitness,11400 S Sam Houston Pkwy W,,Houston,TX,77031,USA,,info@redexerciser.com,http://redexerciser.com,60353-000,Exercise & Physical Fitness Programs,1/30/2008 0:00,,False,NR,0.0,,0.0,False,Micro-small,False,3/30/2021 3:56,BBB
830,704,96085757,"Arctic Heating & Air Conditioning, Inc.",20706 Georgia Avenue Cir N,,Forest Lake,MN,55025,USA,6514642887,,http://www.arcticheating.org,10182-000,Heating & Air Conditioning,1/1/1998 0:00,,False,A+,100.0,1.0,,False,Micro-small,False,12/13/2022 9:03,BBB
831,704,96037295,"Needlework Unlimited, Inc.",4420 Drew Ave S,,Minneapolis,MN,55410,USA,6129252454,,http://www.needleworkunlimited.com,50376-000,Knit Goods - Retail,1/1/1971 0:00,9/4/2018 0:00,False,NR,0.0,8.0,,False,Micro-small,False,9/7/2021 4:18,BBB
832,704,96210365,Arrowhead Realty,18 Central Blvd,,Babbitt,MN,55706,USA,2188272400,,http://Arrowheadrealtymn.com,60729-000,Real Estate,6/13/2003 0:00,,False,A+,100.0,1.0,0.0,False,Micro-small,False,8/26/2022 8:32,BBB
833,704,96559106,"Andros ENT & Sleep Center, P.A.",5565 Blaine Ave STE 225,,Inver Grove Heights,MN,55076,USA,6518887800,info@androsent-sleep.com,http://www.androsent-sleep.com,60668-000,"Physicians & Surgeons - Ear, Nose & Throat",7/1/2013 0:00,,False,A+,100.0,21.0,0.0,False,Small,False,8/25/2022 8:35,BBB
834,704,1000011904,MRP Services LLP,315 Broadway St S,,Jordan,MN,55352,USA,9523036044,mrpauly@mrpaccounting.com,http://www.mrpaccounting.com/,60155-000,Bookkeeping Service,1/12/2011 0:00,,False,A+,100.0,1.0,0.0,False,Micro-small,False,12/10/2020 4:07,BBB
835,704,96118286,Northridge Court,101 Fuller St N,,Shakopee,MN,55379,USA,9524458820,,http://www.northridgecourtapts.com,61002-000,Assisted Living Centers & Adult Family Homes,1/1/2005 0:00,,False,A+,100.0,3.0,,False,Micro-small,False,5/27/2022 8:35,BBB
836,704,1000004248,Mark W. Benjamin - Criminal Defense,237 2nd Ave SW Ste 111,,Cambridge,MN,55008,USA,7636910900,markbenjamin@msn.com,http://www.markwbenjamin.com/,60075-000,Attorneys & Lawyers,10/25/2008 0:00,10/16/2019 0:00,False,NR,0.0,1.0,0.0,False,Micro-small,False,10/17/2022 7:54,BBB
837,704,96559054,Banks Outdoors,31785 64th Ave,,Cannon Falls,MN,55009,USA,8002624129,,http://www.banksoutdoors.com,80680-000,Sporting Goods - Wholesale & Manufacturers,3/22/1994 0:00,,False,A+,100.0,,0.0,False,Micro-small,False,5/5/2020 4:01,BBB
838,704,96160204,Taher Inc,5570 Smetana Dr,,Minnetonka,MN,55343,USA,9529450505,b.taher@taher.com,http://www.taher.com,60379-000,Food ServiceManagement,5/5/1981 0:00,,False,A+,100.0,1.0,,False,Medium,False,12/9/2020 4:49,BBB
839,704,96104132,UpNorth Consulting Inc,9100 W Bloomington Fwy Ste 142,,Minneapolis,MN,55431,USA,9522248656,,https://www.linkedin.com/company/upnorth-consulting,60539-200,Marketing Software,1/1/2006 0:00,11/5/2019 0:00,False,NR,0.0,9.0,0.0,False,Small,False,11/7/2022 9:16,BBB
840,704,96363697,Waypoint Inc.,4760 White Bear Pkwy # 201,,Saint Paul,MN,55110,USA,6517020138,rostrom@waypointinc.com,http://waypointinc.com,60476-000,Investigators,1/1/2005 0:00,,False,A+,100.0,12.0,0.0,False,Small,False,9/10/2022 8:38,BBB
841,704,1000004892,Maplelag,30501 Maplelag Rd,,Callaway,MN,56521,USA,2183754466,maplelag@arvig.com,http://Maplelag.com,60447-000,Hotels,3/3/1999 0:00,,False,NR,0.0,25.0,0.0,False,Micro-small,False,12/19/2022 8:51,BBB
842,704,96146265,Artistic Framers Inc.,2750 Daybreak Ct SE,,Rochester,MN,55904,USA,5072814890,,http://www.artisticframersinc.com,55027-000,Custom Framing,4/6/1989 0:00,,False,A+,100.0,5.0,0.0,False,Micro-small,False,10/7/2022 8:31,BBB
843,704,96013952,B-Dale Club,2100 Dale St N,,Saint Paul,MN,55113,USA,6514895386,timwoller@msn.com,http://www.b-dale.com,61090-000,Non Profit Organizations - General Membership,1/1/1963 0:00,,False,A+,100.0,6.0,,False,Small,False,7/7/2021 4:58,BBB
844,704,6001028,Hollywood Entertainment,,,,,,,,,http://www.hollywoodvideo.com,60930-000,Video Tapes & Discs Sales & Rentals,,,False,NR,0.0,1.0,,False,Micro-small,False,8/12/2022 8:32,BBB
845,704,96096694,Irrigation Management LLC,3500 Vicksburg Ln N Ste 359,,Minneapolis,MN,55447,USA,7636841880,billing@irrigationmgt.com,http://www.irrigationmgt.com,80404-000,Irrigation Systems & Equipment,1/1/2000 0:00,,False,A+,100.0,5.0,,False,Micro-small,False,2/7/2023 8:59,BBB
846,704,96384592,"Duckwall Real Estate Group, Inc.",700 Grand Ave,,Saint Paul,MN,55105,USA,6513030019,kirkduckwall@edinarealty.com,http://www.duckwallteam.com,60729-102,Real Estate Agents,11/13/2008 0:00,,False,A+,100.0,,0.0,False,Micro-small,False,11/23/2020 3:56,BBB
847,704,96221174,Pete's Communications Inc,1350 NW 7th St,,Willmar,MN,56201,USA,3202350630,,http://www.kenwoodusa.com,60323-000,Electronic Equipment & Suppliers - Service & Repair,1/1/1984 0:00,4/17/2018 0:00,False,NR,0.0,3.0,,False,Micro-small,False,4/20/2021 4:01,BBB
848,704,1000005224,Focused Eye Care,7598 160th St W,,Lakeville,MN,55044,USA,9529856467,jdsollom@yahoo.com,http://www.focusedeyecare.com,60629-000,Optometrists,1/1/2007 0:00,,False,A+,100.0,4.0,0.0,False,Micro-small,False,1/26/2020 4:04,BBB
849,704,1000035442,Advance Auto Parts,1570 Madison Ave,,Mankato,MN,56001,USA,5073448633,,http://www.advanceautoparts.com,50043-000,Auto Parts & Supplies - New,7/16/2007 0:00,,False,NR,0.0,1.0,0.0,False,Micro-small,False,6/1/2022 21:28,BBB
850,704,1000039922,mobilemechanic.com,519 7th St,,Farmington,MN,55024,USA,8883916324,Support@MobileMechanic.com,http://mobilemechanic.com,10090-000,Mechanical Contractors,8/17/2020 0:00,,False,F,42.49,1.0,,False,Micro-small,False,6/4/2022 8:44,BBB
851,704,96180088,Lindstrom Family Dentistry,12245 Lindstrom Ln,,Lindstrom,MN,55045,USA,6512574471,,http://www.Lindstromfamilydentistry.com,60289-000,Dentists,1/1/1993 0:00,,False,NR,0.0,12.0,0.0,False,Micro-small,False,3/23/2021 4:01,BBB
852,704,96134073,Marketing Plus,305 Euclid Ave,,Albert Lea,MN,56007,USA,5073779682,teresa@marketingplusmn.com,http://www.marketingplusmn.com,60013-000,Advertising - Direct Mail,4/17/1992 0:00,,False,A+,100.0,10.0,,False,Micro-small,False,10/23/2020 4:00,BBB
853,704,14001467,Computer Technology Solutions,200 Belgrade Ave,,North Mankato,MN,56003,USA,5076258181,vanyo@yourcts.net,http://www.yourcts.net,60245-000,Computers - Service & Repair,1/1/1985 0:00,,False,A+,100.0,3.0,,False,Micro-small,False,1/6/2023 9:12,BBB
854,704,96387090,"Andrew Moran Law Firm, P.A.","3352 Sherman Court, Suite 103",,Saint Paul,MN,55121,USA,6516867479,,http://www.andrewmoranlaw.com/,60075-000,Attorneys & Lawyers,12/30/2004 0:00,,False,A+,100.0,1.0,0.0,False,Micro-small,False,1/8/2022 9:19,BBB
855,704,22003789,Arrowhead Supply,18 N 19th Ave W,,Duluth,MN,55806,USA,2187226699,info@arrowheadsupplyinc.com,http://arrowheadsupplyinc.com,50373-000,Kitchen Cabinets & Equipment - Household,4/1/1973 0:00,,False,A+,100.0,10.0,0.0,False,Small,False,10/6/2022 8:21,BBB
856,704,96038126,Diamond D Ranch,2134 Neal Ave S,,Afton,MN,55001,USA,6514362098,diamonddranchinmn@hotmail.com,http://www.diamonddranch.org,50345-000,House Furnishings & Services,1/1/2000 0:00,,False,A+,100.0,3.0,,False,Micro-small,False,7/8/2020 4:45,BBB
857,704,96561711,Big Frog Custom T-Shirts,5115 Burning Tree Rd STE 315B,,Duluth,MN,55811,USA,2184916400,Kelic@bigfrog.com,http://www.bigfrog.com,55093-000,Clothing - Retail,8/22/2013 0:00,,False,A+,100.0,,0.0,False,Micro-small,False,3/5/2020 4:19,BBB
858,704,1000014912,J&E/Earll Manufacturing,7925 215th St W,,Lakeville,MN,55044,USA,9524693933,atlougan@jecompanies.com,http://www.jecompanies.com,30366-000,Machine Shops,8/4/1999 0:00,,False,A+,100.0,1.0,0.0,False,Micro-small,False,8/5/2022 8:39,BBB
859,704,1000008529,Geist and Pierson LLC,14750 Potassium ST NE,,Anoka,MN,55303,USA,7632385121,,https://www.geistandpierson.com/,10035-000,Contractors - General,5/5/2016 0:00,,False,NR,0.0,1.0,0.0,False,Micro-small,False,1/21/2023 8:56,BBB
860,704,1000026908,Legacy Storage MN,300 5th St SE,,Kasson,MN,55944,USA,5072505964,,https://www.legacystoragemn.com/,55629-000,Storage,1/15/2018 0:00,,False,NR,0.0,1.0,0.0,False,Micro-small,False,11/11/2022 9:29,BBB
861,704,1000028626,Tilberg Lowis & Associates,46 Union Street North,,Mora,MN,55051,USA,3202724772,,https://www.tilberg-lowis.wradvisors.com/,55683-000,Financial Consultants,12/13/2018 0:00,,False,NR,0.0,1.0,0.0,False,Micro-small,False,7/26/2022 8:43,BBB
862,704,96332972,Puchner Paintworks LLC,2820 Virginia Ave S,,St Louis Park,MN,55426,USA,9529264819,puchners@usfamily.net,https://www.usfamily.net/,10095-000,Painting Contractors,4/30/1994 0:00,,False,A+,100.0,1.0,,False,Medium,False,8/25/2022 8:35,Email
863,704,1000052558,Simon's Ace Hardware & paint,108 West 98th street,,BLOOMINGTON,MN,55420,USA,9527672981,,https://www.acehardwareandpaint.com/,55590-000,Hardware,,,False,D+,67.27,1.0,,False,Micro-small,False,3/23/2022 8:49,BBB
864,704,1000034911,Castle Metals,1420 Kensington Rd #220,,Oak Brook,IL,60523,USA,7637951500,,http://www.amcastle.com,80478-000,Metal Specialties,1890-01-01 00:00:00,,False,NR,0.0,25.0,0.0,False,Small,False,6/1/2022 21:26,BBB
865,704,1469,Kessler & Maguire Funeral Home,640 7th St W,,Saint Paul,MN,55102,USA,6512090073,info@kesslermaguire.com,http://www.kesslermaguire.com,62000-000,Funeral Homes,1/1/1914 0:00,,False,A+,100.0,7.0,0.0,False,Micro-small,False,7/15/2022 8:33,BBB
866,704,96001842,Lake Area Eye Center,610 30th Ave W,,Alexandria,MN,56308,USA,3207637055,lrec@lakeregioneye.com,http://www.lakeregioneye.com,60445-000,Hospitals,1/1/1998 0:00,,False,A+,100.0,1.0,,False,Micro-small,False,6/3/2022 9:01,BBB
867,704,22000729,Kennedy Transmission Brake & Auto Service,2225 Daniels St,,Long Lake,MN,55356,USA,9524764338,bbidon@kennedytrans.com,http://www.kennedytransmission.com,60902-000,Transmissions - Automobile,5/1/1962 0:00,,True,A+,100.0,3.0,0.0,False,Medium,False,12/9/2022 9:19,BBB
868,704,96341303,Lawinger Consulting Inc,106 Central Ave Ste A,,Osseo,MN,55369,USA,7634251639,docs@lci-online.com,https://www.lci-online.com/,85272-000,Information Technology Services,4/15/1988 0:00,,False,A+,100.0,20.0,,False,Small,False,11/4/2022 8:21,Email
869,704,2001620,"Becker Brothers, Inc.",825 1st St NW,,Saint Paul,MN,55112,USA,6516338604,john@floorsbybeckers.com,http://www.beckerbrothers.com,50133-000,Carpet & Rug Dealers - New,1/1/1959 0:00,,False,A+,100.0,100.0,,False,Small,False,5/11/2022 8:35,BBB
870,704,1000004863,Mandan Sporting Goods,210 East Main Street,,Mandan,ND,58554,USA,7017511026,,http://mandansportinggoods.com/,50608-000,Sporting Goods - Retail,12/12/2012 0:00,,False,NR,0.0,1.0,0.0,False,Micro-small,False,12/20/2022 8:57,BBB
871,704,96186983,Menopause Center Of Minnesota,1619 Dayton Ave Ste 109,,Saint Paul,MN,55104,USA,6516980891,info@menopausemn.com,http://menopausemn.com,60665-000,Physicians & Surgeons - Medical-M.D.,1/1/2008 0:00,,False,A+,100.0,3.0,,False,Micro-small,False,8/27/2021 4:04,BBB
872,704,1000052669,"Metabolic Health, Llc",3501 - 21st Avenue S.,,St. Cloud,MN,56301,USA,3202664463,yourmetabolichealth@gmail.com,https://metabolichealthllc.com/,89800-000,Nutrition,10/2/2017 0:00,,False,A+,100.0,,,False,Micro-small,False,2/24/2022 9:32,BBB
873,704,96373351,WYZGuys Computer and Network Support,355 2nd Ave S # 2,,Bayport,MN,55003,USA,6514300264,bob@wyzguys.com,http://WWW.WYZguys.com,85320-000,Computer Consultant,1/1/2011 0:00,,False,A+,100.0,2.0,,False,Micro-small,False,11/6/2020 4:10,BBB
874,704,96018329,Thorson Trucking,42926 County 2,,Leonard,MN,56652,USA,2189682223,thorsontrucking@gvtel.com,https://www.gvtel.com/,70640-000,Trucking,1/1/1963 0:00,,False,A+,100.0,5.0,,False,Micro-small,False,4/15/2021 4:06,Email
875,704,14002418,Apogee Enterprises Inc,4400 W 78th St,Ste 520,Bloomington,MN,55435,USA,9528351874,pbeithon@apog.com,http://www.apog.com,80811-000,Commercial Products Manufacturers,1/1/1949 0:00,,False,A+,100.0,4.0,,False,Small,False,12/13/2022 9:02,BBB
876,704,96152388,"H & H Veterinary Service, PA",170 Highway 9 NW,,Benson,MN,56215,USA,3208425960,hhvetservice@gmail.com,http://www.hhvetservice.com,00222-000,Veterinarians,4/1/2004 0:00,,False,A+,100.0,8.0,,False,Micro-small,False,11/30/2022 14:26,BBB
877,704,96021474,"Apex Construction, Inc.",2987 Jonquil Trl N,,Lake Elmo,MN,55042,USA,6122427883,apci03@yahoo.com,http://www.myapexinc.com/,10035-000,Contractors - General,4/1/2003 0:00,,True,A+,100.0,2.0,0.0,False,Micro-small,False,8/4/2022 8:29,BBB
878,704,1000039809,18th Company Inc,2100 Woodale Dr,,Mounds View,MN,55112,USA,6512747948,ryan.olson@18thcompany.com,http://www.18thcompany.com/,70637-000,Trucking - Heavy Hauling,8/5/2020 0:00,,False,A,94.81,1.0,,False,Micro-small,False,7/8/2022 12:31,BBB
879,704,96373622,El Patron Mexican Grill,1415 Service Drive,,Winona,MN,55987,USA,5073552045,est_placebo@hotmail.com,http://www.elpatronmexicangrillmn.com,50544-000,Restaurants,7/26/2016 0:00,,False,B-,80.0,1.0,0.0,False,Micro-small,False,1/7/2023 9:07,BBB
880,704,1000012806,Eric D. Clark - RE/MAX Results,7700 France Ave S Ste 230,,Bloomington,MN,55435,USA,6125643347,eric.clark@results.net,http://www.remax.com/realestateagentoffice/edina-mn-55435-ericclark-id28660453.html,60729-000,Real Estate,2/3/2005 0:00,,False,A+,100.0,1.0,0.0,False,Micro-small,False,10/17/2020 4:05,BBB
881,704,96557079,Bee Seen Gear,4600 17th AVe S Ste B ,,Fargo,ND,58103,USA,7012977705,traci@beeseengear.com,https://beeseengear.com/,30198-000,Embroidery,5/19/2009 0:00,,False,A+,100.0,1.0,0.0,False,Micro-small,False,10/2/2022 8:16,BBB
882,704,96346623,"A.S.T. Inspections, Inc",8127 60th Street NE,,Webster,ND,58382,USA,7014022659,admin@astinspection.net,https://astinspection.net/,30672-000,Tank Testing & Inspection,1/1/2009 0:00,,False,A+,100.0,2.0,0.0,False,Micro-small,False,12/3/2022 9:06,BBB
883,704,1000008985,Billion Worthington Chrysler Dodge Jeep Ram,1660 N Humiston Ave,,Worthington,MN,56187,USA,8442844736,,https://www.billionauto.com/worthington-chrylser-jeep-dodge-ram,50039-000,Auto Dealers - New Cars,5/13/2016 0:00,,False,A+,100.0,20.0,,False,Small,False,2/1/2023 8:58,BBB
884,704,96325385,Forte Fitness by Hamish LLC,1024 Washington Ave S,,Minneapolis,MN,55415,USA,9529262687,penny@myfortefitness.com,http://www.myfortefitness.com,60429-100,Personal Trainers,12/21/2010 0:00,2/12/2016 0:00,False,NR,0.0,8.0,,False,Micro-small,False,2/18/2019 4:02,BBB
885,704,96578249,The Rival House,411 Minnesota St,,Saint Paul,MN,55101,USA,6512550645,info@rivalhousestpaul.com,http://rivalhousestpaul.com,50544-000,Restaurants,9/28/2015 0:00,,False,NR,0.0,,0.0,False,Micro-small,False,8/15/2021 4:22,BBB
886,704,96542114,Modern Day Music,1875 Robert St S,,Saint Paul,MN,55118,USA,6513306716,info@moderndaymusic.net,http://moderndaymusic.net/,50447-000,Musical Instruments - Dealers,2/2/2011 0:00,,False,A+,100.0,,0.0,False,Micro-small,False,1/24/2021 3:50,BBB
887,704,6002128,Red Lobster,8900 Golden Valley Rd,,Minneapolis,MN,55427,USA,7635467300,,http://www.redlobster.com,50544-000,Restaurants,1/1/1988 0:00,,False,NR,0.0,100.0,,False,Medium,False,6/1/2022 21:22,BBB
888,704,17005090,Blue Cross Animal Hospital,5328 Lyndale Ave S,,Minneapolis,MN,55419,USA,6128222149,vikki@bluecrossanimal.com,http://www.bluecrossanimal.com,00222-000,Veterinarians,12/1/1930 0:00,,False,A+,100.0,21.0,0.0,False,Micro-small,False,7/23/2022 8:43,BBB
889,704,1000005131,Central Landscaping,8837 420th St,,Harris,MN,55032,USA,6516745139,,http://Centralturf.com,00155-000,Landscape Contractors,2/4/1971 0:00,,False,A+,100.0,10.0,0.0,False,Micro-small,False,3/25/2022 8:41,BBB
890,704,1000015313,"Nokomis Revival, LLC",5721 Elliot Ave,,Minneapolis,MN,55417,USA,6122274929,andrew@nokomisrevival.com,https://www.facebook.com/nokomisrevival/,10177-000,Construction & Remodeling Services,6/21/2017 0:00,,False,A+,100.0,1.0,0.0,False,Micro-small,False,9/14/2022 8:40,BBB
891,704,1000026836,E & S Lash Llc.,319 Etna Street,,St. Paul,MN,55106,USA,6512632522,,https://www.eandslounge.com/,60134-000,Beauty Salons,1/12/2018 0:00,,False,NR,0.0,1.0,0.0,False,Micro-small,False,1/13/2023 9:01,BBB
892,704,96554944,The Harrington Company,4248 Park Glen Rd,,Minneapolis,MN,55416,USA,9529287477,,http://www.harringtoncompany.com,60070-000,Association Management,11/17/2014 0:00,,False,NR,0.0,1.0,0.0,False,Micro-small,False,6/8/2022 8:46,BBB
893,704,96506482,Aaron Meyer Construction,11230 75th street NE,,Otsego,MN,55301,USA,7633004927,,http://www.aaronmeyerconstructionllc.com/,10177-000,Construction & Remodeling Services,4/26/2007 0:00,,False,NR,0.0,1.0,0.0,False,Micro-small,False,9/22/2022 8:57,BBB
894,704,22003662,Express A Button,28458 Selke Rd,,Dakota,MN,55925,USA,5076436933,orderentry@expressabutton.com,http://www.expressabutton.com,80128-000,Buttons - Advertising,1/1/1987 0:00,,False,A+,100.0,30.0,,False,Small,False,8/5/2022 8:37,BBB
895,704,96175111,AlarmForce,675 Garyray Dr,,North York,,M9L 1,,8002672001,,http://www.alarmforce.com,60167-000,"Burglar Alarm Systems - Dealers, Monitoring & Service",7/20/2010 0:00,,False,NR,0.0,4.0,0.0,False,Micro-small,False,10/15/2019 4:06,BBB
896,704,1000035245,TCC,212 Red River Ave S,,Cold Spring,MN,56320,USA,3206858800,,https://www.tccrocks.com/,50434-000,Mobile Telephone Equipment & Supplies,9/29/2015 0:00,,False,NR,0.0,3.0,0.0,False,Micro-small,False,6/1/2022 21:28,BBB
897,704,96003119,"Tree Top Service, Inc.",4683 65th St SE,,Delano,MN,55328,USA,7639723988,info@treetopclearing.com,http://www.treetopclearing.com,10050-000,Excavating Contractors,1/1/1982 0:00,,False,A+,100.0,7.0,,False,Micro-small,False,12/8/2022 9:13,BBB
898,704,2001509,"XO Communications Services, Inc",1200 Washington Ave. N. Ste. 200,,Minneapolis,MN,55401,USA,6123387977,todd.a.meester@xo.com,https://www.xo.com/,60235-000,"Computers Hardware, Software & Services",7/24/2004 0:00,,False,NR,0.0,40.0,0.0,False,Small,False,8/17/2022 19:51,BBB
899,704,96364869,Dyer Soundworks LLC,1175 Meadowbrook Ln NE,,Sauk Rapids,MN,56379,USA,3202598933,kevindyerbiz@gmail.com,http://dyersoundworks.com,60301-000,Disc Jockeys,2/19/2008 0:00,,False,A+,100.0,5.0,0.0,False,Micro-small,False,3/26/2022 8:28,BBB
900,704,24000520,W. J. Bradley Mortgage Capital Corporation,434 Hale Ave N Ste 100,,Oakdale,MN,55128,USA,6516475626,Human.resources@wjbradley.com,https://www.wjbradley.com/,20053-000,Mortgage Brokers,11/28/2000 0:00,,False,A+,100.0,9.0,0.0,False,Medium,False,10/16/2020 4:00,Email
901,704,96142562,Bismarck Parking Authority,114 N 6th St,,Bismarck,ND,58501,USA,7012228954,,http://www.bismarckparkingauthority.com,60640-000,Parking Facilities,1/1/1998 0:00,,False,NR,0.0,7.0,,False,Micro-small,False,8/2/2022 8:44,BBB
902,704,2440,"Elk River Exteriors, Inc.",11230 276th Ave NW,,Zimmerman,MN,55398,USA,7634417240,lisa@elkriverexteriors.com,http://www.elkriverexteriors.com,10135-000,Siding Contractors,2/19/1992 0:00,,True,A+,100.0,5.0,0.0,False,Micro-small,False,8/17/2022 8:56,BBB
903,704,96185279,Lofton Label Inc,6290 Claude Way,,Inver Grove Heights,MN,55076,USA,6514578118,,http://WWW.Loftonlabel.com,30326-000,"Laminations - Plastic, Paper",1/1/1987 0:00,,False,A+,100.0,81.0,,False,Small,False,8/2/2022 18:35,BBB
904,704,96198237,Princeton Golf Course Inc,301 Golf Club Rd,,Princeton,MN,55371,USA,7633895109,bboe@princetongc.com,http://Princetongc.com,60410-000,Golf Courses - Public,3/7/2016 0:00,,False,A+,100.0,20.0,0.0,False,Micro-small,False,3/12/2020 4:13,BBB
905,704,1000041473,CR Handy Home Services,7818 53rd Ave N,,New Hope,MN,55428,USA,7635353634,info@crhandy.com,http://www.crhandy.com/,30252-100,Furniture Assembly Services,4/8/2009 0:00,,False,A+,100.0,1.0,,False,Micro-small,False,1/21/2023 8:56,BBB
906,704,96131137,Ostrem Dental,4600 Lake Road Ave Ste 101,,Robbinsdale,MN,55422,USA,7635361272,jtostrem@hotmail.com,http://www.drodental.com,60289-000,Dentists,1/1/1968 0:00,,False,A+,100.0,5.0,,False,Micro-small,False,11/3/2021 4:22,BBB
907,704,96573849,Ryan Tile Concepts,733 8th Ave S,,Hopkins,MN,55343,USA,6126005394,ryantileconcepts@yahoo.com,https://www.facebook.com/pages/Ryan-Tile-Concepts/177536135611645,10159-000,Tile - Ceramic - Contractors & Dealers,7/15/2015 0:00,,False,A+,100.0,1.0,0.0,False,Micro-small,False,1/13/2023 9:01,BBB
908,704,96133677,Trail Creek Dental,120 N Augusta Ct Ste 108,,Mankato,MN,56001,USA,5076257172,,http://www.drgarrettstarr.com,60289-000,Dentists,1/1/1991 0:00,,False,A+,100.0,4.0,,False,Micro-small,False,8/20/2022 8:40,BBB
909,704,1000052264,"Anytime Mortgage, LLC",3247 47th St S,,Fargo,ND,58104,,2184433579,Jennifer.johns@anytimemortgage.com,http://anytimemortgage.com,20053-200,Mortgage Lender,1/24/2017 0:00,,True,A+,100.0,7.0,,False,Micro-small,False,2/9/2023 9:12,BBB
910,704,1000003396,Fred's Body Shop,1238 Breezy Lane,,Winona,MN,55987,USA,5074545454,freds@hbci.com,https://www.hbci.com/,60103-000,Auto Repair & Service,,,False,A+,100.0,1.0,0.0,False,Micro-small,False,11/26/2020 4:05,Email
911,704,96123604,"Consumer Financial Advisory Board, LLC",1000 S Fort Harrison Ave,,Clearwater,FL,33756,,8775572322,,http://www.mycfab.com,20012-000,Financial Planning Consultants,,,False,A+,100.0,1.0,,False,Micro-small,False,2/9/2023 9:11,BBB
912,704,96012839,"Upper Midwest Allied Gifts Association, Inc",10301 Bren Rd W,,Hopkins,MN,55343,USA,9529327200,info@mplsmart.com,http://www.mplsmart.com,80345-000,Giftware - Wholesale & Manufacturers,1/1/1985 0:00,,False,A+,100.0,9.0,,False,Micro-small,False,1/14/2023 8:57,BBB
913,704,96025055,White Funeral Homes,14560 Pennock Ave,,Apple Valley,MN,55124,USA,6514637374,wyate@comcast.net,http://www.whitefuneralhomes.com,60388-000,Funeral Directors,1/1/1940 0:00,,False,A+,100.0,10.0,0.0,False,Small,False,2/3/2023 9:12,BBB
914,704,6001451,Best Western Como Park Hotel,1010 Bandana Blvd W,,Saint Paul,MN,55108,USA,6516471637,gm@bwcomoparkhotel.com,https://www.bestwestern.com/en_US/book/hotels-in-saint-paul/best-western-plus-como-park-hotel/propertyCode.24130.html,60447-000,Hotels,1/1/1988 0:00,,False,A+,100.0,25.0,,False,Micro-small,False,1/17/2023 8:46,BBB
915,704,96369421,Anytime Tots,8517 144th St W,,Apple Valley,MN,55124,USA,9522360622,,http://www.anytimetots.com,60199-100,Child Care - In Home,,,False,A+,100.0,1.0,,False,Micro-small,False,1/27/2022 9:28,BBB
916,704,96505034,Total Wine,4260 W 78th St,,Bloomington,MN,55435,USA,8553306673,,http://www.totalwine.com,50739-000,Wines - Retail,9/9/2013 0:00,,False,NR,0.0,7.0,0.0,False,Micro-small,False,9/15/2022 8:34,BBB
917,704,1000026202,"Polyshield, Llc",26329 Terrace Dr,,Zimmerman,MN,55398,USA,7634023038,matt@polyshieldmn.com,https://www.polyshieldmn.com/,10035-000,Contractors - General,5/24/2016 0:00,,False,A+,100.0,1.0,0.0,False,Micro-small,False,11/16/2022 9:43,Email
918,704,96574449,Spearmint Rhino,725 Hennepin Ave,,Minneapolis,MN,55403,USA,6123536739,,http://www.spearmintrhino.com/minnesota,50456-000,Night Clubs,,,False,NR,0.0,1.0,0.0,False,Micro-small,False,4/26/2022 8:19,BBB
919,704,96553921,Delta Roofing & Exteriors,4797 Richard Ln,,Eagan,MN,55122,USA,6123637561,john@deltaroofs.com,http://www.deltaroofs.com,10126-000,Roofing Contractors,3/27/2014 0:00,,False,A+,100.0,1.0,0.0,False,Micro-small,False,1/10/2023 8:49,BBB
920,704,21001479,Blaine Kennels & Pet Supplies,10193 Flanders St NE,,Blaine,MN,55449,USA,7637863616,info@blainekennels.com,http://www.blainekennels.com,00153-000,Pet Boarding & Kennels,1/1/1985 0:00,,False,A+,100.0,10.0,,False,Small,False,8/16/2022 8:20,BBB
921,704,1000035992,Wells Fargo Bank Minnesota,4200 Xylon Ave. N.,,New Hope,MN,55427,USA,8008693557,carolyn.h.roby@wellsfargo.com,http://www.wellsfargo.com,20003-000,Banks,1/1/1929 0:00,,False,NR,0.0,16600.0,0.0,False,Giant,False,6/1/2022 21:29,BBB
922,704,7000132,Internet Exposure,1101 Washington Ave S # 300,,Minneapolis,MN,55415,USA,6126761946,info@iexposure.com,http://www.iexposure.com,60980-000,Web Design,11/1/1995 0:00,,False,A+,100.0,23.0,,False,Small,False,2/23/2021 4:06,BBB
923,704,96152176,"DC Group, Inc.",1977 W River Rd,,Minneapolis,MN,55411,USA,6125299516,Nikola.Nikolic@DC-Group.com,http://www.dc-group.com,70545-000,Electrical Power Systems Maintenance,11/21/1969 0:00,,True,A+,100.0,200.0,,False,Small,False,1/4/2023 9:05,BBB
924,704,4000145,"Maguire Agency, Inc.",1935 County Road B2 W STE 241,,Saint Paul,MN,55113,USA,6516389100,mclysdale@maguireagency.com,http://www.maguireagency.com,20019-100,Insurance Agency,1/1/1901 0:00,,False,A+,100.0,45.0,,False,Small,False,11/30/2021 4:06,BBB
925,704,1000008391,Count On Me! LLC,13626 Geyser Path,,Apple Valley,MN,55124,USA,9522615457,info@seniormovemagic.com,http://www.seniormovemagic.com/,85296-500,Senior Move Manager ,5/25/2014 0:00,,False,A+,100.0,1.0,0.0,False,Micro-small,False,1/10/2023 8:49,BBB
926,704,96007515,"Petersen-Parenteau Stucco & Remodeling, Inc.",2618 Belmont Ln E,,Saint Paul,MN,55109,USA,6517707044,petersen-parenteau@outlook.com,http://www.stucco-experts.com,10079-000,Home Improvements,3/7/2003 0:00,,True,A+,100.0,9.0,,False,Micro-small,False,9/15/2022 8:33,BBB
927,704,1000033539,Guardian Title,3495 Northdale Blvd NW,,Coon Rapids,MN,55448,USA,7632732986,,https://guardiantitlemn.com/,20072-100,Title Companies,2/7/2020 0:00,,False,NR,0.0,1.0,0.0,False,Micro-small,False,7/8/2022 12:30,BBB
928,704,1000043422,Matthias Home Improvements,2310 Harriet Ave,Apt 106,Minneapolis,MN,55405,USA,9209731011,mathiashomeimprovements@gmail.com,https://www.facebook.com/matthiashomeimprovements/,85318-300,Finish Carpentry,9/8/2020 0:00,,False,A,95.44,1.0,0.0,False,Micro-small,False,11/11/2022 9:29,BBB
929,704,1000008471,Mantle Buzz Inc,11 Manitoba Rd,,Hopkins,MN,55305,USA,6513413666,steve@mantlebuzz.com,http://mantlebuzz.com,60473-600,Digital Marketing,5/2/2013 0:00,,False,A+,100.0,1.0,0.0,False,Micro-small,False,1/31/2023 8:46,BBB
930,704,96092236,Designer Sports,1535 Marshall Ave # 3,,Saint Paul,MN,55104,USA,6516980933,Pam@Designer-Sports.com,http://www.designer-sports.com,50608-000,Sporting Goods - Retail,1/1/2006 0:00,,False,A+,100.0,3.0,,False,Micro-small,False,6/22/2022 11:33,BBB
931,704,96016979,Red Circle Advertising,125 W Broadway Ave,,Minneapolis,MN,55411,USA,6123724613,,http://www.redcircleagency.com,60016-000,Advertising - Newspaper,1/1/2006 0:00,,False,A+,100.0,24.0,,False,Small,False,7/27/2022 9:06,BBB
932,704,96025340,"Highway Sales, Inc.",2755 Highway 55 Ste 100,Suite 100,Saint Paul,MN,55121,USA,6516882020,bmarshall@highwaysales.com,http://www.highwaysales.com,50684-000,Truck Dealers,5/21/1971 0:00,,False,A+,100.0,10.0,0.0,False,Small,False,3/9/2022 10:12,BBB
933,704,1000054035,Browns Dog Training & More,4338 5th St NE,,Columbia Heights,MN,55421,,6123224879,pastdue51@yahoo.com,https://dogtrainingcolombiaheights.com/,00198-100,Pet Training - Dog,,,False,A-,92.18,1.0,,False,Micro-small,False,2/9/2023 9:12,BBB
934,704,96139894,WinCraft Incorporated,960 E Mark St,,Winona,MN,55987,USA,5074545510,contact@wincraft.com,https://www.wincraft.com/,60771-300,Promotional Products,10/7/2009 0:00,,False,A+,100.0,1.0,0.0,False,Medium,False,8/26/2021 4:03,BBB
935,704,1000032167,Clear View,12047 25th St SE,,Valley City,ND,58072,USA,7014904088,clearview.nd@gmail.com,http://www.clearviewnd.com,60954-000,Window Cleaning,10/1/2019 0:00,,False,A+,97.86,1.0,0.0,False,Micro-small,False,11/22/2022 8:45,BBB
936,704,50002171,"Helm Electric, Inc",21596 Vernon Ave,,Lakeville,MN,55044,USA,9524612460,,http://www.helmelectric.com,10049-000,Electricians,1/1/1978 0:00,,False,A+,100.0,6.0,,False,Micro-small,False,5/20/2022 20:29,BBB
937,704,1000052567,KK Investments Corp,9605 Girard Ave S,,Bloomington,MN,55431,USA,6126362709,ksharaf@kitchentuneup.com,http://www.kitchentuneup.com,10006-100,Kitchen Remodeling,7/22/2021 0:00,,False,A-,93.64,1.0,0.0,False,Micro-small,False,1/4/2023 9:05,BBB
938,704,96155361,"Joe's Digging Service, Inc.",3106 University Ave,,Williston,ND,58801,USA,7015729456,joesdigging@nemont.net,https://joes-digging-service.business.site/,10050-000,Excavating Contractors,11/17/1995 0:00,,False,A+,100.0,10.0,,False,Micro-small,False,3/17/2022 8:43,BBB
939,704,1000045459,The Musicant Group LLC,2216 Harriet Ave Apt 301,,Minneapolis,MN,55405,USA,6126706717,max@musicantgroup.com,http://www.musicantgroup.com/,60729-102,Real Estate Agents,5/3/2012 0:00,,False,A+,100.0,1.0,0.0,False,Micro-small,False,10/20/2021 4:49,BBB
940,704,96093618,ND Dairy Promotion Commission,PO Box 355,,Hazelton,ND,58544,USA,7017824154,bgoldman@midwestdairy.com,https://www.midwestdairy.com/,99998-000,Government Offices,6/10/2008 0:00,,False,NR,0.0,,0.0,False,Micro-small,False,5/25/2019 4:20,Email
941,704,96560071,"Go Fetsch Mechanical, Inc",9111 Davenport St NE,,Blaine,MN,55449,USA,7634322291,nikki@gofetsch.com,http://gofetsch.com,10182-300,Air conditioning & Heating Contractors - Commercial,4/9/2004 0:00,,False,A+,100.0,1.0,,False,Micro-small,False,9/16/2022 8:14,BBB
942,704,1000046334,Medical Tattoo Centers of America LLC,11724 Ulysses St NE Ste 120,,Blaine,MN,55434,USA,6127700000,layla@medicaltattoocenters.com,https://www.medicaltattoocenters.com/,60854-000,Tattoos,11/20/2019 0:00,,False,A+,97.02,1.0,,False,Micro-small,False,9/10/2022 8:40,BBB
943,704,96176952,"Horsman Drywall, LLC",308 E Main St,,Dodge Center,MN,55927,USA,5072590204,horsmandrywall@kmtel.com,https://www.kmtel.com/,10046-000,Drywall Contractors,1/1/2003 0:00,,False,A+,100.0,1.0,,False,Micro-small,False,11/11/2022 9:29,Email
944,704,96375259,"Castle Home Inspections, LLC",1648 Kristin Ct,,Minneapolis,MN,55432,USA,6123096380,customercare@inspectyourcastle.com,http://inspectyourcastle.com,60469-000,Home Inspection Service,2/7/2012 0:00,,False,A+,100.0,1.0,,False,Micro-small,False,11/4/2020 4:22,BBB
945,704,96270758,"Valley Gutter Service, Inc.",4814 43rd St S,,Fargo,ND,58104,USA,7013567788,valleygutterservice@gmail.com,http://www.valleygutterservice.com,10073-310,Gutter Contractor,8/1/1999 0:00,,False,A+,100.0,2.0,0.0,False,Micro-small,False,8/31/2022 8:59,BBB
946,704,1000001853,MaxBotix Inc,13860 Shawkia Dr,,Brainerd,MN,56401,USA,2184540766,info@maxbotix.com,http://www.maxbotix.com,80272-000,Electronic Equipment & Supplies - Wholesale & Manufacturers,12/1/2005 0:00,,False,A+,100.0,35.0,0.0,False,Small,False,12/23/2022 9:05,BBB
947,704,96063254,"Dirtworks, Inc",24656 Ulysses Ct NE,,Isanti,MN,55040,USA,6126855498,stevesr@dirtworksmn.com,https://dirtworksmn.com/,10050-000,Excavating Contractors,5/1/1987 0:00,,False,A+,100.0,6.0,,False,Micro-small,False,7/12/2022 8:32,BBB
948,704,96123655,Fox Engineering LLC,1412 317th Ave NE,,Cambridge,MN,55008,USA,7636890810,cfox@foxengineeringllc.com,http://www.foxengineeringllc.com,60335-000,Engineering Contractors - General,1/1/1988 0:00,,False,A+,100.0,7.0,,False,Micro-small,False,2/20/2022 9:00,BBB
949,704,96153197,"The Haagen-Dazs Shoppe Company, Inc.",500 Washington Ave S,Ste 2040,Minneapolis,MN,55415,USA,6123373300,michael.levitz@us.nestle.com,http://www.haagendazsshoppecompany.com/,50544-000,Restaurants,7/11/1983 0:00,,False,A+,100.0,20.0,,False,Small,False,1/24/2023 8:58,BBB
950,704,96145658,"Corky&#39;s Towing, Inc",4040 Washington Ave N,,Minneapolis,MN,55412,USA,6129191106,loonielake@aol.com,http://www.corkystowing.com,60891-000,Towing - Automotive,7/20/2000 0:00,,False,A+,100.0,5.0,0.0,False,Small,False,12/13/2022 9:03,BBB
951,704,96138085,Snowland Freight Service,1270 Northland Dr STE 140,,Saint Paul,MN,55120,USA,6514557456,,http://www.snowlandfreight.com,70640-000,Trucking,1/1/1998 0:00,,False,A+,100.0,6.0,0.0,False,Small,False,2/25/2022 9:45,BBB
952,704,1000026319,M2 Productions,1196 Tyler St S ,,Shakopee,MN,55379,USA,2184100116,,http://www.msquaredpro.com,85308-100,Videographers - Wedding,,,False,NR,0.0,1.0,0.0,False,Micro-small,False,11/14/2022 9:09,BBB
953,704,1000056721,MN Cleaning & Restoration LLC,15322 66th Ave,,Kimball,MN,55353,USA,6517771100,minnesotacandr@gmail.com,https://minnesotacandr.com/,85306-110,Carpet Cleaning,9/24/2018 0:00,,False,A+,100.0,1.0,0.0,False,Micro-small,False,11/17/2022 9:22,BBB
954,704,96569748,"Pro Start Construction, LLC",11956 Castle Rock Ct N,,Champlin,MN,55316,USA,7632052254,info@prostartconstruction.com,http://www.prostartconstruction.com,10035-000,Contractors - General,12/17/2014 0:00,,True,A+,100.0,3.0,0.0,False,Micro-small,False,10/4/2022 8:07,BBB
955,704,1000001499,Cloud 9 Spa & Salon ,108  1st  Ave SW,,Rochester,MN,55902,USA,5072886689,massagecloud99@gmail.com,http://www.massagecloud9.com,60542-000,Massage Therapeutic,,,False,A+,99.31,1.0,0.0,False,Micro-small,False,2/1/2020 4:31,BBB
956,704,96373291,Cem-Con Corporation,46278 Government Rd,,Harris,MN,55032,USA,6514700531,cemconinc@gmail.com,https://cem-con-corporation.business.site,10032-000,Concrete Contractors,3/29/1979 0:00,,False,A+,100.0,5.0,0.0,False,Micro-small,False,1/5/2023 9:23,BBB
957,704,96220049,Rodman Welding & Manufacturing Inc,Po Box 339,,Jasper,MN,56144,USA,5073484133,rodmanap@rodmanwelding.com,http://rodmanwelding.com,60948-000,Welding,8/30/2010 0:00,8/15/2022 0:00,False,NR,0.0,5.0,0.0,False,Micro-small,False,8/16/2022 8:21,BBB
958,704,1000060775,Wrapix Designs LLC ,1216 Birchwood Dr,,Proctor,MN,55810,USA,2185425655,,http://wrapixdesigns.com,60095-000,Auto Customizing,,,False,NR,0.0,1.0,,False,Micro-small,False,2/2/2023 8:53,BBB
959,704,96025839,"Laser Sharp, Inc.",111 19th St W,,Hastings,MN,55033,USA,,,http://www.lasersharpinc.com,30539-000,Printing Supplies,1/1/1990 0:00,7/7/2017 0:00,False,NR,0.0,2.0,,False,Micro-small,False,7/13/2020 3:58,BBB
960,704,96161732,Hollywood Premier Searchlight,2827 Stevens Ave,,Minneapolis,MN,55408,USA,6128741303,,http://www.hollywoodpremieresearchlight.com,50456-000,Night Clubs,1/1/1984 0:00,,False,A+,100.0,1.0,,False,Micro-small,False,12/25/2020 3:51,BBB
961,704,96083947,D&S Construction,547 Burr Oak Place,,Rice Lake,WI,54868,USA,7634419110,doug1@d-sco.com,http://www.d-sco.com,10177-000,Construction & Remodeling Services,1/1/2006 0:00,,False,A+,100.0,2.0,,False,Micro-small,False,8/4/2022 8:30,BBB
962,704,96150647,"Crossroads Properties, Inc.",7300 Hudson Blvd N Ste 210,,Oakdale,MN,55128,USA,6517310708,,http://www.crossroadsproperties.net,60732-000,Property Management,1/1/1990 0:00,,False,A+,100.0,5.0,0.0,False,Micro-small,False,3/16/2022 8:51,BBB
963,704,96153427,Countryside Services,6228 Highway 10 NW,,Anoka,MN,55303,USA,7634414943,countrysideservices@yahoo.com,http://www.countrysideservicesmn.com,10050-000,Excavating Contractors,9/21/2021 0:00,,False,A-,93.4,15.0,,False,Micro-small,False,1/31/2023 8:46,BBB
964,704,1000019747,Pennie Overalls&#39; Cleaning Service LLC,404 E 48th St,,Minneapolis,MN,55419,USA,6125670487,cleaning@pennieoveralls.com,http://www.pennieoveralls.com/,66002-000,Cleaning Services,1/28/2013 0:00,,False,A+,100.0,1.0,0.0,False,Micro-small,False,7/20/2022 9:11,BBB
965,704,21004900,Sleep Concepts Inc,7464 Lakeland Ave N,,Brooklyn Center,MN,55428,USA,7635331500,mail@sleepconcepts.com,http://www.sleepconcepts.com,50067-000,Bedding,,,False,A+,100.0,1.0,,False,Small,False,1/14/2022 9:29,BBB
966,704,96383537,Woodworth Painting & Staining,502 25th Ave N,,Fargo,ND,58102,USA,7017307054,woodworthpainting@gmail.com,http://www.facebook.com/Justins.painting,10095-000,Painting Contractors,5/24/2013 0:00,1/1/2019 0:00,False,NR,0.0,1.0,0.0,False,Micro-small,False,1/7/2022 14:13,BBB
967,704,8001491,Anderson & Fercho Pllc,3209 Fiechtner Dr S Ste 6,,Fargo,ND,58103,USA,7012358095,info@hagakommer.com,https://www.hagakommer.com/,60004-000,Accountants - Certified Public,1/1/1997 0:00,6/21/2021 0:00,False,NR,0.0,2.0,0.0,False,Micro-small,False,7/21/2021 5:18,Email
968,704,20619,Collage Video Specialties Inc,5390 Main St NE,,Minneapolis,MN,55421,USA,2014644921,collage@collagevideo.com,https://www.collagevideo.com/,50411-000,Mail Order & Catalog Shopping,1/1/1986 0:00,,False,NR,0.0,21.0,,False,Large,False,11/17/2022 9:21,BBB
969,704,1000048235,D&D Electric LLC,8334 Decathelon Drive,,Spicer,MN,56288,USA,3208942900,dndelectricity@gmail.com,https://www.facebook.com/profile.php?id=100066353297093,10035-500,Electricians - Residential,2/24/2021 0:00,,False,A,94.66,3.0,,False,Micro-small,False,1/6/2023 9:13,BBB
970,704,96009410,Geroy&#39;s Building Center,31043 County Road 28,,Roseau,MN,56751,USA,2184633060,kgeroy@geroys.com,http://www.geroys.com,50110-000,Building Materials,1/1/1985 0:00,,False,A+,100.0,22.0,,False,Small,False,1/28/2023 8:47,BBB
971,704,96152376,Baier's Engine Service,2915 20th St SE,,Rochester,MN,55904,USA,5072825586,jimbaier@aol.com,http://www.baiersengine.com,60101-000,Auto Machine Shops,3/1/1975 0:00,,False,A+,100.0,3.0,0.0,False,Micro-small,False,5/21/2022 8:15,BBB
972,704,96346801,Woods by Designs,6118 White Pine Circle,,Rochester,MN,55901,USA,5072722472,woodsbydesigns@gmail.com,http://www.woods-by-designs.com,15035-000,Handyman Services,9/1/2010 0:00,,False,A+,100.0,1.0,0.0,False,Micro-small,False,1/30/2022 9:16,BBB
973,704,96109733,Sund Design,2308 Pointe Loop,,Bismarck,ND,58503,USA,7012586476,sunddesign@sunddesign.com,http://www.sunddesign.com,60413-000,Graphic Designers,6/24/2004 0:00,,False,A+,100.0,1.0,0.0,False,Micro-small,False,12/17/2021 4:16,BBB
974,704,21003624,"Skyline Display, Inc",3355 Discovery Rd,,Saint Paul,MN,55121,USA,6512346000,timbrengman@skyline.com,http://www.skyline.com,30161-000,Display Designers & Producers,12/22/1980 0:00,,False,A+,100.0,300.0,,False,Medium,False,7/21/2020 3:56,BBB
975,704,1000027135,Elevated Camera, 200 Forest Ave E,,Mora,MN,55051,USA,6124659436,hello@elevatedcam.com,http://elevatedcam.com/contact/,85308-000,Videographers,1/11/2018 0:00,,False,NR,0.0,1.0,0.0,False,Micro-small,False,6/8/2022 8:47,BBB
976,704,23001343,N.A.T.C.O. Transmission,24612 Ulysses St NE,,Bethel,MN,55005,USA,7634444646,natcotrans@aol.com,http://www.natcotrans.com,60902-000,Transmissions - Automobile,2/8/1988 0:00,,True,A+,100.0,4.0,,False,Micro-small,False,11/30/2022 9:26,BBB
977,704,96110601,Empty the Nest Inc,1000 Boone Ave N Ste 320,,New Hope,MN,55427,USA,6129980102,hope@emptythenest.net,https://www.emptythenest.net/,50655-000,Thrift Shops,7/3/2006 0:00,,False,A+,97.0,1.0,,False,Micro-small,False,8/5/2022 8:38,BBB
978,704,96052083,"13 Below Consulting, LLC",8646 Eagle Creek Cir,Ste 211,Savage,MN,55378,USA,8777707794,info@fii-inc.com,http://www.13below.com,60246-000,Computers - Sys Designers & Consult,4/7/2006 0:00,,False,A+,100.0,10.0,,False,Small,False,12/10/2021 4:11,BBB
979,704,1000003698,Juice Plus,929 Eastwood Ln,,Anoka,MN,55303,USA,7639234820,kayludwig48@gmail.com,http://kayludwig.juiceplus.com/content/JuicePlus/en.html,60429-200,Health & Wellness,3/17/2005 0:00,,False,A+,100.0,1.0,0.0,False,Micro-small,False,12/24/2022 8:49,BBB
980,704,1000001273,Downtown Dental Care of Duluth,324 W Superior St Ste 828,,Duluth,MN,55802,USA,2187223679,,http://www.dentalcareduluth.com,60289-000,Dentists,1/1/2007 0:00,,False,A+,100.0,4.0,0.0,False,Micro-small,False,10/28/2022 8:24,BBB
981,704,96383082,"Steck&#39;s Handyman, LLC",611 14th Ave SE,,Jamestown,ND,58401,,7016591054,davidsteckler75@yahoo.com,https://www.facebook.com/steckshandyman/,15035-000,Handyman Services,2/13/2012 0:00,,True,A+,100.0,3.0,,False,Micro-small,False,2/9/2023 9:11,BBB
982,704,96366592,Dennis Hagen Estate Sales,410 Groveland Ave Apt 104,,Minneapolis,MN,55403,USA,6128740148,,http://dennishagenestatesales.com/index.htm,60350-000,"Estates - Appraisals, Sales & Auctions",6/14/2012 0:00,,False,A+,100.0,1.0,0.0,False,Micro-small,False,9/22/2021 4:11,BBB
983,704,96086064,Cedar 94 Apartments LP,2220 E Franklin Ave,,Minneapolis,MN,55404,USA,6123385275,cedars94@thegoodmangroup.com,https://www.mycedars94home.com/,60042-000,Apartments,1/1/1970 0:00,,False,A+,100.0,10.0,,False,Small,False,7/8/2022 12:23,BBB
984,704,1000002554,Floortapestore.com,7635 W 148th St W,,Apple Valley,MN,55124,USA,8443566782,info@floortapestore.com,http://floortapestore.com,70644-000,Warehouses - Merchandise,4/1/2010 0:00,,False,A+,100.0,1.0,0.0,False,Small,False,3/9/2022 10:13,BBB
985,704,1000061530,Scandia Signs and Awnings,13859 Scandia Trl N,,Scandia,MN,55073,USA,3202929000,scandiasignsandawnings@gmail.com,https://www.scandiasignsandawnings.com,50047-000,Awnings & Canopies,6/19/2019 0:00,,True,A+,99.07,1.0,,False,Micro-small,False,2/2/2023 8:53,BBB
986,704,9000873,"International Adoption Services, Inc.",4570 W 77th St Ste 220,Suite 100,Bloomington,MN,55435,USA,9528931343,info@ias-ww.com,http://www.ias-ww.com/,60009-000,Adoption Services,10/15/1991 0:00,,True,A+,100.0,7.0,,False,Micro-small,False,2/2/2023 8:52,BBB
987,704,14003739,International Catering Inc,275 Market St Ste C25,,Minneapolis,MN,55405,USA,6123398322,,http://www.atriumcatering.com,50138-000,Caterers,1/1/1983 0:00,,False,A+,100.0,70.0,,False,Small,False,5/29/2020 3:57,BBB
988,704,96039209,"Southfork Animal Hospital, P.A.",17445 Kenrick Ave,,Lakeville,MN,55044,USA,9528927970,craig@southforkvet.com,http://www.southforkvet.com,00222-000,Veterinarians,4/10/1989 0:00,,False,A+,100.0,12.0,0.0,False,Micro-small,False,8/10/2021 4:18,BBB
989,704,1000031637,Blue Wave Massage,4553 9th Ave. SW Suite 3,,Fargo,ND,58103,USA,7012616025,alyssasinner@gmail.com,https://bluewavemassage.biz,60543-000,Massage Therapists,10/1/2015 0:00,,False,NR,0.0,1.0,0.0,False,Micro-small,False,10/27/2022 8:14,BBB
990,704,96020019,Beacon Accounts Management,1100 4th Ave E # 270,,Shakopee,MN,55379,USA,9522332011,bam@beaconaccounts.com,http://www.beaconaccounts.com,20040-000,Insurance Claim Processing Services,1/1/2000 0:00,,False,A+,100.0,6.0,,False,Micro-small,False,10/13/2022 8:22,BBB
991,704,96085377,Advanced Biomedical Technologies,1461 Skyline Rd,,Eagan,MN,55121,USA,6516810198,agacrist@gmail.com,http://www.advbiomed.com,60971-000,Health & Medical - General,1/1/1982 0:00,,False,A+,100.0,5.0,,False,Small,False,10/27/2021 4:17,BBB
992,704,96160921,Hazelton Family Dentistry PA,677 Anne St NW # F,,Bemidji,MN,56601,USA,2183338668,hazdds@paulbaryon.net,http://www.hazeltonfamilydentistry.com,60289-000,Dentists,8/1/2008 0:00,,False,A+,100.0,4.0,,False,Micro-small,False,8/27/2021 4:04,BBB
993,704,96119120,Lighthouse Farm,PO Box 192,,Princeton,MN,55371,USA,7633890554,info@lighthousefarm.com,http://www.lighthousefarm.com,00128-000,Farms,,,False,A+,100.0,1.0,,False,Micro-small,False,6/3/2022 9:02,BBB
994,704,14004212,Great River Energy,12300 Elm Creek Blvd N,,Maple Grove,MN,55369,USA,7634455000,tlacanne@grenergy.com,http://www.greatriverenergy.com,70544-000,Electric Companies,12/10/1998 0:00,,False,A+,100.0,800.0,0.0,False,Large,False,8/11/2022 8:29,BBB
995,704,96144264,Rock Art,2 11th Ave NW,,Minot,ND,58703,USA,7018396495,laolson@srt.com,https://www.srt.com/,60065-000,Artists - Commercial,1/1/1989 0:00,,False,NR,0.0,1.0,0.0,False,Micro-small,False,3/6/2022 9:22,Email
996,704,96376990,Mayne Design LLC,1910 Stanford Ave,,Duluth,MN,55811,USA,2183414070,info@maynedesign.net,http://mayne.design,60413-000,Graphic Designers,4/21/2004 0:00,,False,A+,100.0,1.0,0.0,False,Micro-small,False,9/24/2021 3:48,BBB
997,704,96321507,"Charlie and Company Design, LLC",212 3rd Ave N Ste 356,,Minneapolis,MN,55401,USA,6123332246,charlie@charlieandcodesign.com,http://charlieandcodesign.com,60413-000,Graphic Designers,10/29/2009 0:00,,False,A+,100.0,1.0,0.0,False,Micro-small,False,9/22/2022 8:55,BBB
998,704,43001647,AW Technology,2020 Silver Bell Rd,,Eagan,MN,55122,USA,6514548900,sales@awtech.com,http://www.awtech.com/,60246-000,Computers - Sys Designers & Consult,1/1/1986 0:00,,False,A+,100.0,11.0,0.0,False,Micro-small,False,12/23/2020 12:15,BBB
999,704,1000006653,Pine County Nursery,911 e main st,,Valley City,ND,58072,USA,7018455550,dane@pinecountynursery.com,http://www.pinecountynursery.com,80507-000,Nurserymen Equipment & Supplies,3/29/2000 0:00,,False,A+,100.0,1.0,0.0,False,Micro-small,False,11/10/2020 4:01,BBB
1000,704,1000048119, Northern Print Co. Inc.,"13 Minnesota Ave E, ",PO Box 94,Glenwood,MN,56334,USA,3204919540,mitch@hcinet.net,https://northernprintco.com/,50576-000,Shirts - Custom Made,7/19/2004 0:00,,False,A+,100.0,1.0,,False,Micro-small,False,5/15/2022 8:13,BBB
1001,704,1000007946,Hancock Concrete,17 Atlantic Ave,,Hancock,MN,56244,USA,3203925207,,http://www.hancockconcrete.com,50180-000,Concrete Products,9/23/2009 0:00,,False,A+,100.0,320.0,0.0,False,Medium,False,9/5/2020 4:10,BBB
1002,704,6000050,Anderson & Koch Ford Inc,5577 Saint Croix Trl,,North Branch,MN,55056,USA,6516744465,anderson@mcg.net,http://www.andersonandkochford.com,50039-000,Auto Dealers - New Cars,12/26/1963 0:00,,False,A+,100.0,41.0,0.0,False,Medium,False,2/8/2023 9:27,BBB
1003,704,96025066,Emerald Capital Solutions,PO Box 46392,,Plymouth,MN,55446,USA,7637423031,info@emeraldcapitalsolutions.com,http://www.emeraldcapitalsolutions.com,20085-000,Financial Services,5/1/2005 0:00,,False,A+,100.0,1.0,,False,Micro-small,False,8/7/2021 4:09,BBB
1004,704,96019666,Team Parking,1465 Davern St,,Saint Paul,MN,55116,USA,6516901259,pnjhjs@aol.com,http://www.teamparking.com,60640-000,Parking Facilities,1/1/1997 0:00,,False,A+,100.0,26.0,0.0,False,Large,False,2/10/2022 9:44,BBB
1005,704,96344427,"Knutson Custom Remodelers, LLC",4745 Vincent Ave S,,Minneapolis,MN,55410,USA,6127199015,mknutson3@comcast.net,http://www.knutsoncustomremodelers.com,10035-000,Contractors - General,1/1/1974 0:00,,True,A+,100.0,1.0,0.0,False,Micro-small,False,1/31/2023 8:46,BBB
1006,704,96105785,Enterprise Network Systems,3140 Neil Armstrong Blvd # 330,,Saint Paul,MN,55121,USA,6516839141,tom@ens.net,http://www.ens.net,60281-000,Data Systems - Consultants & Designers,11/1/1993 0:00,,False,A+,100.0,4.0,,False,Micro-small,False,7/13/2021 4:13,BBB
1007,704,96007256,"Simons Landscaping, Inc.",134 13th Ave S,,South Saint Paul,MN,55075,USA,6514515877,,http://www.simons-landscaping.com,00155-103,Landscape Maintenance,1/1/1999 0:00,,False,A+,100.0,3.0,,False,Micro-small,False,1/10/2023 22:12,BBB
1008,704,96096250,Sargent's Nursery Inc,3352 N Service Dr,,Red Wing,MN,55066,USA,6513883847,juliep@sargentsnursery.com,http://www.sargentsnursery.com,50460-000,"Nurseries - Plants, Trees",1/1/1984 0:00,,False,A+,100.0,55.0,,False,Large,False,11/11/2020 4:55,BBB
1009,704,36001017,"Gordy&#39;s Premier Auto Glass, Inc",2134 Vermillion St,,Hastings,MN,55033,USA,6514687327,premierautoglass@gmail.com,http://www.gordysautoglass.com,60990-000,"Auto Repair - Windshield, Glass Shops",1/1/1972 0:00,,False,A+,100.0,7.0,0.0,False,Small,False,10/11/2022 8:01,BBB
1010,704,96012382,"TR Salvage, Inc.",PO Box 352,,Thief River Falls,MN,56701,USA,2186818221,trsalv@mncable.net,http://www.trsalvage.com,80284-000,Farm Equipment - Repair & Parts,4/1/1987 0:00,,True,A+,100.0,5.0,,False,Micro-small,False,4/7/2022 9:01,BBB
1011,704,24000170,Emergency Lite Service Center,2525 Nevada Ave N Ste 308,,Minneapolis,MN,55427,USA,7635423155,avriziv@yahoo.com,https://www.emergencylighting.com/,50394-000,Lighting Fixtures - Retail,1/6/1986 0:00,,False,A+,100.0,4.0,0.0,False,Small,False,12/2/2022 9:28,BBB
1012,704,1000057900,Caring Hearts at Home LLC,2000 Balsam Ln,,Rockford,MN,55373,USA,6127203600,caringheartathome@gmail.com,http://www.caringheartsathome.com,60441-000,Home Health Services,9/21/2010 0:00,,False,A+,100.0,1.0,0.0,False,Micro-small,False,9/22/2022 8:56,BBB
1013,704,45000219,Radco,14336 Dellwood Dr,,Baxter,MN,56425,USA,2188291447,dluithle@radco.com,https://radco.com,50685-100,Truck accessories,11/16/1994 0:00,,True,A+,100.0,65.0,0.0,False,Small,False,10/28/2022 8:23,BBB
1014,704,1000025637,Simply Self Storage,9913 214th St W,,Lakeville,MN,55044,USA,9529851414,,https://www.simplyss.com/minnesota/lakeville-self-storage/,70610-000,Storage Units - Household & Commercial,,,False,NR,0.0,1.0,0.0,False,Micro-small,False,11/25/2022 9:02,BBB
1015,704,1000002322,Dellwood Hills Golf Club,29 Highway 96 E,,Dellwood,MN,55110,USA,6514263218,michelle@dellwoodcountryclub.com,http://www.dellwoodcountryclub.com/,60409-000,Golf Courses - Private,4/9/1974 0:00,,False,NR,0.0,1.0,0.0,False,Micro-small,False,6/29/2019 4:11,BBB
1016,704,1000002630,Lee Branding Inc,945 Broadway St Ne Ste 280,,Minneapolis,MN,55413,USA,6128438477,contact@leebranding.com,http://www.leebranding.com/,60539-100,Brand Development,11/3/2008 0:00,,False,NR,0.0,1.0,0.0,False,Micro-small,False,12/9/2022 9:20,BBB
1017,704,96016544,Pizza Plus,769 Enterprise Dr E,,Belle Plaine,MN,56011,USA,9528736504,pizza.plus@hotmail.com,http://www.lovepizzaplus.com,50544-000,Restaurants,8/15/2004 0:00,,False,A+,100.0,20.0,,False,Large,False,7/7/2021 4:58,BBB
1018,704,1000006745,Green Home Inspections,1525 6th St S,,Fargo,ND,58103,USA,7013712793,ghifargo@gmail.com,https://www.ghifargo.com/,60469-000,Home Inspection Service,11/4/2015 0:00,,False,A+,100.0,1.0,0.0,False,Micro-small,False,5/11/2022 8:37,BBB
1019,704,1000016103,"Sewing Seeds Embroidery, Uniforms and Apparel, LLC",3607 50th Ave N,,Crystal,MN,55429,USA,7635338188,,https://sewingseeds.biz/,30198-000,Embroidery,3/20/2017 0:00,,False,A+,98.55,1.0,0.0,False,Micro-small,False,8/20/2020 4:00,BBB
1020,704,96370774,Get ER Done Handy Man LLC,PO Box 52,,Watkins,MN,55389,USA,3204928264,danny@geterdonehandy.com,http://www.geterdonehandy.com,10035-000,Contractors - General,,6/23/2016 0:00,False,NR,0.0,1.0,0.0,False,Micro-small,False,8/2/2022 8:44,BBB
1021,704,96352998,Sweet Basil,9310 Zane Ave N,,Minneapolis,MN,55443,USA,7633917362,,http://www.sweetbasilcuisine.com,50544-000,Restaurants,1/1/2006 0:00,,False,A+,100.0,4.0,,False,Micro-small,False,1/16/2021 3:51,BBB
1022,704,25002005,Rayus Radiology,166 19th St S Ste 100,,Sartell,MN,56377,USA,9525428553,dnagorski@cdirad.com,https://rayusradiology.com/,61011-100,Medical Diagnostic Testing Facilities,7/5/1993 0:00,,False,A+,100.0,47.0,0.0,False,Small,False,8/31/2022 8:58,BBB
1023,704,1000003885,Soul Studio,6333 Cambridge St Ste 104,,St Louis Park,MN,55416,USA,6129862922,soulstudiomn@gmail.com,http://www.soulstudiomn.com,60946-000,Weight Control Services,1/20/2016 0:00,,False,A+,100.0,1.0,0.0,False,Micro-small,False,9/14/2022 8:40,BBB
1024,704,96568016,WSN Construction Services LLC,8257 E River Rd,,Minneapolis,MN,55432,USA,6519005639,,http://www.wsnconstructionservicesllc.com/,10024-000,Caulking Contractors,,,False,NR,0.0,1.0,0.0,False,Micro-small,False,6/5/2022 8:17,BBB
1025,704,96223854,Minnesota Steam Way,4958 County Road 8 SE,,Saint Cloud,MN,56304,USA,3202532953,,http://www.mnsteamway.com,60184-000,Carpet & Rug Cleaners,1/1/2003 0:00,,False,NR,0.0,2.0,,False,Micro-small,False,12/7/2022 9:09,BBB
1026,704,1000006683,Spark Salon,16330 County Road 30,,Osseo,MN,55311,USA,7634789800,sparksalonstyle@gmail.com,http://www.sparksalonstyle.com/,60134-000,Beauty Salons,7/18/2014 0:00,,False,A+,100.0,1.0,0.0,False,Micro-small,False,1/12/2023 8:54,BBB
1027,704,96151557,Antares Information Technology Services,8481 Jefferson Hwy,,Maple Grove,MN,55369,USA,7636570600,mdrag@antares.pro,http://www.antares.pro,60246-000,Computers - Sys Designers & Consult,1/1/2006 0:00,,False,A+,100.0,10.0,0.0,False,Micro-small,False,9/24/2022 9:02,BBB
1028,704,42000317,D. E. Construction Company,12907 Bayview Rd,,South Haven,MN,55382,USA,7632864745,deconstco@izoom.net,http://www.deconstco.com,10035-000,Contractors - General,4/1/1983 0:00,,False,A+,100.0,1.0,,False,Micro-small,False,5/26/2022 8:10,BBB
1029,704,13000650,Minnesota Computers LLC,5000 Winnetka Ave N,,Minneapolis,MN,55428,USA,7635770803,raymond@minnesotacomputers.com,http://www.minnesotacomputers.com,50173-000,Computers - Dealers,6/1/1999 0:00,,False,A+,100.0,30.0,0.0,False,Small,False,8/19/2022 8:08,BBB
1030,704,1000035995,Wells Fargo Bank Minnesota,4284 Main St,,Pequot Lakes,MN,56472,USA,2185684025,carolyn.h.roby@wellsfargo.com,http://www.wellsfargo.com,20003-000,Banks,1/1/1929 0:00,,False,NR,0.0,16600.0,0.0,False,Giant,False,6/1/2022 21:29,BBB
1031,704,96115927,Custom Window Designs LLC,136 S Broadway,,Wells,MN,56097,USA,5075533465,cwdesigns@bevcomm.net,http://www.miwd.com,50737-000,Windows,1/1/2007 0:00,,False,C+,77.0,3.0,,False,Micro-small,False,10/24/2021 3:54,BBB
1032,704,1000056549,"Truline Contracting, LLC",6016 Main St,,Rockford,MN,55373,USA,6127900539,rustin@buildwithtruline.com,https://www.buildwithtruline.com,10013-000,Building Contractors,10/10/2021 0:00,,True,A-,92.52,1.0,,False,Micro-small,False,10/13/2022 8:23,BBB
1033,704,96011632,Civil Action Group,7800 Glenroy Rd,,Minneapolis,MN,55439,USA,9528317776,,http://www.civilactiongroup.com,60509-000,Legal Services Plans,3/10/2005 0:00,,False,A+,100.0,4.0,,False,Small,False,1/14/2022 9:29,BBB
1034,704,1000020071,Dan Borland Videography LLC,929 Bridge Ave,,Albert Lea,MN,56007,USA,5073910571,danborland@hotmail.com,http://www.danborlandvideo.com/danborlandvideo.com/reviews.html,60657-000,Photographers - Commercial,4/14/2010 0:00,8/16/2021 0:00,False,NR,0.0,1.0,0.0,False,Micro-small,False,8/18/2021 5:26,BBB
1035,704,1000001309,Nathan Corder Construction LLC,381 Three Havens Dr NE,,Alexandria,MN,56308,USA,3208153692,nathan@nccmn.com,http://nccmn.com/,10035-000,Contractors - General,4/21/2009 0:00,,False,A+,100.0,1.0,0.0,False,Micro-small,False,3/24/2021 4:31,BBB
1036,704,1000018015,Wild Mind Artisan Ales,6031 Pillsbury Ave S,,Minneapolis,MN,55419,USA,6123454514,,https://www.wildmindales.com/,50544-000,Restaurants,,,False,NR,0.0,1.0,0.0,False,Micro-small,False,4/15/2022 8:42,BBB
1037,704,96115005,Jet Black,22648 172nd St NW,,Big Lake,MN,55309,USA,7638563500,,http://www.jet-black.com,85295-000,Seal Coating,4/1/2004 0:00,3/4/2021 0:00,False,NR,0.0,3.0,,False,Micro-small,False,12/21/2022 9:21,BBB
1038,704,96152558,"Schlangen's Custom Cabinets, Inc.",550 Meeker Ave E,,Eden Valley,MN,55329,USA,3204532718,sean@schlangenscabinets.com,http://www.schlangenscabinets.com,50121-000,Cabinets,6/1/1995 0:00,,False,A+,100.0,18.0,0.0,False,Small,False,5/12/2021 4:36,BBB
1039,704,96363970,Advantage Wellness,124 W Main St Ste 4,,Waconia,MN,55387,USA,9524427075,info@advantagewellness.com,http://www.advantagewellness.com,60429-200,Health & Wellness,,,False,A+,100.0,,,False,Micro-small,False,12/3/2020 4:10,BBB
1040,704,96297797,"VanStarr Interprises, LLC",PO Box 471,,River Falls,WI,54022,USA,6514898939,rick@armchaps.com,http://www.armchaps.com/,30344-000,Leather Goods - Wholesale & Manufacturers,2/2/2002 0:00,,False,NR,0.0,1.0,0.0,False,Small,False,11/23/2021 6:33,BBB
1041,704,96543767,Xebrawerx,4140 22nd Ave S,,Minneapolis,MN,55407,USA,6127199632,info@xebrawerx.com,http://xebrawerx.com,60235-300,Computer Business Services,6/1/1988 0:00,,False,A+,100.0,1.0,0.0,False,Micro-small,False,10/16/2021 4:13,BBB
1042,704,96140228,Peters Striping,2060 Howard Dr,,North Mankato,MN,56003,USA,5073278494,petersstriping@charter.net,http://www.Petersstriping.com,10097-000,Parking Area Maintenance & Marking,8/1/2001 0:00,,False,A+,100.0,1.0,,False,Micro-small,False,6/11/2022 8:13,BBB
1043,704,1000043429,B&M Painting/Cleaning,64123 Csah 18,,Darwin,MN,55324,USA,3205836210,bmpaintingcleaning@gmail.com,https://www.bmpaintingcleaning.com/,10095-000,Painting Contractors,8/31/2018 0:00,,False,A+,97.0,2.0,,False,Micro-small,False,2/3/2023 9:13,BBB
1044,704,96348163,Passages Design Build,5263 Edina Industrial Blvd,,Edina,MN,55439,USA,9529557788,,http://passagescustomhomes.com/home/,10035-000,Contractors - General,7/11/2005 0:00,3/29/2018 0:00,False,NR,0.0,2.0,,False,Micro-small,False,3/30/2021 3:56,BBB
1045,704,96017607,Sugar Point Resort,10125 Sugar Point Dr NW,,Federal Dam,MN,56641,USA,2186543150,,http://www.sugarpoint.com,60752-000,Resorts,1/1/1984 0:00,,False,A+,100.0,5.0,,False,Micro-small,False,3/10/2020 4:10,BBB
1046,704,96385584,BrightStar Care South Minneapolis Metro,4601 Excelsior Blvd,Ste 410,St Louis Park,MN,55416,USA,6124357390,jimjacob@brightstarcare.com,http://www.brightstarcare.com/burnsville-south-st-paul,85273-000,In-Home Care,4/1/2013 0:00,,False,A+,100.0,25.0,0.0,False,Small,False,10/19/2022 8:27,BBB
1047,704,96558145,Hiperfire,4255 White Bear Pkwy STE 1700,,Vadnais Heights,MN,55110,,6517622800,hiperfire10@yahoo.com,http://www.hiperfire.com/,50326-300,Firearm Manufacturer,1/19/2011 0:00,,False,A+,100.0,1.0,0.0,False,Micro-small,False,2/9/2023 9:11,BBB
1048,704,22004064,Pleading Paws Pet Rescue,PO Box 357,,Hugo,MN,55038,USA,6514070072,pppr@info.org,http://www.pppr.org,00110-000,Animal Shelters,4/20/2002 0:00,,False,A+,100.0,1.0,,False,Micro-small,False,10/22/2021 3:45,BBB
1049,704,96111758,My Green Closet LLC,640 Windemere Curv,,Minneapolis,MN,55441,USA,6123969025,info@mygreencloset.com,https://www.mygreencloset.com/,55093-000,Clothing - Retail,10/18/2006 0:00,11/12/2018 0:00,False,NR,0.0,2.0,0.0,False,Micro-small,False,11/16/2021 3:59,Email
1050,704,96050147,"Sheridan Automotive Group, Inc.",5656 Zane Ave N,,Minneapolis,MN,55429,USA,9525444097,mdsheridan@aol.com,http://www.sheridanautomotivegroup.com,60103-000,Auto Repair & Service,5/1/2006 0:00,6/1/2016 0:00,False,NR,0.0,3.0,,False,Micro-small,False,7/19/2019 4:03,BBB
1051,704,24000176,"Bock&#39;s Service, Inc.",205 Elm Ave W,,Waseca,MN,56093,USA,5078355407,bockservice@hotmail.com,http://www.bockservicemn.com/,50658-000,Tire Additives & Sealants,6/12/1995 0:00,,False,A+,100.0,3.0,,False,Small,False,12/3/2022 9:05,BBB
1052,704,96088647,"Samson Construction, Inc.",951 Mulberry Ln,,West Fargo,ND,58078,USA,7012385546,chad.samson7@gmail.com,https://www.samsoncustomhomesfargo.com/,10177-000,Construction & Remodeling Services,2/26/1991 0:00,,True,A+,100.0,4.0,0.0,False,Micro-small,False,7/8/2022 12:23,BBB
1053,704,96135283,Rahn's Oil & Propane Inc,1220 E Main St,,Melrose,MN,56352,USA,3202563680,nancy@rahnfuels.com,http://www.rahnfuels.com,50199-000,Convenience Stores,7/5/2005 0:00,,False,A+,100.0,80.0,0.0,False,Medium,False,6/17/2022 8:35,BBB
1054,704,96083406,Macalester College,1600 Grand Ave,,Saint Paul,MN,55105,USA,6516966000,,http://www.macalester.edu,60779-000,Schools - Academic - Colleges & Universities,1/1/2000 0:00,,False,A+,100.0,400.0,,False,Large,False,4/20/2022 8:35,BBB
1055,704,96091041,Synico Select LLC,1730 Plymouth Rd Ste 301,,Minnetonka,MN,55305,USA,9525441403,clemon@synico.com,https://www.synico.com/,60326-000,Employment Agencies,4/28/2008 0:00,,False,A+,100.0,1.0,0.0,False,Micro-small,False,12/17/2021 4:16,Email
1056,704,96565210,"Zachmeier Dirt Patrol, Llc",5910 Willow Rd N,,Mandan,ND,58554,USA,7014251543,,https://www.buildzoom.com/contractor/zachmeier-dirt-patrol-llc,66005-000,Hauling & Clean Up Services,12/31/2013 0:00,,False,A+,100.0,1.0,,False,Micro-small,False,2/2/2023 8:52,BBB
1057,704,1000022035,Hannah Nicole Photography,1721 Elkins Ave,,Duluth,MN,55811,USA,6512741384,HANNAHNICOLEJOHNSONPHOTOGRAPHY@GMAIL.COM,http://www.imhannahnicolephotography.com/,60655-100,Photographers,11/5/2018 0:00,,False,NR,0.0,1.0,0.0,False,Micro-small,False,11/7/2021 3:49,BBB
1058,704,96146208,TURCK Inc,3000 Campus Dr,,Minneapolis,MN,55441,USA,7635537300,,http://www.turck.us,80812-000,Industrial Manufacturers,1/1/1975 0:00,,False,A+,100.0,500.0,,False,Medium,False,7/24/2020 4:10,BBB
1059,704,96015224,Leekley&#39;s and Associates,3508 Ivy Pl,,Wayzata,MN,55391,USA,8885335539,,http://www.leekleys.com,30785-000,Wholesalers & Distributors,,8/12/2022 0:00,False,NR,0.0,1.0,,False,Micro-small,False,8/13/2022 8:18,BBB
1060,704,96551823,Freightways Corporation,PO Box 1073,,Anoka,MN,55303,USA,6516389980,,http://freightwayscorp.com,70538-000,Containerized Freight Service,,,False,A+,100.0,1.0,0.0,False,Small,False,3/30/2022 9:07,BBB
1061,704,1000044639,"Minnesota&#39;s Best Exteriors, LLC",20980 Lynn Dr,,Prior Lake,MN,55372,USA,6122489417,joebirddog@aol.com,http://mn-best.com,10035-000,Contractors - General,5/18/2020 0:00,,True,A,95.37,1.0,,False,Micro-small,False,1/6/2023 9:13,BBB
1062,704,96022374,Sammy's Pizza & Restaurant,106 E Howard St,,Hibbing,MN,55746,USA,2182637574,,http://www.sammyspizzas.com,50502-000,Pizza ,1/1/1984 0:00,,False,A+,100.0,45.0,0.0,False,Small,False,1/23/2022 9:52,BBB
1063,704,96169246,Warner Law Offices,5774 Blackshire Path,,Inver Grove Heights,MN,55076,USA,6514550444,,http://www.warnerlawoffice.com,60075-000,Attorneys & Lawyers,1/1/1987 0:00,,False,A+,100.0,2.0,,False,Micro-small,False,12/15/2021 4:24,BBB
1064,704,96386461,Arabella Stone,,,,,,,,daniel@arabellastone.com,http://www.arabellastone.com,80699-000,Stone - Natural,8/20/2013 0:00,,False,NR,0.0,1.0,0.0,False,Micro-small,False,1/20/2022 9:52,BBB
1065,704,96384717,"Stevens Law, PLLC",7760 France Ave S Ste 1160,,Bloomington,MN,55435,USA,9528867418,scott@stevenslawpllc.com,http://www.stevenslawpllc.com/,60075-121,Attorneys & Lawyers - Estate Planning,12/11/2006 0:00,,False,A+,100.0,1.0,0.0,False,Micro-small,False,10/16/2021 4:13,BBB
1066,704,1000017424,Zunker Production Services LLC,17456 Evener Way,,Eden Prairie,MN,55346,USA,6128014525,dzunker@zunkerproductionservices.com,http://www.zunkerproductionservices.com/photo-gallery.html,60093-000,Audio-Visual Production Services,7/10/2012 0:00,,False,A+,100.0,1.0,0.0,False,Micro-small,False,1/11/2023 9:00,BBB
1067,704,96120912,A Little Help Inc,10841 Little Ave S,,Minneapolis,MN,55437,USA,9528875043,kathy@alittlehelpinc.com,http://www.alittlehelpinc.com,60792-000,Senior Citizens Service Organization,1/1/2006 0:00,,False,A+,100.0,2.0,0.0,False,Micro-small,False,8/25/2022 8:35,BBB
1068,704,96352969,Mark's Professional Painting,3136 Utah Ave S,,Saint Louis Park,MN,55426,USA,9524545060,,http://www.markspaintingonline.com,10095-000,Painting Contractors,1/1/2009 0:00,3/5/2018 0:00,False,NR,0.0,1.0,,False,Micro-small,False,3/19/2021 3:54,BBB
1069,704,96091061,"Financial Asset Management Systems, Inc.",1967 Lakeside Pkwy,Ste 400,Tucker,GA,30084,USA,6789375100,,http://www.fams.net,60226-000,Collection Agencies,4/28/2008 0:00,,False,NR,0.0,10.0,,False,Small,False,9/20/2016 4:28,BBB
1070,704,1000011238,"Brys Guide Service, LLC",4399 88th Ave NE,,Devils Lake,ND,58301,USA,7017390161,brysguideservice@gmail.com,http://www.brysguideservice.com,60415-000,Guide Service,3/26/2010 0:00,,False,A+,100.0,1.0,0.0,False,Micro-small,False,4/15/2017 3:58,BBB
1071,704,96377567,LS Masonry,,,,,,,,,http://www.lsmasonry.com,10089-000,Mason Contractors,1/29/2013 0:00,,False,NR,0.0,1.0,0.0,False,Micro-small,False,10/1/2021 4:12,BBB
1072,704,96235741,Beito Plumbing & Heating,Po Box 206,,Roseau,MN,56751,USA,2186810665,beito@beitoplumbingandheating.com,http://www.beitoplumbingandheating.com/,10003-000,Air Conditioning Contractors & Systems,12/29/2005 0:00,3/4/2016 0:00,False,NR,0.0,1.0,,False,Micro-small,False,2/3/2022 9:57,BBB
1073,704,17797,Sterling Inc,278 W Market,,Bloomington,MN,55425,USA,2166685000,,http://www.jared.com,50367-000,Jewelers - Retail,1/10/1945 0:00,,False,NR,0.0,1.0,,False,Micro-small,False,8/9/2022 8:28,BBB
1074,704,96101232,Shuttering Memories Photograpy,PO Box 357,33936 Gleason Ave,Jenkins,MN,56456,USA,2188312315,lacey@shutteringmemories.com,http://shutteringmemories.com/index.cfm/pageid/1,60657-000,Photographers - Commercial,8/7/2008 0:00,,False,NR,0.0,1.0,0.0,False,Micro-small,False,1/9/2022 9:15,BBB
1075,704,96063012,"Professional Office Services, Inc.",355 6th Ave N # 2,,Waite Park,MN,56387,USA,3202558937,sgilloley@poscorp.com,http://www.poscorp.com,30531-000,Printers,8/15/1989 0:00,,False,A+,100.0,5.0,,False,Micro-small,False,7/28/2021 4:40,BBB
1076,704,96029138,Thai Delight,610 Selby Ave,,Saint Paul,MN,55102,USA,6516650078,khottavo@augsburg.edu,https://www.augsburg.edu/,50544-000,Restaurants,,,False,A+,100.0,1.0,,False,Micro-small,False,8/18/2021 5:25,Email
1077,704,96001338,The Depot,225 3rd Ave S,,Minneapolis,MN,55401,USA,6123751700,,http://www.thedepotminneapolis.com,60447-000,Hotels,,,False,NR,0.0,1.0,,False,Micro-small,False,6/1/2022 21:23,BBB
1078,704,96010371,Music Works Inc.,PO Box 787,,Forest Lake,MN,55025,USA,6514647757,admin@themusicworks.com,http://www.themusicworks.com,60345-000,Entertainment Bureaus,3/17/1987 0:00,,False,A+,100.0,3.0,0.0,False,Small,False,9/10/2022 8:38,BBB
1079,704,1000038514,Juris Plesums LLC,3140 Oakland Ave,,Minneapolis,MN,55407,USA,6122393132,jurisbuilder@gmail.com,http://www.jurisplenums.com,10035-000,Contractors - General,8/29/2012 0:00,,False,A+,100.0,1.0,0.0,False,Micro-small,False,11/13/2021 3:59,BBB
1080,704,1000059446,Genesis Outdoor and Construction Services LLC,PO Box 4393,,Mankato,MN,56001,USA,5074912718,,https://www.vargas-genesislandscaping.com/,10035-010,Residential General Contractor,12/31/2021 0:00,,False,A-,92.38,1.0,,False,Micro-small,False,12/13/2022 9:03,BBB
1081,704,3001058,Trattles Irrigation,14006 Woodridge Path,,Savage,MN,55378,USA,9524451774,,http://www.trattlesirrigation.com,50782-000,Lawn & Garden Sprinkler Systems,1/1/1992 0:00,,False,A+,100.0,2.0,,False,Micro-small,False,4/28/2022 8:17,BBB
1082,704,1000024279,Day Block Brewery,1105 Washington Ave S,,Minneapolis,MN,55415,USA,6126177793,,https://www.dayblockbrewing.com/,30060-000,Brewers,5/4/2013 0:00,,False,NR,0.0,1.0,0.0,False,Micro-small,False,11/26/2022 8:48,BBB
1083,704,96538099,"Automotive Parts Solutions, Inc.",1495 Broadway St W,,Rockville,MN,56369,USA,3206855557,carpart@automotiveps.com,http://automotiveps.com,80041-000,Auto Parts & Supplies - Used & Rebuilt,,,False,A+,97.0,1.0,,False,Micro-small,False,2/8/2022 9:24,BBB
1084,704,96364202,Maplewood Nails,1275 County Road D Cir E # 104,,Saint Paul,MN,55109,USA,6514834065,jasonha30@gmail.com,http://www.maplewoodnails.com,60603-000,Nail Salons,4/2/2012 0:00,,False,A+,100.0,2.0,,False,Small,False,12/3/2020 4:10,BBB
1085,704,1000006723,Bar Harbor,8164 Interlachen Rd,,Lake Shore,MN,56468,USA,2189632568,,https://www.barharborsupperclub.com/,50544-000,Restaurants,11/12/2003 0:00,,False,A+,100.0,1.0,0.0,False,Micro-small,False,11/11/2021 4:02,BBB
1086,704,6001362,Hanks Hauser,PO Box 1541,,Saint Cloud,MN,56302,USA,3209805679,hg@hankshauser.com,http://www.hankshauser.com,80807-000,Sauna Equipment & Supplies,10/31/1981 0:00,,False,A+,100.0,1.0,,False,Micro-small,False,1/27/2022 9:27,BBB
1087,704,96116956,Gold Meadows Hunting Preserve,18506 260th St,,Richmond,MN,56368,USA,3205972747,goldmeadows@meltel.net,http://www.goldmeadows.com,00151-000,Hunting & Fishing Services & Supplies,3/23/2009 0:00,,False,A+,100.0,1.0,,False,Micro-small,False,2/4/2021 4:07,BBB
1088,704,41002297,Prairie Rose Construction Supl,2123 E Front Ave,,Bismarck,ND,58504,USA,7012552420,matt.neibauer@prairiesupply.com,https://www.prairiesupply.com/,50110-000,Building Materials,4/10/2001 0:00,,False,A+,100.0,8.0,,False,Small,False,6/23/2021 4:54,Email
1089,704,15002513,University Sports Publications,,,,,,,,,http://www.universitysports.com,60801-000,Shoppers News Publications,7/19/2001 0:00,,False,NR,0.0,10.0,0.0,False,Small,False,8/6/2022 8:21,BBB
1090,704,96380161,Fantastic Sam's,3453 Lake Dr,,Blaine,MN,55014,USA,7637869180,hmoon@FantasticSams.com,http://minnesota.fantasticsams.com/MN-16/blaine-lake-dr-barber-shops-and-haircut-salons.aspx,60134-000,Beauty Salons,3/30/2012 0:00,,False,A+,100.0,1.0,0.0,False,Micro-small,False,9/11/2021 4:04,BBB
1091,704,96099022,Hilton Garden Inn Minneapolis Maple Grove,6350 Vinewood Ln N,,Osseo,MN,55311,USA,7635099500,michael.severson@ncghotels.com,https://www.ncghotels.com/,60447-000,Hotels,4/3/2003 0:00,,False,NR,0.0,40.0,,False,Small,False,6/1/2022 21:24,Email
1092,704,96000589,Small Business America,442 Hayward Ave N,,Oakdale,MN,55128,USA,6516493575,jim@coremarkinc.com,http://www.sba.longdistancegroup.com,70620-000,Telephone Service - Long Distance,1/1/2002 0:00,,False,A+,100.0,1.0,,False,Micro-small,False,7/20/2022 9:10,BBB
1093,704,96308492,"A-1 Computer, Copier Printer Sales and Service",1730 University Ave W,,Saint Paul,MN,55104,USA,6516441284,rich0412@msn.com,http://www.a1computermn.com/,50173-100,Computer Printers Sales & Service,4/27/2009 0:00,,False,A+,100.0,1.0,0.0,False,Micro-small,False,3/22/2022 8:36,BBB
1094,704,96088478,ShadeMaker Flooring Sales and Supply,855 Village Center Dr # 334,,North Oaks,MN,55127,USA,6516313311,jerry@shademakerflooring.com,http://www.shademakerflooring.com,50133-000,Carpet & Rug Dealers - New,12/28/2006 0:00,2/6/2012 0:00,False,NR,0.0,3.0,,False,Micro-small,False,10/28/2019 4:08,BBB
1095,704,96569382,"Great Lakes Stone Supply, Inc.",4915 Rice Lake Rd,,Duluth,MN,55803,USA,2185256360,office@greatlakesstone.com,http://www.greatlakesstone.com,80699-000,Stone - Natural,9/1/2003 0:00,,True,A+,100.0,8.0,,False,Small,False,1/4/2023 9:05,BBB
1096,704,1830,Heppner&#39;s Auto Body,624 Commons Dr,,Woodbury,MN,55125,USA,6517141471,laura.jacobson@heppnersautobody.com,http://www.heppnersautobody.com,60094-000,Auto Body Repair & Painting,1/1/1956 0:00,,True,A+,100.0,85.0,0.0,False,Small,False,12/20/2022 8:56,BBB
1097,704,1000044631,Hey Guys Delivery Service,PO BOX 1242,,Maple Grove,MN,55369,USA,7632039635,deliveryservice612@gmail.com,https://deliveryservice612.wixsite.com/heyguysdelivery,70542-000,Delivery Service,1/4/2020 0:00,,False,A+,97.0,1.0,,False,Micro-small,False,10/22/2022 8:10,BBB
1098,704,96548513,Metro Payroll,,,,,,,,hilary@metropayroll.com,http://www.metropayroll.com,60647-000,Payroll Service,5/14/2014 0:00,,False,NR,0.0,,0.0,False,Micro-small,False,3/24/2021 4:32,BBB
1099,704,1000051322,"Bilingual Child Care & Education Center, Inc.",1125 County Road B W,,Roseville,MN,55113,USA,6516442405,leah@bilingualchildcare.com,https://www.bilingualchildcare.com/,55541-000,Child Care Services,1/1/2010 0:00,,False,A+,100.0,35.0,,False,Micro-small,False,1/10/2023 8:49,BBB
1100,704,96295877,Planet Fitness,8026 Brooklyn Blvd,,Brooklyn Park,MN,55445,USA,7634244447,hr@pfbaseline.com,http://www.planetfitness.com,60430-100,Fitness Centers,6/28/2007 0:00,,False,A-,91.0,3.0,,False,Small,False,12/24/2022 8:49,BBB
1101,704,96088705,Lakeland Printers,PO Box 44,,Isle,MN,56342,USA,3206763167,lakeprint@scicable.com,http://www.lakelandink.com,30531-000,Printers,1/1/1948 0:00,,False,A+,100.0,3.0,,False,Micro-small,False,10/26/2022 8:41,BBB
1102,704,96381569,Brothers Custom Granite LLC,1550 91st Ave NE Ste 107,,Minneapolis,MN,55449,USA,7637857933,jim@brotherscustomgranite.com,http://www.brotherscustomgranite.com,30276-000,Granite,1/1/2011 0:00,2/5/2016 0:00,False,NR,0.0,2.0,,False,Micro-small,False,2/11/2019 4:00,BBB
1103,704,96235336,Glamorous Reruns,402 3rd St NW,,East Grand Forks,MN,56721,USA,2183990154,glamorousrerunsconsignment@integra.net,https://www.integra.net/,50740-000,Womens Apparel - Retail,5/1/2007 0:00,,False,A+,100.0,1.0,,False,Micro-small,False,6/13/2020 4:00,Email
1104,704,96147957,K& B Small Engine Repair,9651 152nd Ave NE,,Forest Lake,MN,55025,USA,6514643280,kandbsmengrpr@hotmail.com,http://www.kbsmallengine.com,85340-000,Small Engine Repair,1/1/1999 0:00,,False,A+,100.0,2.0,,False,Micro-small,False,10/19/2022 8:27,BBB
1105,704,96102620,"4G Electric, Inc.",13500 27th St SE,,Minot,ND,58701,USA,7018396248,,https://www.facebook.com/pages/category/Electrician/4G-Electric-LLC-103147427964967/,10049-000,Electricians,11/17/2006 0:00,,False,NR,0.0,18.0,,False,Micro-small,False,1/31/2023 8:46,BBB
1106,704,96569763,Sports Clips,3100 Excelsior Blvd STE 103,,Saint Louis Park,MN,55416,USA,6122238260,,http://haircutmenlakecalhounminneapolismn.com,60420-000,Hair Styling and Services,6/2/2015 0:00,,False,NR,0.0,1.0,0.0,False,Micro-small,False,12/15/2021 4:25,BBB
1107,704,96238851,Slashblue LLC,1200 Red Fox Rd Ste B,,Arden Hills,MN,55112,USA,6516442190,dsanny@slashblue.com,http://slashblue.com/,85272-000,Information Technology Services,8/30/2010 0:00,,False,A+,100.0,2.0,,False,Micro-small,False,7/13/2021 4:14,BBB
1108,704,1000035335,Associated Bank,9050 Buchanon Trl,,Inver Grove Heights,MN,55076,USA,6123594434,chris.niles@associatedbank.com,http://www.associatedbank.com,20003-100,Banking Services,1861-12-31 00:00:00,6/28/2021 0:00,False,NR,0.0,4400.0,0.0,False,Giant,False,6/1/2022 21:28,BBB
1109,704,96385434,Swanky Sweet Pea,344 3rd St,,International Falls,MN,56649,USA,2533891211,swankysweetpea@live.com,http://www.swankysweetpea.com,80075-100,Body Care Products,8/30/2011 0:00,,False,A+,100.0,5.0,0.0,False,Small,False,1/28/2021 4:09,BBB
1110,704,1000052364,No Boundaries Gymnastics Club LLC,2300 Main St Ste 200,,Lino Lakes,MN,55038,USA,6514642961,nbgcgymnastics@gmail.com,https://www.gomotionapp.com/team/mnnbg/page/home,60419-000,Gymnastic Instruction,10/29/2018 0:00,,False,A+,98.54,1.0,,False,Micro-small,False,3/30/2022 9:08,BBB
1111,704,96116210,Belissimo Salon and Day Spa LLC,6939 Pine Arbor Dr S,,Cottage Grove,MN,55016,USA,6517680828,info@belissimosalonspa.net,http://www.belissimosalonspa.net,60134-000,Beauty Salons,1/1/2008 0:00,,False,A+,100.0,15.0,,False,Micro-small,False,8/11/2021 4:45,BBB
1112,704,25001497,MCI Paint and Drywall Inc,12701 Chowen Ave S Ste 101,,Burnsville,MN,55337,USA,9529857778,scottj@mcidrywall.com,http://www.mcidrywall.com,10046-000,Drywall Contractors,12/30/1988 0:00,,False,A+,100.0,30.0,0.0,False,Small,False,9/15/2022 8:34,BBB
1113,704,1000025472,Renovado Design,1358 18th St W,,Hastings,MN,55033,USA,6125484006,daniel@renovadodesign.com,https://www.renovadodesign.com,10013-000,Building Contractors,7/30/2013 0:00,,False,NR,0.0,1.0,0.0,False,Micro-small,False,12/21/2022 9:22,BBB
1114,704,50002227,Crystal Welding Inc,17601 113th Ave N,,Maple Grove,MN,55369,USA,7634288281,mlabrosse@crystalwelding.com,http://crystalwelding.com,30242-000,Foundries,4/1/1968 0:00,,False,A+,100.0,11.0,,False,Small,False,12/29/2022 9:05,BBB
1115,704,96110128,Proto Labs Inc,5540 Pioneer Creek Dr,,Maple Plain,MN,55359,USA,7634793680,jodi.eggert@protolabs.com,http://www.protolabs.com,30502-000,Plastics - Products - Finished Wholesale & Manufacturers,5/5/1999 0:00,,False,A+,100.0,1.0,0.0,False,Large,False,11/23/2021 6:33,BBB
1116,704,96038983,J & J Enterprises Drywall Inc,21367 Heywood Ave,,Lakeville,MN,55044,USA,9524693120,joe@jjentdrywall.com,http://www.jjentdrywall.com/Index.html,85312-000,Contractor - General Green Builder,3/31/1988 0:00,,False,A+,100.0,10.0,0.0,False,Micro-small,False,6/22/2022 11:33,BBB
1117,704,96506445,Dynamic Cabinet Design,1840 Revere Dr,,Bismarck,ND,58501,USA,7017512945,mary@dynamiccabinetdesign.com,http://www.dynamiccabinetdesign.com/,50373-000,Kitchen Cabinets & Equipment - Household,2/6/2014 0:00,,False,A+,100.0,1.0,0.0,False,Micro-small,False,7/28/2022 8:42,BBB
1118,704,96367719,Baymont Inn & Suites,PO Box 4247,,Mankato,MN,56002,USA,5073885107,qualityinn413@gmail.com,http://www.comfortinn.com/bestrate/mankato-minnesota-hotel,60447-000,Hotels,1/1/1988 0:00,,False,A+,100.0,15.0,,False,Micro-small,False,7/23/2022 8:44,BBB
1119,704,96026202,Ohio National Financial Services,2401 Pilot Knob Rd Ste 134,,Mendota Heights,MN,55120,USA,6517317910,bradstruve@msn.com,http://www.ohionational.com,20019-000,Insurance Companies,1/1/1971 0:00,,False,A+,100.0,1.0,,False,Micro-small,False,12/14/2022 9:35,BBB
1120,704,1000006415,Compassionate Counseling Services LLC,505 State St S Ste 4,,Waseca,MN,56093,USA,5073101321,Michelle@compassionmn.com,http://www.compassionmn.com,60540-000,"Marriage, Family, Child, Individual Counselors",2/3/2011 0:00,,False,A+,100.0,1.0,0.0,False,Micro-small,False,10/6/2022 8:21,BBB
1121,704,1000004422,Kari Lee&#39;s Specialities,PO Box 24687,,Minneapolis,MN,55424,USA,9529352014,info@karilees.com,http://karilees.com,60974-000,Internet Shopping,1/1/1993 0:00,,False,A+,100.0,1.0,0.0,False,Micro-small,False,1/25/2023 9:00,BBB
1122,704,96106645,Integra Telecom,2150 32nd Ave S Ste H,,Grand Forks,ND,58201,USA,7017384600,mncare@integratelecom.com,http://www.integratelecom.com,70618-000,Telephone Communications,1/1/1945 0:00,,False,NR,0.0,500.0,,False,Small,False,10/29/2019 4:14,BBB
1123,704,1000018301,Microtel Inn & Suites,414 37th Ave SW,,Minot,ND,58701,USA,7018392200,mmichalenko@ganglhospitality.com,https://www.ganglhospitality.com/,60447-000,Hotels,5/25/2018 0:00,,False,A+,97.0,1.0,0.0,False,Micro-small,False,5/25/2022 8:47,Email
1124,704,96178225,Beatrice Davis & Assoc,PO Box 581068,,Minneapolis,MN,55458,USA,6123370178,PWelch@Beatricedavid.com,https://www.Beatricedavid.com/,60005-000,Accountants,1/1/1997 0:00,,False,NR,0.0,4.0,,False,Micro-small,False,12/28/2022 9:14,Email
1125,704,96004843,Invisible Fence of the St Croix Valley,2190 Eagle Creek Lane,Suite G,Saint Paul,MN,55125,USA,8007725003,slamrca@comcast.net,http://www.Invisiblefence.com,50486-000,Pet Supplies & Foods - Retail,1/1/1973 0:00,,False,NR,0.0,4.0,,False,Micro-small,False,8/13/2022 8:18,BBB
1126,704,96544637,Elite Properties,1729 Main St S,,Minot,ND,58701,USA,7017215650,,http://www.eliterealestatend.com/,60729-102,Real Estate Agents,4/30/2014 0:00,,False,A+,100.0,1.0,0.0,False,Micro-small,False,12/13/2022 9:03,Search
1127,704,96545043,B K Small Engine-Marine Repair,1203 S Sibley Ave,,Litchfield,MN,55355,USA,3202968502,,https://www.manta.com/c/mtr9xdh/bk-small-engine-marine-repair,60103-000,Auto Repair & Service,1/1/2013 0:00,,False,NR,0.0,1.0,0.0,False,Micro-small,False,6/22/2022 11:34,Search
1128,704,96543892,Johnson Micro Resource,17635 Upper Spunk Lake Rd,,Avon,MN,56310,USA,3203567221,,https://www.dnb.com/business-directory/company-profiles.johnson_micro_resource.ac8d509dfcc8575e39283e0348f1e018.html,50173-000,Computers - Dealers,4/30/2014 0:00,,False,NR,0.0,1.0,0.0,False,Micro-small,False,4/28/2022 8:18,Search
1129,704,96544289,Timothy Hoeben Agency Inc,124 Lewis St S,,Shakopee,MN,55379,USA,9527464646,,https://www.linkedin.com/in/timhoeben,20080-000,Insurance Services,,,False,A+,100.0,,,False,Micro-small,False,7/3/2020 4:12,Search
1130,704,96543986,Northern Eagle Inc,2010 Parkside St,,Cologne,MN,55322,USA,9524662775,,http://www.northerneagle.beer/,20080-000,Insurance Services,,,False,A+,100.0,,,False,Micro-small,False,7/9/2020 4:10,Search
1131,704,96544564,Tables Plus,2331 Kennedy Dr,,Faribault,MN,55021,USA,6122843857,,http://www.tablesplusmn.com/,60747-000,Rental Service Stores & Yards,4/30/2014 0:00,,False,A+,100.0,1.0,0.0,False,Micro-small,False,3/25/2022 8:41,Search
1132,704,96544265,Ri1,11304 University Ave NE,,Minneapolis,MN,55414,USA,6123316674,,https://www.indeed.com/cmp/R1-Rcm/reviews?fcountry=US&floc=Minneapolis%2C+MN,80450-000,Lumber - Wholesale,4/30/2014 0:00,1/1/2019 0:00,False,NR,0.0,1.0,0.0,False,Micro-small,False,1/7/2022 14:13,Search
1133,704,96544688,Triangle Ag Llc,320 1st St SW,,Ulen,MN,56585,USA,2185968830,,https://www.dnb.com/business-directory/company-profiles.triangle_ag_llc.0697c6cd81e1180eed6c6384fcbeb62e.html,50254-000,Fertilizers,4/30/2014 0:00,,False,NR,0.0,1.0,0.0,False,Micro-small,False,4/26/2022 8:19,Search
1134,704,96545274,Blue House,110 Highway 32 N,,Hitterdal,MN,56552,USA,2185968573,,https://www.showmelocal.com/profile.aspx?bid=1136572,30062-000,Food & Beverage Services,4/30/2014 0:00,,False,NR,0.0,1.0,0.0,False,Micro-small,False,3/2/2022 10:32,Search
1135,704,96543942,Lucky Dog Distributing,1605 W Wayzata Blvd,,Long Lake,MN,55356,USA,,,https://www.yellowpages.com/long-lake-mn/mip/lucky-dog-distributing-473995287,80010-000,Advertising Specialties,12/16/2010 0:00,8/14/2018 0:00,False,NR,0.0,,0.0,False,Micro-small,False,3/14/2019 4:11,Search
1136,704,96544557,Technical Innovations Corp,15487 209th Ave NW,,Elk River,MN,55330,USA,7632635770,,https://www.technicalinnovationscorp.com/,85320-000,Computer Consultant,4/30/2014 0:00,,False,A+,100.0,1.0,0.0,False,Micro-small,False,1/28/2022 9:32,Search
1137,704,96544788,Key Time Locksmiths,652 Snelling Ave S,,Saint Paul,MN,55116,USA,6513044148,,http://www.katkeys.com/,60522-000,Locks & Locksmiths,,1/3/2018 0:00,False,NR,0.0,,,False,Micro-small,False,1/5/2021 3:58,Search
1138,704,96545030,American Family Ins-Agents,2125 2nd St,,Saint Paul,MN,55110,USA,6514266638,,https://www.amfam.com/agents/minnesota/saint-paul/andre-johnson,20080-000,Insurance Services,4/30/2014 0:00,,False,A+,100.0,1.0,0.0,False,Micro-small,False,3/6/2022 9:22,Search
1139,704,96544090,Innovo Benefits Adm & Mktng,8220 Commonwealth Dr Ste 150,,Eden Prairie,MN,55344,USA,9527463101,,https://www.innovomn.com/,20080-000,Insurance Services,,,False,A+,100.0,,,False,Micro-small,False,7/8/2020 4:45,Search
1140,704,96544843,McShane Development Company,5713 Deville Dr # 100,,Edina,MN,55436,USA,9529261640,,https://mcshanedevelopment.com/,60729-102,Real Estate Agents,4/30/2014 0:00,3/27/2018 0:00,False,NR,0.0,,0.0,False,Micro-small,False,3/30/2021 3:56,Search
1141,704,96543914,Madeline J Newell,3520 Penn Ave N Apt 7,,Minneapolis,MN,55412,USA,6125229577,,https://www.startribune.com/obituaries/detail/0000257824/,60172-100,Coaching - Business,4/30/2014 0:00,,False,A+,100.0,1.0,0.0,False,Micro-small,False,1/23/2022 9:52,Search
1142,704,96544003,Nail & Jewelry,10503 165th St W,,Lakeville,MN,55044,USA,9522558339,,https://www.yellowpages.com/lakeville-mn/mip/nail-jewelry-460821524,60134-000,Beauty Salons,4/30/2014 0:00,,False,NR,0.0,,0.0,False,Micro-small,False,3/27/2021 4:08,Search
1143,704,96543901,International Gei Dome,13409 Fernando Ave,,Saint Paul,MN,55124,USA,9524321031,,https://www.yellowpages.com/saint-paul-mn/mip/international-gei-dome-25743593,20061-000,Real Estate Developers,,,False,NR,0.0,1.0,,False,Micro-small,False,6/7/2022 8:10,Search
1144,704,96544360,Uncle Dave's,813 Main Ave W,,West Fargo,ND,58078,USA,7015667330,,http://www.famousdaves.com/fargo,50544-000,Restaurants,4/30/2014 0:00,,False,NR,0.0,,0.0,False,Micro-small,False,8/6/2021 4:09,Search
1145,704,96544993,Ark Cleaning,912 15 1/2 Ave SE,,Minot,ND,58701,USA,7018374950,,https://www.101apartmentforrent.com/cleaning-services/listing_65cba01c50431d92a4269f0d0715218f.html,60478-000,Janitor Service,3/29/2013 0:00,,False,NR,0.0,,0.0,False,Micro-small,False,2/21/2021 3:57,Search
1146,704,96544071,Quick Fix Cooling Aaron,8924 Fremont Ave S,,Minneapolis,MN,55420,USA,9524678559,,https://www.showmelocal.com/profile.aspx?bid=16365370,10113-000,Plumbers,,,False,A+,100.0,,,False,Micro-small,False,8/11/2021 4:45,Search
1147,704,96544178,Lake Minnetonka Puzzles,1126 Ashland Ave,,Saint Paul,MN,55104,USA,6512250828,,https://www.dnb.com/business-directory/company-profiles.lake_minnetonka_puzzles.01a500a39135b90dc579c7f82a0be4e7.html,50295-000,Games & Supplies,12/29/2006 0:00,,False,A+,100.0,1.0,0.0,False,Micro-small,False,10/18/2021 3:53,Search
1148,704,96544778,M B Siding Supply,1310 154th Ave NE,,Ham Lake,MN,55304,USA,7634132646,,https://www.cylex.us.com/company/m-b-siding-supply-3846233.html,80450-000,Lumber - Wholesale,6/10/1997 0:00,,False,NR,0.0,1.0,0.0,False,Micro-small,False,7/8/2022 12:27,Search
1149,704,96544318,Grains For Health,6311 Wayzata Blvd Ste 240,,Minneapolis,MN,55416,USA,9525009012,,https://www.grainsforhealth.org/,60971-000,Health & Medical - General,4/30/2014 0:00,,False,NR,0.0,,0.0,False,Micro-small,False,3/13/2021 4:08,Search
1150,704,96544892,Match Cut Productions Ltd,1229 Tyler St NE Ste 110,,Minneapolis,MN,55413,USA,6123547933,,http://www.matchcut.tv/,60134-000,Beauty Salons,4/30/2014 0:00,,False,A+,100.0,1.0,0.0,False,Micro-small,False,10/6/2021 4:13,Search
1151,704,96545201,Aurum Audio,1525 6th Ave N,,Long Lake,MN,55356,USA,9524490101,,https://www.yellowpages.com/long-lake-mn/mip/aurum-audio-473277845,50651-000,Television & Radio - Dealers,7/31/2006 0:00,,False,NR,0.0,1.0,0.0,False,Micro-small,False,9/27/2022 8:58,Search
1152,704,96544738,Interior Expressions,2308 7th Ave NW,,Minot,ND,58703,USA,7018387585,,https://www.yellowpages.com/minot-nd/mip/interior-expressions-475903400,60470-000,Interior Decorators & Designers,4/30/2014 0:00,,False,NR,0.0,,0.0,False,Micro-small,False,3/16/2021 4:00,Search
1153,704,96544472,Larrys Lawn Service Plus,25296 628th Ave,,Litchfield,MN,55355,USA,3205937835,,https://www.facebook.com/people/Larrys-Lawn-Service-Plus/100054636571841/,00155-000,Landscape Contractors,5/28/2008 0:00,,False,A+,100.0,1.0,0.0,False,Micro-small,False,3/30/2022 9:07,Search
1154,704,96544151,J K T Properties Inc,12450 Wayzata Blvd,,Hopkins,MN,55305,USA,9525443298,,https://www.manta.com/c/mbshkb4/j-k-t-properties-inc,60729-102,Real Estate Agents,4/30/2014 0:00,,False,NR,0.0,,0.0,False,Micro-small,False,3/17/2021 4:44,Search
1155,704,96544282,Tate & Lyle,110 Spring St,,Duluth,MN,55808,USA,2186283637,,https://www.tateandlyle.com/,30062-000,Food & Beverage Services,4/30/2014 0:00,,False,A+,100.0,1.0,0.0,False,Micro-small,False,1/28/2022 9:32,Search
1156,704,96544589,Twins Home Health Care,2533 24th Ave S,,Minneapolis,MN,55406,USA,6124650408,,https://www.minnesotahelp.info/Providers/Twins_Home_Health_Care_Inc/Individualized_Home_Supports_IHS/1?returnUrl=%2FSearch%2FTopics%2FPH-0500%2FAttendant_Services_for_People_With_Disabilities%3Fgeo%3D44.9759%252c-93.2166%26loc%3DMinneapolis%252c%2BMN%26num%3D100%26o%3Drelevance-desc%26start%3D101&pos=126,60441-000,Home Health Services,,,False,A+,100.0,1.0,,False,Micro-small,False,12/22/2022 9:08,Search
1157,704,96544503,St Anthony Main Massage & Health,212 2nd St SE Ste 124,,Minneapolis,MN,55414,USA,6127032407,,https://www.wellnessliving.com/medicinetraditional/minneapolis/st_anthony_main_massage__health_works/review/?id_mode=12,60543-000,Massage Therapists,,,False,NR,0.0,1.0,,False,Micro-small,False,8/9/2022 8:29,Search
1158,704,96544172,Kleven Properties,11431 W River Hills Dr,,Burnsville,MN,55337,USA,9528900110,,https://www.buzzfile.com/business/Kleven!s-Properties-952-890-0110,60729-102,Real Estate Agents,,,False,NR,0.0,1.0,,False,Micro-small,False,6/3/2022 9:03,Search
1159,704,96544884,J & J Games,209 12th Ave E,,West Fargo,ND,58078,USA,7012779119,,https://www.manta.com/c/mmsd92r/j-j-games,60235-000,"Computers Hardware, Software & Services",,,False,A+,100.0,1.0,,False,Micro-small,False,11/2/2021 3:51,Search
1160,704,96543893,Jps Photography Inc,2010 Hennepin Ave,,Minneapolis,MN,55405,USA,6123313532,,https://www.jppaulusphotography.com/new-page,60657-000,Photographers - Commercial,4/30/2014 0:00,,False,A+,100.0,1.0,0.0,False,Micro-small,False,3/16/2022 8:53,Search
1161,704,96544167,Jaad James Arneson Art,2034 25th St SE,,Rochester,MN,55904,USA,5076961198,,https://www.dnb.com/business-directory/company-profiles.jaad_james_arneson_art.c197ac70ea3e227ef6e4ad93c09bf93e.html,60065-000,Artists - Commercial,1/29/2008 0:00,,False,A+,100.0,1.0,0.0,False,Micro-small,False,7/4/2021 4:09,Search
1162,704,96545177,Belleweather Boutique,3404 Lyndale Ave S,,Minneapolis,MN,55408,USA,6128252909,,http://www.shopbelleweather.com/,50740-000,Womens Apparel - Retail,4/30/2014 0:00,,False,NR,0.0,1.0,0.0,False,Micro-small,False,10/9/2022 8:05,Search
1163,704,96545249,"Brandenburg, Jim",1715 Meadowoods Trl,,Long Lake,MN,55356,USA,9524753025,,https://www.yellowpages.com/long-lake-mn/mip/brandenburg-jim-526786966,60657-000,Photographers - Commercial,4/30/2014 0:00,3/6/2017 0:00,False,NR,0.0,,0.0,False,Micro-small,False,3/9/2020 4:24,Search
1164,704,96544101,S F I Interiors,2222 7th Ave N,,Fargo,ND,58102,USA,7014784744,,https://www.yellowpages.com/fargo-nd/mip/s-f-i-interiors-478983713,60470-000,Interior Decorators & Designers,,1/1/2019 0:00,False,NR,0.0,1.0,,False,Micro-small,False,1/7/2022 14:13,Search
1165,704,96544315,Gd Properties of Waite Park,2704 County Road 137,,Waite Park,MN,56387,USA,3202513897,,https://opencorporates.com/companies/us_mn/908d64a9-8dd4-e011-a886-001ec94ffe7f,60729-102,Real Estate Agents,4/30/2014 0:00,,False,A+,100.0,1.0,0.0,False,Micro-small,False,10/7/2021 3:58,Search
1166,704,96545026,Atigun Inc,4401 42nd St SE,,Minot,ND,58701,USA,7018587118,,https://www.dnb.com/business-directory/company-profiles.atigun_inc.0ce7d356b033c6378a26cb4519e6d050.html,60747-000,Rental Service Stores & Yards,4/30/2014 0:00,,False,NR,0.0,,0.0,False,Micro-small,False,2/22/2021 3:54,Search
1167,704,96543993,New Horizons Jama Ins Agency,2929 4th Ave S Ste 205,,Minneapolis,MN,55408,USA,6123534632,,https://www.dnb.com/business-directory/company-profiles.new_horizons_jama_insurance_agency.c1b5facea426624e5005b2abc78906bf.html,20080-000,Insurance Services,4/30/2014 0:00,,False,A+,100.0,1.0,0.0,False,Micro-small,False,12/1/2021 4:53,Search
1168,704,96545129,Chuck Carver Photographer,10650 County Road 81 Ste S,,Maple Grove,MN,55369,USA,7634250099,,http://www.carverphoto.com/,60658-000,Photographers - Portrait,,,False,A+,100.0,1.0,,False,Micro-small,False,5/24/2022 8:16,Search
1169,704,96544806,"Knox, Amy V",6490 Excelsior Blvd Ste W300,,Minneapolis,MN,55426,USA,9529933242,,https://www.healthpartners.com/care/find/doctor/22690/,60971-000,Health & Medical - General,,,False,NR,0.0,1.0,,False,Micro-small,False,11/11/2021 4:02,Search
1170,704,96545078,Bridgeman Thompson Inc,826 County Road F E,,Saint Paul,MN,55127,USA,6514268358,,http://www.jothompsonflooring.com/,60235-000,"Computers Hardware, Software & Services",12/23/1994 0:00,,False,NR,0.0,1.0,0.0,False,Micro-small,False,8/15/2022 8:04,Search
1171,704,96544786,Kendry Briceno Photography Llc,19 1st Ave NE,,Pelican Rapids,MN,56572,USA,2188634114,,https://www.facebook.com/kendryphotography/,60658-000,Photographers - Portrait,4/30/2014 0:00,,False,A+,100.0,1.0,0.0,False,Micro-small,False,8/27/2021 4:04,Search
1172,704,96543925,Metro Rv & Mini Storage-Orono,2725 W Wayzata Blvd,,Orono,MN,55356,USA,9524765837,,https://www.metrostorage.com/locations/mn/orono/metro-self-storage-orono/?utm_source=GoogleMyBusiness&utm_medium=organic&utm_campaign=OR,60909-000,Truck Rent & Lease,4/30/2014 0:00,,False,A+,100.0,1.0,0.0,False,Micro-small,False,3/4/2022 9:47,Search
1173,704,96544406,Karina Realty,14605 34th Ave N Apt 235,,Minneapolis,MN,55447,USA,7635779469,,https://www.linkedin.com/in/karina-grazovski-b0447816,60729-102,Real Estate Agents,,,False,A+,100.0,1.0,,False,Micro-small,False,9/17/2022 8:23,Search
1174,704,96543929,Midwest Ag,14995 Industry Ave SE,,Becker,MN,55308,USA,7632612020,,https://en.wikipedia.org/wiki/A._G._Becker_%26_Co.,80645-000,Shipping Room Supplies,4/30/2014 0:00,,False,A+,100.0,1.0,0.0,False,Micro-small,False,9/10/2021 4:01,Search
1175,704,96544323,Sunburst Supply CO,415 W McGonagle St,,Duluth,MN,55808,USA,2186261742,,https://www.manta.com/c/mm0znng/sunburst-supply-co,30352-000,Lithographers,4/30/2014 0:00,,False,NR,0.0,,0.0,False,Micro-small,False,8/9/2021 4:04,Search
1176,704,96543961,Newcastle Aviation Partners,3201 County Road 42 W Ste 104,,Burnsville,MN,55306,USA,9522230317,,https://newcastleaviation.com/,65114-000,Aviation Services,3/23/2006 0:00,,False,A+,100.0,1.0,0.0,False,Micro-small,False,2/26/2022 9:35,Search
1177,704,96545186,Beerline Cleaning,8532 Rich Ave S,,Minneapolis,MN,55437,USA,9528313301,,https://beerlineservice.com/,30040-000,Beer Coil Cleaning Equipment,4/30/2014 0:00,,False,NR,0.0,1.0,0.0,False,Micro-small,False,8/15/2022 8:04,Search
1178,704,96544512,"Stark, Barbara",2311 E 3rd St,,Duluth,MN,55812,USA,2187286019,,https://www.facebook.com/barbara.stark.944/,00156-000,Landscape Designers,,,False,A+,100.0,,,False,Micro-small,False,7/2/2020 4:06,Search
1179,704,96544324,Super Key Service,805 Nicollet Mall,,Minneapolis,MN,55402,USA,6122765718,,http://super-locksmiths.com/,72800-000,Key Duplication and Cutting,,,False,A+,100.0,,,False,Micro-small,False,7/3/2020 4:12,Search
1180,704,96544677,"Schubert, John",8325 Wayzata Blvd Ste 100,,Minneapolis,MN,55426,USA,7635435170,,https://www.linkedin.com/in/johnschubertcfp,20045-000,Investment Advisory Service,4/30/2014 0:00,,False,NR,0.0,1.0,0.0,False,Micro-small,False,1/16/2022 9:13,Search
1181,704,96544602,Vics Tax & Accounting,15231 Jackal St NW,,Anoka,MN,55303,USA,7634275934,,https://www.manta.com/c/mtcnkx3/vics-tax-accounting,60857-000,Tax Return Preparation,4/30/2014 0:00,,False,NR,0.0,,0.0,False,Micro-small,False,7/11/2021 4:10,Search
1182,704,96544629,Guy F Atkinson Construction,36518 County Road 75,,Lake City,MN,55041,USA,5077532180,,https://www.atkn.com/,10035-000,Contractors - General,4/30/2014 0:00,,False,A+,100.0,,0.0,False,Micro-small,False,5/23/2021 3:54,Search
1183,704,96543883,"Dramen, Gordon OD",21 County Road 120,,Saint Cloud,MN,56303,USA,3202595880,,http://www.walmart.com/,60629-000,Optometrists,4/30/2014 0:00,,False,A+,100.0,,0.0,False,Micro-small,False,7/25/2021 4:13,Search
1184,704,96544376,K I N Properties Inc,8355 University Ave NE,,Minneapolis,MN,55432,USA,7637801859,,https://kinproperties.com/,60729-102,Real Estate Agents,4/30/2014 0:00,,False,A+,100.0,1.0,0.0,False,Micro-small,False,11/7/2021 3:49,Search
1185,704,96545270,Carousel Sales,5359 N Shore Dr,,Duluth,MN,55804,USA,2185256697,,https://www.dandb.com/businessdirectory/carouselsales-duluth-mn-16793251.html,50039-000,Auto Dealers - New Cars,4/30/2014 0:00,,False,NR,0.0,1.0,0.0,False,Micro-small,False,7/8/2022 12:28,Search
1186,704,96543971,M Employment Inc,1301 Cambridge St Ste 110A,,Hopkins,MN,55343,USA,9529301148,,https://www.dnb.com/business-directory/company-profiles.m_employment_inc.085b886b892f835d90bb85eee5c3e3d5.html,60326-000,Employment Agencies,2/13/2002 0:00,,False,NR,0.0,1.0,0.0,False,Micro-small,False,11/22/2022 8:45,Search
1187,704,96544307,Global Wellness Technolo,2960 Western Ave N,,Saint Paul,MN,55113,USA,6514845906,,https://www.saintpaul.edu/programs/health-information-technology,60971-000,Health & Medical - General,4/30/2014 0:00,,False,A+,100.0,1.0,0.0,False,Micro-small,False,2/17/2022 9:43,Search
1188,704,96545118,Cornell Computers,46748 County 43 Blvd,,Zumbrota,MN,55992,USA,5077325799,,https://www.showmelocal.com/profile.aspx?bid=14794159,50173-000,Computers - Dealers,,,False,A+,100.0,1.0,,False,Micro-small,False,10/8/2021 4:04,Search
1189,704,96544036,Precision Locksmith 24 HR,9638 Colorado Ln N,,Minneapolis,MN,55445,USA,6125947178,,https://www.dnb.com/business-directory/company-profiles.precision_locksmith_24_hr.cce63c8d388b4470c76398a8cd119911.html,60522-000,Locks & Locksmiths,4/30/2014 0:00,,False,NR,0.0,1.0,0.0,False,Micro-small,False,9/8/2021 4:07,Search
1190,704,96544426,Hoopeston Foods Inc,201 W Travelers Trl Ste 202,,Burnsville,MN,55337,USA,9528540903,,https://www.bloomberg.com/profile/company/0004405D:US,30062-000,Food & Beverage Services,7/14/1995 0:00,,False,NR,0.0,1.0,0.0,False,Micro-small,False,8/9/2022 8:29,Search
1191,704,96544531,Top Notch Professional Paint,1118 Stryker Ave,,Saint Paul,MN,55118,USA,6514556764,,https://topnotchpainters.com/,60094-000,Auto Body Repair & Painting,4/30/2014 0:00,,False,NR,0.0,1.0,0.0,False,Micro-small,False,7/8/2022 12:27,Search
1192,704,96543922,Master Graphics Inc,8000 Norman Center Dr Ste 150,,Bloomington,MN,55437,USA,9529353367,,http://www.mastergraphics.com/,60246-000,Computers - Sys Designers & Consult,4/30/2014 0:00,,False,A+,100.0,1.0,0.0,False,Micro-small,False,10/18/2021 3:53,Search
1193,704,96544554,Tommy LA Firma DE Tu Peinado,410 E 35th St,,Minneapolis,MN,55408,USA,6128230601,,https://www.tommylafirmadetupeinado.com/contact.html,60134-000,Beauty Salons,4/30/2014 0:00,,False,NR,0.0,1.0,0.0,False,Micro-small,False,11/30/2021 4:06,Search
1194,704,96544116,Spearhead Technologies Llc,1245 Angelo Dr,,Minneapolis,MN,55422,USA,7635883726,,https://opencorporates.com/companies/us_mn/ba47c382-90d4-e011-a886-001ec94ffe7f,64000-000,Home Electronics,,,False,A+,100.0,,,False,Micro-small,False,7/8/2020 4:45,Search
1195,704,96544248,KCK Agency,7405 Kellogg Ave,,Minneapolis,MN,55435,USA,9529224820,,https://www.manta.com/c/mmdzhw1/kck-agency,20080-000,Insurance Services,,,False,A+,100.0,,,False,Micro-small,False,7/3/2020 4:12,Search
1196,704,96544311,Furlow & Assoc Inc,PO Box 390393,,Minneapolis,MN,55439,USA,9529411244,,https://www.merchantcircle.com/furlow-assoc-minneapolis-mn,60326-000,Employment Agencies,,,False,A+,100.0,,,False,Micro-small,False,7/3/2020 4:12,Search
1197,704,96544524,"Scheper, Toni J OD",5320 Hyland Greens Dr Ste 100,,Bloomington,MN,55437,USA,9529932400,,https://www.vitals.com/optometrists/1q0gdh/toni-scheper,60629-000,Optometrists,4/30/2014 0:00,,False,NR,0.0,1.0,0.0,False,Micro-small,False,1/16/2022 9:14,Search
1198,704,96545178,Ben the Key Pro,909 County Road 42 W,,Burnsville,MN,55306,USA,9524666402,,https://www.247locksmiths.io/local/ben-the-key-pro-909-county-road-42-w-25555.html,72800-000,Key Duplication and Cutting,4/30/2014 0:00,9/10/2019 0:00,False,NR,0.0,,0.0,False,Micro-small,False,9/11/2019 5:49,Search
1199,704,96545108,Clay County Union,119 6th St,,Hawley,MN,56549,USA,2185968813,,https://www.hawleyherald.net/,30418-000,Newspapers,3/10/2009 0:00,,False,NR,0.0,1.0,0.0,False,Micro-small,False,3/2/2022 10:32,Search
