,BBBID,BusinessID,BusinessName,StreetAddress,StreetAddress2,City,StateProvince,PostalCode,Country,Phone,Email,Website,TOBID,TOBDescription,DateBusinessStarted,DateBusinessClosed,IsBBBAccredited,BBBRatingGrade,BBBRatingScore,NumberOfEmployees,NumberOfPartTimeEmployees,IsHQ,SizeOfBusiness,IsCharity,CDWLastUpdate,FoundVia
400,704,96385340,Easy Breezy Moves,11200 W 78th St,,Eden Prairie,MN,55344,USA,6122347719,service@easybreezymoves.com,http://www.easybreezymoves.com,10080-000,House & Building Movers,,9/14/2017 0:00,False,NR,0.0,1.0,,False,Micro-small,False,8/2/2022 8:45,BBB
401,704,1000048487,Home Equity Partners,unknown,, Minneapolis,MN,55111,USA,7014049107,Management@homeequitypartner.com,https://www.homeequitypartner.com/,60732-000,Property Management,9/16/2021 0:00,,False,A-,90.42,1.0,,False,Micro-small,False,1/28/2023 8:48,Email
402,704,2000795,Future Sports,4680 Bayside Rd,,Maple Plain,MN,55359,USA,9524726331,,http://www.broomball.com,50608-000,Sporting Goods - Retail,12/5/1983 0:00,,False,A+,100.0,1.0,0.0,False,Micro-small,False,5/18/2022 8:55,BBB
403,704,22002224,LKQ Corp.,26548 Chippendale Ave,,Northfield,MN,55057,USA,6514606166,cmkryzer@lkqcorp.com,http://www.lkqcorp.com,80047-000,Auto Wrecking ,1/1/1987 0:00,,False,NR,0.0,55.0,0.0,False,Small,False,3/23/2021 4:01,BBB
404,704,96381505,"My Legacy, LLC",930 Woodbridge St,,Saint Paul,MN,55117,USA,6513687400,mylegacyllc2011@gmail.com,http://www.angeldounts.com,60485-100,Labor Contractors,7/1/2011 0:00,,False,A+,100.0,2.0,,False,Small,False,8/20/2021 4:25,BBB
405,704,96244489,"Furniture Network of Owatonna, Inc",117 Wilson Dr,,Owatonna,MN,55060,USA,8886945777,info@furnitureprosolutions.com,http://www.furnitureprosolutions.com,60394-000,Furniture Repair & Refinish,5/8/2002 0:00,,False,A+,100.0,1.0,,False,Micro-small,False,7/29/2021 4:37,BBB
406,704,96135096,Morris Veterinary Center,605 W 5th St,,Morris,MN,56267,USA,3205894033,,http://www.morrisvetcenter.com,00222-000,Veterinarians,1/1/2007 0:00,,False,A+,100.0,8.0,,False,Micro-small,False,6/14/2022 8:19,BBB
407,704,1000014400,WavePro LLC,7611 208th St N,,Forest Lake,MN,55025,USA,6128344959,falck7611@q.com,http://www.waveproshock.com/,50083-000,Boat Equipment & Supplies,9/6/2012 0:00,,False,A+,100.0,1.0,0.0,False,Micro-small,False,12/21/2022 9:22,BBB
408,704,1000014977,"Clover Maintenance, Inc.",7229 177th Ave NE,,Forest Lake,MN,55025,USA,6514644489,tim@clovermaintenanaceinc.com,http://Clovermaintenanceinc.com,10095-000,Painting Contractors,12/27/1994 0:00,,True,A+,100.0,9.0,0.0,False,Micro-small,False,9/17/2022 8:23,BBB
409,704,1000034891,Shane Co,"11300 Wayzata Blvd., Suite A",,Minnetonka,MN,55305,USA,9525462900,Tracy_D@wsmcorp.com,http://www.shaneco.com,50367-000,Jewelers - Retail,7/7/1971 0:00,,True,NR,0.0,12.0,0.0,False,Small,False,10/4/2022 8:08,BBB
410,704,96387435,Park Trace Apartments,700 Atlanta Ave,,Decatur,GA,30030,USA,4043710887,mgrparktrace@druckerandfalk.com,https://www.druckerandfalk.com/,85296-200,Senior Housing/Living,6/1/2012 0:00,,False,A+,100.0,5.0,,False,Micro-small,False,8/3/2022 8:42,Email
411,704,96021741,Rainbow Flat Roofing Inc,5014 170th Ln NW,,Andover,MN,55304,USA,7634228008,info@rainbowflatroofing.com,http://www.rainbowflatroofing.com,10126-000,Roofing Contractors,11/1/1998 0:00,11/6/2015 0:00,False,NR,0.0,3.0,,False,Micro-small,False,11/12/2018 4:08,BBB
412,704,96270133,"All American Plumbing & Heating, Inc.",709 4th St E,,Horace,ND,58047,USA,7013565325,josh@aaph.co,https://www.allamericanplumbingandheatingnd.com/,10003-000,Air Conditioning Contractors & Systems,2/1/2002 0:00,,False,A+,100.0,5.0,,False,Small,False,1/7/2023 9:07,BBB
413,704,1000023932,Chanticlear Pizza,11706 Crooked Lake Blvd NW,,Coon Rapids,MN,55433,USA,7637572020,stolzin@chanticlearpizza.com,http://chanticlearpizzagrill.com,50544-000,Restaurants,,,False,A+,97.0,1.0,0.0,False,Micro-small,False,11/12/2021 4:01,BBB
414,704,96595566,Kingswood Security Consulting LLC,1411 Kingswood Ponds Rd,,Eagan,MN,55122,USA,9522974566,info@kingswoodsc.com,https://www.kingswoodsc.com/,60533-000,Management Consultants,11/1/2014 0:00,,False,A+,100.0,1.0,0.0,False,Micro-small,False,11/22/2022 8:45,BBB
415,704,1000007400,George&#39;s Tire Shop,631 26th Ave E,,Dickinson,ND,58601,USA,7012256221,georgestire@ndsupernet.com,http://www.georgestiredickinson.com/,50659-000,Tire Dealers,7/31/2008 0:00,,False,NR,0.0,1.0,0.0,False,Micro-small,False,1/16/2023 8:36,BBB
416,704,96012076,Marland Appraisals,121 Happy Acres Dr # 76,,Lutsen,MN,55612,USA,2186637119,marlandh@boreal.org,https://www.boreal.org/,60045-000,Appraisers,1/1/2004 0:00,10/22/2020 0:00,False,NR,0.0,1.0,,False,Micro-small,False,12/11/2020 4:12,Email
417,704,1000022153,Interior Pros LLC,6460 153rd Ln NW,,Ramsey,MN,55303,USA,7632033026,interiorprosllc@gmail.com,https://www.facebook.com/Interior-Pros-LLC-1618589058423476/,50191-000,Countertops,8/28/2008 0:00,,False,A+,100.0,1.0,0.0,False,Micro-small,False,1/10/2023 8:49,BBB
418,704,96372534,Laramax Construction LLC,24 Crossway Dr,,Circle Pines,MN,55014,USA,6513873424,JFCconstruction1981@yahoo.com,http://www.johnsonfamilyconstructionllc.com,10035-000,Contractors - General,12/1/2005 0:00,,False,A+,100.0,1.0,0.0,False,Micro-small,False,9/14/2022 8:40,BBB
419,704,1000047718,Arabesque School of Dance LLC,10130 Davenport St NE Ste 170,,Blaine,MN,55449,USA,7637806075,shelly@arabesquedanceschool.com,http://arabesquedanceschool.com/,60278-000,Dancing Instruction,7/24/2007 0:00,,False,A+,100.0,1.0,0.0,False,Micro-small,False,8/25/2021 4:57,BBB
420,704,1000047791,"Western Commercial, Inc.",1822 Cameron Cir NE,,Buffalo,MN,55313,USA,6128050263,gwelch@kidsquest.com,https://www.kidsquest.com/,10078-200,Custom Home Builder,3/4/2005 0:00,,False,A+,100.0,1.0,,False,Micro-small,False,9/16/2022 8:15,Email
421,704,1000010315,Working King Media LLC,7487 W 144th St,,Savage,MN,55378,USA,6123232450,luke@workingkingmedia.com,http://www.workingkingmedia.com/home/,85308-000,Videographers,12/7/2015 0:00,,False,A+,100.0,1.0,0.0,False,Micro-small,False,12/1/2021 4:54,BBB
422,704,96595825,North Dakota Association of Builders,1720 Burnt Boat Dr STE 207,,Bismarck,ND,58503,USA,7012222401,info@ndbuild.com,http://ndbuild.com,60071-000,Associations,12/20/1976 0:00,,False,NR,0.0,2.0,0.0,False,Micro-small,False,3/23/2022 8:48,BBB
423,704,96381003,"Yard Guard of Minnesota, LLC",24481 Rice Lake Dr,,Lakeville,MN,55044,USA,6513040207,yardguardminnesota@gmail.com,http://www.yardguardmn.com,00223-000,Weed Control Service,12/14/2012 0:00,,True,A+,100.0,3.0,0.0,False,Micro-small,False,1/24/2023 8:58,BBB
424,704,96139785,Ronco Engineering Co,1755 Ronco Ave,,Winona,MN,55987,USA,5074544124,,http://www.roncoengineering.com,60334-101,Engineering Consultants,1/1/1984 0:00,,False,A+,100.0,22.0,,False,Small,False,11/15/2022 9:11,BBB
425,704,96568285,Culinex,311 4th Ave S,,Sartell,MN,56377,USA,3202596557,culinex@goculinex.com,http://www.goculinex.com,85310-000,Contractor - Commercial,,,False,A+,100.0,1.0,0.0,False,Micro-small,False,6/30/2022 15:39,BBB
426,704,1663,Excel Bank,5050 France Ave S,,Minneapolis,MN,55410,USA,9529200120,,https://www.bmoharris.com,20003-000,Banks,1/20/1965 0:00,,False,NR,0.0,35.0,0.0,False,Micro-small,False,7/8/2022 12:19,BBB
427,704,1000020094,Window World of Fargo,4331 12th Ave N,,Fargo,ND,58102,USA,7015264545,info@windowworldfargo.com,http://www.windowworldfargo.com,50737-000,Windows,6/28/2017 0:00,,True,A+,100.0,18.0,0.0,False,Small,False,7/8/2022 12:29,BBB
428,704,96202083,Lake Street Pain Relief Center,515 W Lake St Ste F,,Minneapolis,MN,55408,USA,6128277246,,http://www.thepainreliefcenters.com,60205-000,Chiropractors D.C.,1/1/2002 0:00,,False,A+,100.0,3.0,,False,Micro-small,False,12/15/2021 4:25,BBB
429,704,96369270,Inner Circle Twin Cities,1087 Patterson Drive,,Shakopee,MN,55379,USA,6128057440,blantz@theinnercircle.com,http://www.innercircletwincities.com,60172-100,Coaching - Business,,,False,NR,0.0,1.0,,False,Micro-small,False,9/11/2021 4:05,BBB
430,704,96035656,Big 10 Restaurant & Bar,606 Washington Ave SE,,Minneapolis,MN,55414,USA,6123780806,tahutsell@frontiernet.net,http://www.big10restaurant.com,50544-000,Restaurants,12/23/1992 0:00,,False,A+,100.0,100.0,,False,Large,False,11/25/2020 4:56,BBB
431,704,44004584,G & F Enterprise,1510 Heights Blvd,,Winona,MN,55987,USA,5077966211,roman@ridgerunner.com,https://www.ridgerunner.com/,60705-000,Product Development & Marketing,1/1/1999 0:00,,False,NR,0.0,1.0,,False,Micro-small,False,6/8/2022 8:45,Email
432,704,96015304,Litin&#39;s Party Value,913 Plymouth Ave N,,Minneapolis,MN,55411,USA,6123434300,,https://www.partyvalue.com,50480-000,Party Supplies,6/15/1967 0:00,,False,A+,100.0,20.0,0.0,False,Small,False,1/14/2023 8:57,BBB
433,704,96008947,"J.A. Anderson Jr. DDS, PC",506 Plain Hills Dr,,Grand Forks,ND,58201,USA,7017753989,ddsappt@invisimax.com,http://www.drjaanderson.com/,60289-000,Dentists,11/8/1976 0:00,,False,A+,100.0,4.0,,False,Micro-small,False,10/21/2021 3:59,BBB
434,704,15000837,Dayton Lang & Assoc/Simply Resurface,323 Oakwood Dr,,Saint Paul,MN,55126,USA,6514901099,simplyresurface@yahoo.com,http://www.simplyresurface.com,60702-000,Porcelain Enamel Repair & Refinish,11/1/1994 0:00,,True,A+,100.0,2.0,,False,Micro-small,False,1/31/2023 8:45,BBB
435,704,1000016806,American Dog Toys Inc,15105 Minnetonka Industrial Rd,,Minnetonka,MN,55345,USA,9523036173,info@spunkypup.com,http://www.spunkypup.com/,50486-000,Pet Supplies & Foods - Retail,3/1/2010 0:00,,False,A+,100.0,1.0,0.0,False,Micro-small,False,3/19/2022 8:30,BBB
436,704,96022464,North Border Contracting,21192 County Road 21,,Roseau,MN,56751,USA,7017403870,nbc@wiktel.com,https://www.wiktel.com/,85310-000,Contractor - Commercial,6/1/2002 0:00,,False,A+,100.0,1.0,,False,Micro-small,False,6/10/2020 4:32,Email
437,704,96271448,E Mark Norman Court Reporter,300 Np Ave N # 201,,Fargo,ND,58102,USA,7012357571,,http://Normanemark.com,60787-000,Administrative Services,1/1/2010 0:00,,False,NR,0.0,7.0,,False,Micro-small,False,6/15/2022 9:01,BBB
438,704,96156582,"Doug Miller Drywall, LLC",119 8th Ave N,,Waite Park,MN,56387,USA,3203333383,dougmillerdrywall@gmail.com,http://www.dougmillerdrywall.com/,10046-000,Drywall Contractors,1/1/2000 0:00,,False,A+,100.0,1.0,,False,Micro-small,False,2/12/2022 9:24,BBB
439,704,96574239,Once Upon A Child,582 Prairie Center Dr STE 235,,Eden Prairie,MN,55344,USA,9529413515,kkretail@usfamily.net,http://www.onceuponachildedenprairie.com/,55093-000,Clothing - Retail,9/13/1993 0:00,,False,NR,0.0,1.0,0.0,False,Micro-small,False,5/15/2022 8:13,BBB
440,704,776,Manheim Minneapolis,PO Box 408,8001 Jefferson Hwy,Maple Grove,MN,55369,USA,7633155600,tom.saldutte@manheim.com,http://www.manheim.com,80038-000,Auto Auctions,2/24/1970 0:00,,False,NR,0.0,101.0,0.0,False,Medium,False,6/1/2022 21:21,BBB
441,704,1000007966,"Ultimate Hearing DE, LLC",14031 Burnhaven Dr Ste 111,,Burnsville,MN,55337,USA,9524467196,,http://www.ultimatehearingcenter.com/,50337-000,Hearing Aids & Assistive Devices,12/17/2015 0:00,,False,NR,0.0,1.0,0.0,False,Micro-small,False,11/3/2022 8:23,BBB
442,704,1000046142,"Computer Wishmaster, LLC",600 Washington Ave S Suite 1,,Park Rapids,MN,56470,USA,6123004983,aarontoll01@gmail.com,http://www.computerwishmaster.com,60235-300,Computer Business Services,2/9/2007 0:00,,False,A+,100.0,1.0,,False,Micro-small,False,11/12/2022 9:07,BBB
443,704,96011596,Daytona Market,19000 County Road 81,,Osseo,MN,55369,USA,7634282221,daytonamarket@earthlink.net,https://www.earthlink.net/,50199-000,Convenience Stores,1/1/1994 0:00,,False,A+,100.0,3.0,,False,Small,False,11/30/2021 4:06,Email
444,704,28000470,Willingers Golf Club,6797 Canby Trl,,Northfield,MN,55057,USA,9526522500,mike.luckraft@willingersgc.com,http://www.willingersgc.com,60410-000,Golf Courses - Public,1/1/1991 0:00,,False,A+,100.0,30.0,,False,Small,False,11/4/2021 4:04,BBB
445,704,96135076,Midwest Health Benefits Inc,PO Box 596,,Morris,MN,56267,USA,3205892972,morris@midwesthealthbenefits.com,http://www.midwesthealthbenefits.com,20019-100,Insurance Agency,5/1/1995 0:00,,False,A+,100.0,4.0,,False,Small,False,7/15/2022 8:34,BBB
446,704,96384135,GLS Industries Inc,7200 Highway 63 N,,Rochester,MN,55906,USA,5072888850,,http://www.rochesterCP.com,50180-000,Concrete Products,1/1/1984 0:00,,False,A+,100.0,60.0,,False,Small,False,8/9/2022 8:29,BBB
447,704,96198963,Mainstream Boutique,14025 Highway 13 S,,Savage,MN,55378,USA,9524401123,,http://www.mainstreamboutique.com/,50740-000,Womens Apparel - Retail,6/22/2012 0:00,,False,A+,100.0,1.0,,False,Micro-small,False,8/19/2022 8:08,BBB
448,704,96052656,Rockford Road Animal Hospital,3900 Vinewood Ln N Ste 16,,Minneapolis,MN,55441,USA,7635597554,petportal@rrahospital.com,http://www.rrahospital.com,00222-000,Veterinarians,1/1/1985 0:00,,False,A+,100.0,14.0,,False,Small,False,12/16/2021 4:10,BBB
449,704,1000016258,"TC Distributors, LLC",1977 Geneva Ave N,,Oakdale,MN,55128,USA,6122980333,tcdistributorsllc@gmail.com,http://rainbowvacuummn.com,50694-000,Vacuum Cleaners - Household - Dealers,6/4/2012 0:00,,False,A+,100.0,1.0,0.0,False,Micro-small,False,5/28/2021 4:18,BBB
450,704,1000054201,"Minnesota Official Entertainment, LLC",530 Madison St Apt 1,,Anoka,MN,55303,USA,6124039316,minnesotaofficialent@yahoo.com,https://www.facebook.com/shane.black.581,85308-000,Videographers,7/13/2020 0:00,,True,A,96.39,2.0,,False,Micro-small,False,2/1/2023 8:58,BBB
451,704,11185,"Rayco Construction, Inc.",3030 Granada Ave N,,Oakdale,MN,55128,USA,6127816092,kristy.lynch@raycoconstruction.com,http://www.raycoconstruction.com,10126-000,Roofing Contractors,3/30/1978 0:00,,True,A+,100.0,40.0,0.0,False,Micro-small,False,1/7/2023 9:06,BBB
452,704,96039211,Sports Zone Barber Shop,17721 Kenwood Trl,,Lakeville,MN,55044,USA,9528981299,sportszone4hair@yahoo.com,http://www.sportszonebarbers.com,60125-000,Barbers,1/1/2005 0:00,,False,A+,100.0,6.0,,False,Small,False,3/30/2021 3:56,BBB
453,704,1000010322,Warriors Cove,2900 Rice St,,Little Canada,MN,55113,USA,6128088680,info@warriorscove.com,http://warriorscove.com/,60541-000,Martial Arts,4/13/2010 0:00,,False,F,54.0,1.0,0.0,False,Micro-small,False,1/24/2023 8:58,BBB
454,704,96349152,JJ Global Solutions Corp.,18946 Barrington,,Eden Prairie,MN,55346,USA,9522940276,jjglobalsolutions@gmail.com,http://jjglobalsolutions.com//,66002-000,Cleaning Services,9/1/2003 0:00,,False,A+,100.0,1.0,,False,Small,False,7/8/2022 12:26,BBB
455,704,96561872,Jossart Law Office LLC,200 W. Highway 13 Suite 110,,Burnsville,MN,55337,USA,6128031287,,https://www.jossartlaw.com/,60075-000,Attorneys & Lawyers,3/30/2009 0:00,9/13/2019 0:00,False,A+,100.0,,0.0,False,Micro-small,False,12/9/2020 4:49,BBB
456,704,1000025765,"Evergreen SMM, LLC",915 Mainstreet Ste Ll,,Hopkins,MN,55343,USA,,contact@evergreen.to,https://evergreen.to/,85272-110,Tech Support,,,False,NR,0.0,1.0,0.0,False,Micro-small,False,11/25/2022 9:02,BBB
457,704,96074665,ICEA Bookstore,PO Box 20048,,Minneapolis,MN,55420,USA,9528548660,info@icea.org,https://www.icea.org/,61056-000,"Scholastic Prep Courses, Books & Materials",,,False,NR,0.0,1.0,,False,Micro-small,False,5/29/2022 8:11,Email
458,704,96104301,Fairbridge Inn & Suites,508 Kruckow Ave,,Caledonia,MN,55921,USA,5077258000,caledonia.mn@americinn.com,http://www.fairbridgeinns.com,60447-000,Hotels,1/1/1999 0:00,,False,NR,0.0,24.0,,False,Micro-small,False,5/6/2022 8:19,BBB
459,704,1000027205,Taquitos Auto Repair,8000 Powell Rd,,Hopkins,MN,55343,USA,9529235310,Fabian_1964@hotmail.com,https://taquitosautorepair.com/contact,60103-000,Auto Repair & Service,,,False,NR,0.0,1.0,0.0,False,Micro-small,False,11/11/2022 9:29,BBB
460,704,14000554,"Bill&#39;s Well Drilling, Inc.",103 W Groundhouse St,,Ogilvie,MN,56358,USA,3202724220,,http://www.billswelldrillinginc.com,10169-000,Water Well Drilling & Service,1/1/1961 0:00,,True,A+,100.0,5.0,0.0,False,Micro-small,False,12/21/2022 9:21,BBB
461,704,1000004316,"Licari, Larsen & Co.",130 W Superior St Ste 712,,Duluth,MN,55802,USA,2187222226,,http://licarilarsen.com,60005-000,Accountants,4/6/1995 0:00,,False,A+,100.0,1.0,0.0,False,Micro-small,False,11/25/2021 4:05,BBB
462,704,96202530,The Origins Program,3805 Grand Ave S,,Minneapolis,MN,55409,USA,6128223422,origins@originsonline.org,http://www.originsonline.org,60319-000,Educational Consultants,1/1/1979 0:00,,False,A+,100.0,10.0,0.0,False,Small,False,4/9/2022 8:44,BBB
463,704,96012677,Journeys Unlimited,903 1st St N,,Hopkins,MN,55343,USA,9529309417,judycilla@frostbit.com,http://www.journeysunlimited-travel.com,70632-000,Travel Agencies & Bureaus,1/1/1994 0:00,3/17/2016 0:00,False,NR,0.0,2.0,,False,Small,False,3/25/2019 3:59,BBB
464,704,96126612,Kleen Products LLC,751 7th St,,Glenwood City,WI,54013,USA,9525440530,,http://www.kleenproductsllc.com,80119-000,Buffing & Polishing Equipment & Supplies,1/1/2007 0:00,,False,A+,100.0,8.0,,False,Micro-small,False,8/4/2022 8:30,BBB
465,704,21003669,SwyftPAY,7225 Forestview Ln N,,Maple Grove,MN,55369,USA,7633676770,brad@swyftpay.com,https://www.SwyftPAY.com,85221-000,Credit Card Processing Service,4/23/1996 0:00,,False,A+,100.0,20.0,,False,Small,False,1/31/2023 8:45,BBB
466,704,96093115,Emmons & Olivier Resources,604 1st St W,,Park Rapids,MN,56470,USA,6517708448,eor@eorinc.com,http://www.eorinc.com,60346-000,Environmental & Ecological Services,1/1/1997 0:00,,False,A+,100.0,36.0,,False,Small,False,7/8/2022 12:22,BBB
467,704,1000036202,AFC Travel Inc,511 E Travelers Trl,,Burnsville,MN,55337,USA,9528867676,staff@afctravel.com,https://www.afctravel.com/,70632-000,Travel Agencies & Bureaus,2/22/1995 0:00,,False,A+,100.0,1.0,0.0,False,Micro-small,False,10/8/2022 8:10,BBB
468,704,96117504,RLH Rightway Roofing,71338 180th St,,Albert Lea,MN,56007,USA,5073730409,rightwayroofing@live.com,http://www.rightwayroofingmn.com/,10126-000,Roofing Contractors,7/1/1993 0:00,,True,A+,100.0,4.0,,False,Micro-small,False,2/1/2023 8:57,BBB
469,704,96020294,Minnesota Residential Inspections,16445 Kingswood Ct,,Lakeville,MN,55044,USA,9528927670,thomas@mri-mn.com,http://mri-mn.com/,60469-000,Home Inspection Service,1/1/1984 0:00,,False,A+,100.0,1.0,,False,Micro-small,False,1/26/2023 8:49,BBB
470,704,96062230,Fleet Street Publications,290 Rice Creek Blvd NE,,Fridley,MN,55432,USA,7635718292,averbell@aol.com,https://fleetst.net/welcome.php,60975-000,Magazine Sales,,,False,C,74.0,1.0,,False,Micro-small,False,5/18/2022 8:56,BBB
471,704,96196685,Custom Clean&#39;s Carpet and Upholstery Cleaning,19660 Burgess Ave,,Jordan,MN,55352,USA,9524922522,kurtfostersmith@yahoo.com,http://www.customcleans.com,60184-000,Carpet & Rug Cleaners,1/1/1989 0:00,,False,A+,100.0,1.0,,False,Micro-small,False,8/5/2022 8:38,BBB
472,704,96160203,"FDC Services, Inc.",720 Anderson Ave,,Saint Cloud,MN,56303,USA,3206568880,jkern@fdcfulfillment.com,http://www.fdcfulfillment.com,60634-000,Packaging Service,1/1/1998 0:00,,False,A+,100.0,350.0,,False,Micro-small,False,7/10/2022 8:28,BBB
473,704,96108811,"Kennedy Transmission of Apple Valley, Inc.",14620 Glenda Dr,,Apple Valley,MN,55124,USA,9524326600,kennedy@kennedytrans.com,https://kennedytransmission.com/shop-locator/apple-valley-transmission-center/,60902-000,Transmissions - Automobile,5/1/1962 0:00,,True,A+,100.0,5.0,,False,Micro-small,False,2/6/2020 4:21,BBB
474,704,96559500,"Insight Brewing Company, LLC",2821 E Hennepin Ave,,Minneapolis,MN,55413,USA,6125547618,info@insightbrewing.com,http://www.insightbrewing.com,80079-000,Beer & Ale - Wholesale,11/21/2014 0:00,,False,A+,100.0,22.0,19.0,False,Small,False,9/4/2019 8:20,BBB
475,704,1000015899,"R.E. Smith Oil & Tire Co., Inc.",503 Faxon Rd N,,Nya,MN,55368,USA,9524672640,,http://resmithoiltirecoinc.napawebtools.com/,60103-000,Auto Repair & Service,9/8/1980 0:00,,False,A+,100.0,6.0,0.0,False,Small,False,6/8/2022 8:46,BBB
476,704,96094316,Towle Financial Services,225 S 6th St Ste 4100,,Minneapolis,MN,55402,USA,6122381170,,http://www.wellsfargo.com,20053-000,Mortgage Brokers,6/18/2008 0:00,,False,A+,100.0,20.0,0.0,False,Small,False,12/5/2021 3:57,BBB
477,704,96072882,The House of Wong,1163 Larpenteur Ave W,,Saint Paul,MN,55113,USA,6514886687,,http://www.houseofwongmn.com,50544-000,Restaurants,1/1/1984 0:00,,False,A+,100.0,70.0,,False,Small,False,10/1/2021 4:11,BBB
478,704,1283,Bloomington Chrysler Jeep Dodge,8000 Penn Ave S,,Minneapolis,MN,55431,USA,9523141248,legal@walser.com,http://www.bloomingtonchryslerjeep.net,50039-000,Auto Dealers - New Cars,9/1/1973 0:00,,True,A+,100.0,10.0,0.0,False,Small,False,1/27/2023 9:08,BBB
479,704,96577933,Crosswinds Cross Fit,20196 Heritage Dr,,Lakeville,MN,55044,USA,6128101021,info@crosswindscrossfit.com,http://www.crosswindscrossfit.com/,60430-100,Fitness Centers,1/1/2015 0:00,,False,A+,100.0,1.0,0.0,False,Micro-small,False,11/17/2022 9:21,BBB
480,704,96382948,"Avalon Construction, Inc.",10 E 26th St Apt 302,,Minneapolis,MN,55404,USA,6122396505,alex@avalon-construction.net,http://www.avalon-construction.net,10035-000,Contractors - General,1/2/2012 0:00,,True,A+,100.0,14.0,0.0,False,Micro-small,False,1/27/2023 9:09,BBB
481,704,1000056886,Buraq Consultants,2935 W Service Rd,,Eagan,MN,55121,USA,6124577527,hiring@buraqconsulting.com,http://buraqconsulting.com/,60328-100,Employment Service,11/24/2015 0:00,,False,A+,100.0,1.0,,False,Micro-small,False,11/23/2022 9:43,BBB
482,704,96176634,"Axonom, Inc",6462 City West Pkwy STE 200,,Eden Prairie,MN,55344,USA,9526530400,marketing@axonom.com,http://www.axonom.com,60539-200,Marketing Software,1/1/2004 0:00,,False,A+,100.0,24.0,,False,Small,False,7/23/2022 8:43,BBB
483,704,96155192,"Shwaders Lawn Care and Landscape, LLC",8448 Pillsbury Ave S,,Bloomington,MN,55420,USA,9523034898,wade@shwaders.net,http://www.shwaders.net,00157-000,Lawn Maintenance,1/2/1997 0:00,,False,A+,100.0,2.0,,False,Micro-small,False,11/10/2022 9:22,BBB
484,704,96292921,American Independent Gold & Silver Inc,3756 W Broadway Ave,,Minneapolis,MN,55422,USA,8773121026,apgswisconsin@gmail.com,http://www.AmericanPlatinumGoldandSilver.com,50317-000,"Gold, Silver & Platinum Dealers",5/14/2010 0:00,12/13/2019 0:00,False,NR,0.0,6.0,,False,Small,False,12/19/2022 8:51,BBB
485,704,96092627,"Cut Above Wood Company, Inc.",18121 Liv Ln,,Eden Prairie,MN,55346,USA,6128652032,info@cutaboveinc.com,http://www.cutaboveinc.com,00219-000,Tree Service,1/1/1987 0:00,,False,A+,100.0,1.0,,False,Micro-small,False,5/15/2022 8:11,BBB
486,704,96347405,Loring Theater,1407 Nicollet Ave,,Minneapolis,MN,55403,USA,6123536781,,http://www.loringtheater.com,61019-000,Theater Stage Play Houses,,,False,NR,0.0,1.0,,False,Micro-small,False,5/30/2022 8:36,BBB
487,704,1000011235,"Britsch & Associates, PC",415 6th Ave NE,,Devils Lake,ND,58301,USA,7016628724,bbritsch@britschcpa.com,http://www.britschcpa.com/,60004-000,Accountants - Certified Public,11/1/2004 0:00,,False,A+,100.0,1.0,0.0,False,Micro-small,False,12/5/2020 4:10,BBB
488,704,96537921,Thryv,200 S 6th St,,Minneapolis,MN,55402,USA,8662280248,ypexec@yp.com,https://www.thryv.com/,30003-000,Advertising - Directory & Guide,1885-03-01 00:00:00,,False,NR,0.0,1.0,0.0,True,Micro-small,False,6/1/2022 21:25,BBB
489,704,96384245,"Telecom Warehouse, LLC",1000 E 146th St Ste 130,,Burnsville,MN,55337,USA,9525132149,charlie@telcowarehouse.com,http://www.telcowarehouse.com,60172-111,Consultants - Telecommunication,8/11/2009 0:00,,False,A+,100.0,7.0,0.0,False,Small,False,9/20/2020 3:56,BBB
490,704,96204355,Capital Benefits Group,5006 Lyndale Ave S,,Minneapolis,MN,55419,USA,8883278880,rrogers@capital-benefits.com,http://Capital-Benefits.com,20019-100,Insurance Agency,5/11/1998 0:00,,False,A+,100.0,3.0,,False,Small,False,1/14/2023 8:57,BBB
491,704,96083409,"DSAI, Inc.",1645 White Bear Ave N Ste A,,Saint Paul,MN,55106,USA,,customerservice@grandcleaners.net,http://www.grandcleaners.net,60993-000,Auto Service - Steam Cleaning,4/9/1999 0:00,8/25/2021 0:00,False,NR,0.0,15.0,0.0,False,Small,False,8/27/2021 4:04,BBB
492,704,96387390,Whispering Pines Log Homes,15348 US Highway 10,PO Box 99,Verndale,MN,56481,USA,2186311974,info@wploghomes.com,http://www.wploghomes.com,10087-000,"Log Cabins, Homes & Buildings",1/4/2012 0:00,,False,A+,100.0,1.0,,False,Micro-small,False,4/20/2022 8:36,BBB
493,704,96092332,Audibel Hearing Centers,6700 Washington Ave S,,Eden Prairie,MN,55344,USA,8007692590,audibel@hickorytech.net,http://www.audibel.com,50337-000,Hearing Aids & Assistive Devices,1/1/2003 0:00,,False,A+,100.0,5.0,,False,Micro-small,False,7/14/2021 4:27,BBB
494,704,96284878,Grand Forks Country Club,794 S 12th St NE,,Grand Forks,ND,58201,USA,7017724831,doug@gfcountryclub.com,http://www.gfcountryclub.com,60409-000,Golf Courses - Private,1/1/1984 0:00,,False,NR,0.0,14.0,,False,Small,False,6/3/2022 9:02,BBB
495,704,5788,"Fulfillment Systems, Inc.",406 E. 7th St.,,Monticello,MN,55362,USA,7632953400,,http://www.fulfillmentsystemsinc.com,60385-000,Fulfillment Services,1/1/1979 0:00,9/21/2016 0:00,False,NR,0.0,,0.0,False,Micro-small,False,9/23/2019 3:57,BBB
496,704,96134607,Lyon County Abstract & Title,102 S 5th St,,Marshall,MN,56258,USA,5075322367,,http://www.lyoncountyabstract.com,20072-000,Title Companies & Agents,1/1/1984 0:00,,False,NR,0.0,2.0,,False,Micro-small,False,9/29/2022 8:50,BBB
497,704,96020003,TLC Landscape & Construction,PO Box 110,,Cambridge,MN,55008,USA,7634443843,tllinson@peoplepc.com,http://www.tlc-landscapeconstruction.com,00155-000,Landscape Contractors,4/1/2002 0:00,11/6/2015 0:00,False,NR,0.0,1.0,,False,Micro-small,False,11/12/2018 4:08,BBB
498,704,1000045677,City&#39;s Edge Dental,4021 Benjamin Dr,,Saint Paul,MN,55129,USA,7633438837,,https://www.citysedgedentalcare.com/,60289-000,Dentists,3/4/2021 0:00,,False,A,94.46,10.0,0.0,False,Small,False,12/15/2022 9:21,BBB
499,704,1000008026,"Woodland Homes, Inc.",2229 6th St S,,Sartell,MN,56377,USA,3202307700,,http://www.woodlandhomesonline.com/,10177-000,Construction & Remodeling Services,10/3/2005 0:00,,False,A+,100.0,1.0,0.0,False,Micro-small,False,1/26/2023 8:50,BBB
500,704,1000051283,Redpoint Properties,141 Elm St,,Kindred,ND,58051,USA,7012008509,redpointproperties@hotmail.com,https://www.redpointfargo.com,60040-000,Apartment Finding & Rental Service,10/27/2009 0:00,,False,A,94.0,1.0,,False,Micro-small,False,1/6/2023 9:13,BBB
501,704,1000054148,Sam&#39;s Garage Door and Home Services L. L. C.,7475 Flying Cloud Dr  #105 ,,Eden Prairie,MN,55344,USA,9524125556,shabbat070@gmail.com,https://www.facebook.com/Sams-Garage-Doors-118091743380188/?ref=page_internal,85361-000,Garage Door Repair,,,False,A-,91.87,1.0,,False,Micro-small,False,1/4/2023 9:05,BBB
502,704,96161038,Northern Log Home Restoration Co.,PO Box 297,205 2nd St,Tower,MN,55790,USA,2187535424,northernloghome@msn.com,http://www.northernloghomerestoration.com,10087-000,"Log Cabins, Homes & Buildings",,,False,A+,100.0,1.0,,False,Micro-small,False,7/10/2022 8:28,BBB
503,704,96560316,Panther Distillery,300 East Pike St,,Osakis,MN,56360,USA,3208592256,lisa@pantherdistillery.com,http://pantherdistillery.com/,30164-000,Distillers,,,False,A+,100.0,1.0,0.0,False,Micro-small,False,3/6/2020 4:07,BBB
504,704,96554852,SiriSum Consulting Inc,12204 Lake Street Ext,,Minnetonka,MN,55305,USA,6122457697,,http://www.sirisum.com,60980-000,Web Design,11/13/2014 0:00,6/29/2021 0:00,False,NR,0.0,,0.0,False,Micro-small,False,7/1/2021 4:10,BBB
505,704,96350030,Modern-Tech,21151 John Milless Dr,,Rogers,MN,55374,USA,7634282323,,http://www.moderntechinc.com,10049-000,Electricians,1/1/1998 0:00,7/24/2019 0:00,False,NR,0.0,6.0,,False,Micro-small,False,7/25/2019 4:03,BBB
506,704,96180327,Dental Health Associates of Alexandria PA,107 14th Ave E,,Alexandria,MN,56308,USA,3207621551,frontdesk3@dentalhealthmn.com,https://dentalhealthmn.com/,60289-000,Dentists,5/13/1971 0:00,,False,NR,0.0,4.0,0.0,False,Micro-small,False,6/22/2022 11:34,BBB
507,704,96367845,"5 Star Insurance Professionals,  Inc.",13562 Highway 65 NE Ste B,,Ham Lake,MN,55304,USA,7634322645,cole@5starinspro.com,https://www.5starinspro.com,20080-000,Insurance Services,5/5/2005 0:00,,True,A+,100.0,2.0,,False,Small,False,7/8/2022 12:26,BBB
508,704,96151997,Workface Inc,1500 Jackson St NE # 190,,Minneapolis,MN,55413,USA,8885433244,support@workface.com,http://www.workface.com,85363-000,Online Social Media/Networking,7/1/2006 0:00,,False,A+,100.0,12.0,,False,Small,False,1/3/2023 8:39,BBB
509,704,8001063,Dippin' Dots Ice Cream,414 15th St N,,Fargo,ND,58102,USA,7012325910,,http://www.dippindots.com,50353-000,Ice Cream & Frozen Desserts - Dealers,1/1/1996 0:00,,False,A+,100.0,1.0,,False,Micro-small,False,8/24/2021 4:06,BBB
510,704,96179693,"Mill City Dermatology, P.A.",825 Nicollet Mall Ste 1227,,Minneapolis,MN,55402,USA,6123394843,help@millcitydermatology.com,http://millcitydermatology.com,60672-000,Physicians & Surgeons - Dermatology,8/30/2010 0:00,,False,A+,100.0,1.0,0.0,False,Micro-small,False,10/12/2021 3:56,BBB
511,704,96295416,"North Metro Companies, LLC",2402 Highway 55,,Medina,MN,55340,USA,7636826008,northmetrocollc@aol.com,http://www.northmetrocompanies.com,00155-000,Landscape Contractors,5/1/2010 0:00,,True,A+,100.0,25.0,0.0,False,Small,False,1/24/2023 8:58,BBB
512,704,96023970,"Nelson Realty, Inc",415 S Grove St STE 6,,Blue Earth,MN,56013,USA,5075262109,glowworm@bevcomm.net,http://www.olsonnelsonrealty.com,60729-000,Real Estate,1/1/1983 0:00,,False,NR,0.0,3.0,,False,Micro-small,False,5/30/2022 8:35,BBB
513,704,1000033526,"Roehl Heating, Air & Appliance Repair Inc.",13757 - 155th Street,,Milaca,MN,56353,USA,3202602124,roehlheating@gmail.com,https://www.facebook.com/Roehl-Heating-Air-Appliance-Repair-144281793152694/,10182-000,Heating & Air Conditioning,9/13/2017 0:00,,False,NR,0.0,2.0,0.0,False,Micro-small,False,2/7/2023 9:00,BBB
514,704,96083104,Jasper Engineering & Equipment Co,3800 5th Ave W Ste 1,,Hibbing,MN,55746,USA,2182623421,info-hib@jaspereng.com,http://www.jaspereng.com,80817-000,Industrial Products Wholesalers & Distributors,6/1/1958 0:00,,False,A+,100.0,18.0,,False,Small,False,9/20/2022 17:18,BBB
515,704,1000048106,Serigraphics Sign Systems Inc,2401 Nevada Ave N,,Minneapolis,MN,55427,USA,7632777774,info@serigraphicssign.com,http://Serigraphicssign.com,30614-000,Signs,1/1/1984 0:00,,False,A+,100.0,30.0,,False,Micro-small,False,6/9/2022 8:19,BBB
516,704,96030881,"Ed&#39;s Heating & Air, Inc",1099 Pelto Path,,Woodbury,MN,55129,USA,6517757490,edpelto@edshvac.com,http://www.edshvac.com,10182-000,Heating & Air Conditioning,11/14/2003 0:00,,False,A+,100.0,1.0,,False,Small,False,11/20/2022 8:59,BBB
517,704,1000035816,"Applebee's Services, Inc",1400 Shingle Creek Xing,,Minneapolis,MN,55430,USA,7635661003,,http://applebees.com,50544-000,Restaurants,8/19/1999 0:00,,False,NR,0.0,70.0,0.0,False,Medium,False,6/1/2022 21:28,BBB
518,704,1000045204,Twin Cities Elite Fitness,17372 Jalisco Ln,,Lakeville,MN,55044,USA,6126559765,twincitieselitefitness@gmail.com,https://www.twincitieselitefitness.com/,60429-100,Personal Trainers,2/12/2020 0:00,,False,A+,97.0,1.0,,False,Micro-small,False,11/30/2022 9:27,BBB
519,704,96350840,"Heitz Handbells & Music, LLC",6603 Queen Ave S Ste S,,Richfield,MN,55423,USA,,heitzhandbells@yahoo.com,http://www.heitzhandbells.com,50150-100,Bells,1/21/2010 0:00,,False,A+,100.0,1.0,0.0,False,Micro-small,False,9/3/2021 3:50,BBB
520,704,96143635,Mikey's Country Candy,110 Colton Avenue,PO Box 354,Burlington,ND,58722,USA,7017943510,mikeyscountrycandy@srt.com,http://www.mikeyscountrycandy.com,50129-000,Candy & Confectionery - Retail,11/21/2013 0:00,,False,A+,100.0,1.0,0.0,False,Micro-small,False,5/23/2022 8:18,BBB
521,704,96425711,Kindred At Home,100 S 5th St Ste 1075,,Minneapolis,MN,55402,USA,8665463733,kindredsocial@kindredhealthcare.com,https://www.kindredhealthcare.com/our-services/home-care/about/affiliates/gentiva,60441-100,Home Health Services - Skilled,,,False,A+,100.0,1.0,,False,Micro-small,False,8/5/2022 8:38,BBB
522,704,1000007329,JM Chiropractic LLC,705 Washington Ave S,,Bemidji,MN,56601,USA,2184442070,,https://jmchiro.com/,60205-000,Chiropractors D.C.,3/20/2012 0:00,,False,A+,100.0,1.0,0.0,False,Micro-small,False,1/28/2023 8:48,BBB
523,704,96376095,Treasure Island Metals,830 221st Ave NW,,Oak Grove,MN,55011,USA,,,http://www.treasureislandmetals.com,85278-000,Metal Fabricators,,11/18/2019 0:00,False,NR,0.0,1.0,,False,Micro-small,False,11/21/2022 8:39,BBB
524,704,1000031833,"Kelsey Roseth Communications, LLC",319 W Redwing St,,Duluth,MN,55803,USA,7012384853,kelsey@kelseyroseth.com,http://www.kelseyroseth.com,60231-000,Communication Consultants,8/10/2018 0:00,,False,NR,0.0,1.0,0.0,False,Micro-small,False,10/23/2022 8:01,BBB
525,704,96005726,Patriot Auto Sales,20225 Johnson Memorial Dr,,Jordan,MN,55352,USA,6128122149,,http://www.patriotautosls.com,50040-000,Auto Dealers - Used Cars,,3/2/2017 0:00,False,NR,0.0,,,False,Micro-small,False,3/9/2020 4:24,BBB
526,704,2001171,Mini Bulldogs.com,29259 Twin Lakes Dr,,Bovey,MN,55709,USA,2182470165,,http://www.miniaturebulldogs.com,05195-000,Dog Breeders,,8/25/2016 0:00,False,NR,0.0,,,False,Micro-small,False,7/8/2021 4:20,BBB
527,704,96121885,Mildon Brothers Hot Tubs,5865 Neal Ave N # 310,,Stillwater,MN,55082,USA,6513517727,mildonbrothers@yahoo.com,http://www.mildonbrothershottubs.com,50603-000,Spas & Hot Tubs - Service & Repair,6/30/2009 0:00,,False,A+,100.0,3.0,,False,Micro-small,False,7/16/2022 8:36,BBB
528,704,96117148,Merrick Community Services,715 Edgerton St,,Saint Paul,MN,55130,USA,6517719339,drodriguez@merrickcs.org,https://www.merrickcs.org/,60737-000,Recreation Centers,,,False,A+,100.0,1.0,,False,Small,False,5/26/2022 8:10,Email
529,704,1000009885,Gable Pines at Vadnais Heights,1260 County Road E E,,Vadnais Hts,MN,55110,USA,6518293171,rinkesam@gablepines.com,http://www.gablepines.com/,60758-000,Retirement & Life Care Communities & Homes,1/22/2016 0:00,,False,A+,100.0,1.0,0.0,False,Micro-small,False,8/5/2021 4:11,BBB
530,704,1000043194,FishCoin Tax Relief,7600 Bass Lake Rd Ste 106A,,Minneapolis,MN,55428,USA,6125165878,info@fishcointax.com,https://www.fishcointax.com/,60858-000,Taxes - Consultants & Representatives,4/7/2020 0:00,,False,A+,97.0,1.0,,False,Micro-small,False,1/24/2023 8:59,BBB
531,704,96095044,G.O. Fresh,2521 E Hennepin Ave,,Minneapolis,MN,55413,USA,8003280797,adam@gofresh-precut.com,http://www.gofresh-precut.com,80326-000,Fruits & Vegetables - Wholesale,1/1/2004 0:00,,False,A+,100.0,130.0,,False,Small,False,9/20/2022 15:39,BBB
532,704,1000019393,Edible Arrangements - 1336,10340 Baltimore St NE,,Blaine,MN,55449,USA,7634324320,mn1336@dofruit.com,https://www.ediblearrangements.com/stores/10340-baltimore-street-ne-blaine-mn-55449,50309-000,Gift Baskets & Parcels,,,False,A+,100.0,1.0,0.0,False,Micro-small,False,1/28/2023 8:48,BBB
533,704,1000002539,Interactive Amusements,745 High Street,,Newport,MN,55055,USA,6515288701,dabcoulter@comcast.net,http://www.vintagejukeboxmachines.com,60039-000,Antiques - Repair & Restore,7/24/2015 0:00,,False,A+,100.0,1.0,0.0,False,Micro-small,False,4/30/2020 3:57,BBB
534,704,1000061383,Ascension Business Services LLC,4670 19th st sw,,Forest Lake,MN,55025,USA,6513763746,andrew@ascensioncrm.com,https://www.ascensioncrm.com,60473-600,Digital Marketing,7/15/2022 0:00,,False,A-,91.42,2.0,,False,Micro-small,False,2/8/2023 9:29,BBB
535,704,96176937,"Super 8, Mankato",51578 US Highway 169,,Mankato,MN,56001,USA,5073870600,,https://www.wyndhamhotels.com/super-8/mankato-minnesota/super-8-mankato/overview,60447-000,Hotels,9/8/1976 0:00,,False,F,51.0,8.0,0.0,False,Small,False,7/16/2022 8:36,BBB
536,704,1000005791,Old Log Theatre,5185 Meadville St,,Greenwood,MN,55331,USA,9524745951,greg.frankenfield@oldlog.com,http://www.oldlog.com/,60874-000,Theaters,7/31/1979 0:00,,False,NR,0.0,,0.0,False,Micro-small,False,12/17/2019 4:18,BBB
537,704,1000059251,Scott County Cap Agency,738 1st Ave E,,Shakopee,MN,55379,USA,6124347370,trollymetro02@gmail.com,https://capagency.org/,99998-000,Government Offices,,,False,NR,0.0,1.0,,False,Micro-small,False,10/26/2022 8:42,BBB
538,704,1000005143,"Integrity Pictures, LLC",100 S 1st St,P.o. Box 582673,Minneapolis,MN,55458,USA,6517694533,dan@integritypictures.net,http://www.integritypictures.net,60928-000,Video Production Services,9/2/2016 0:00,,False,A+,100.0,1.0,0.0,False,Micro-small,False,12/28/2022 9:14,BBB
539,704,96161517,Daisy a Day,307 College Ave N,,Saint Joseph,MN,56374,USA,3203630306,,http://www.daisyadayfloral.com,50310-000,Gift Shops,1/1/1996 0:00,,False,NR,0.0,1.0,,False,Small,False,6/17/2022 8:35,BBB
540,704,96359789,Diamond Disc Institute for Spinal Care,12670 Lake Blvd,,Lindstrom,MN,55045,USA,6512573472,diamonddiscinc@gmail.com,http://www.diamonddiscinstitute.com,60205-000,Chiropractors D.C.,4/2/2010 0:00,,False,NR,0.0,3.0,0.0,False,Micro-small,False,6/17/2022 8:35,BBB
541,704,23001480,Arcade Electric Co,1550 91st Ave NE Ste 201,,Minneapolis,MN,55449,USA,6514835066,,http://www.arcadeelectric.com,10049-000,Electricians,1/1/1973 0:00,,False,A+,100.0,5.0,,False,Small,False,10/5/2022 8:45,BBB
542,704,96004902,Twist Production Inc,1435 Natchez Ave S,,Minneapolis,MN,55416,USA,7633779001,jim@twistfilm.com,http://www.twistfilm.com,60928-000,Video Production Services,11/19/1997 0:00,,False,A+,100.0,4.0,,False,Micro-small,False,8/6/2022 8:21,BBB
543,704,96003632,Afton Yacht Sales,16071 31st St S,,Afton,MN,55001,USA,6514361828,,http://aftonyachtsales.com,50473-000,Outboard Motors,7/21/2003 0:00,,False,NR,0.0,,0.0,False,Small,False,2/17/2021 4:34,BBB
544,704,96551782,Fools Lake Campground,28994 Fools Lake Rd,,Crosby,MN,56441,USA,2185466393,,http://foolslakecampground.com/rental.html,60177-000,Campgrounds & RV Parks,6/2/2006 0:00,,False,NR,0.0,1.0,0.0,False,Micro-small,False,3/16/2022 8:53,BBB
545,704,96133437,Minnesota Valley Pet Hospital,505 Madison Ave,,Mankato,MN,56001,USA,5073455900,,http://www.mnvalleypet.com,00107-000,Animal Hospitals,1/1/2007 0:00,,False,A+,100.0,20.0,,False,Micro-small,False,7/8/2022 12:24,BBB
546,704,96255424,Angstrom Analytical Inc,5001 Cedar Lake Rd S,,Minneapolis,MN,55416,USA,9522520405,,http://start.angstromanalytical.com/,60067-000,Asbestos Consulting & Testing,10/6/1993 0:00,,False,A+,100.0,1.0,,False,Micro-small,False,10/22/2022 8:10,BBB
547,704,96379683,PB Remodeling,15614 Kumquat St NW,,Andover,MN,55304,USA,7634344606,pbconstruction@live.com,https://www.live.com/,10035-200,Contractor - Remodel & Repair,,,False,A+,100.0,,,False,Micro-small,False,8/17/2021 4:06,Email
548,704,96108928,Stillwater Trolley Company,400 Nelson St E,,Stillwater,MN,55082,USA,6514300352,,http://www.stillwatertrolley.com,70603-000,Sightseeing Tours,11/3/2008 0:00,,False,A+,100.0,1.0,0.0,False,Micro-small,False,2/17/2022 9:43,BBB
549,704,1000031696,Proactive Maintenance Consultants LLC,15030 Summerhill Dr,,Eden Prairie,MN,55346,USA,6125542664,jwp@pmcmn.com,https://pmcmn.com/,85341-000,Document Imaging & Scanning Service,4/29/2011 0:00,,False,A+,100.0,1.0,0.0,False,Micro-small,False,3/12/2020 4:13,BBB
550,704,7000379,"James Barton Design-Build, Inc",5920 148th St W Ste 100,,Apple Valley,MN,55124,USA,9524311670,info@jbdb.biz,http://www.jbdb.biz,10177-000,Construction & Remodeling Services,1/1/1997 0:00,,False,A+,100.0,16.0,0.0,False,Micro-small,False,2/4/2023 9:01,BBB
551,704,96383547,Major Management Company,2350 7th St W,,Saint Paul,MN,55116,USA,6516903488,,http://www.majormanagement.com,60732-000,Property Management,1/1/1994 0:00,,False,A+,100.0,2.0,,False,Small,False,10/8/2020 4:04,BBB
552,704,96089910,Get Gorgeous Styling Salon,878 Selby Ave,,Saint Paul,MN,55104,USA,6512918997,getgorgeousmn@gmail.com,http://www.getgorgeoussalon.com,60134-000,Beauty Salons,6/17/2007 0:00,,False,A+,100.0,7.0,0.0,False,Small,False,2/17/2021 4:34,BBB
553,704,1000056823,Tumble Fresh Coin Laundry,7616 Currell Blvd,,Saint Paul,MN,55125,USA,6516663982,,https://www.tumblefreshlaundry.com,60497-000,Laundries - Self Service,,,False,B+,88.25,1.0,,False,Micro-small,False,1/16/2023 8:36,BBB
554,704,43001955,Mapleton Area Chamber of Commerce,301 Main St E,,Mapleton,MN,56065,USA,5075244756,info@greatermankato.com,https://gmg.greatermankato.com/NonProfit-Business-Associations-and-Resources/Mapleton-Area-Chamber-of-Commerce-5709,60194-000,Chambers Of Commerce,4/24/1990 0:00,,True,A+,100.0,1.0,0.0,False,Micro-small,False,12/13/2022 9:02,BBB
555,704,96158498,Island Blinds,1687 Woodlane Dr,Ste 212,Woodbury,MN,55125,USA,6123920335,customerservice@islandblinds.com,https://www.islandblinds.com/,50703-000,Venetian Blinds - Dealers,,,False,A+,100.0,1.0,,False,Micro-small,False,7/29/2022 8:30,Email
556,704,96166863,Wilderness at Fortune Bay,1450 Bois Forte Rd,,Tower,MN,55790,USA,2187538917,Info@golfthewilderness.com,http://www.golfthewilderness.com,60410-000,Golf Courses - Public,1/1/2004 0:00,,False,NR,0.0,80.0,,False,Micro-small,False,12/17/2021 4:16,BBB
557,704,8000945,Dakota Warehouse,20 18th St S,,Fargo,ND,58103,USA,7012352021,,http://www.dakotabumper.net,70644-000,Warehouses - Merchandise,6/27/2001 0:00,,False,A+,100.0,12.0,0.0,False,Small,False,8/17/2021 4:07,BBB
558,704,96346549,Penny Mac Solutions,7900 W 78th St Ste 360,,Edina,MN,55439,USA,6123269959,ty.sukalski@pnmac.com,http://www.pennymacusa.com,20050-000,Real Estate Loans,,,True,NR,0.0,4.0,,False,Micro-small,False,2/2/2023 8:52,BBB
559,704,1000035008,ConversionPoint Technologies,1198 65th St Ste 250,,Emeryville,CA,94608,USA,,info@pushint.com,https://www.conversionpoint.com/,62100-000,Online Retailer,5/6/2010 0:00,,False,A+,100.0,1.0,0.0,False,Micro-small,False,6/1/2022 21:27,BBB
560,704,96550782,Kat's Eyes Optical,1016 Woodland Ave,,Duluth,MN,55803,USA,2187243444,kat@katseyesoptical.com,http://www.katseyesoptical.com,50467-000,Optical Goods - Retail,1/14/2014 0:00,,False,NR,0.0,,0.0,False,Micro-small,False,8/17/2019 4:12,BBB
561,704,96072266,Snap Fitness,1309 Oak Ave,,Waconia,MN,55387,USA,9524423815,waconia@snapfitness.com,http://www.snapfitness.com/waconia,60353-000,Exercise & Physical Fitness Programs,1/1/2004 0:00,,False,A+,100.0,1.0,,False,Micro-small,False,3/31/2022 8:34,BBB
562,704,96489348,Quality Concrete Floor Polishing,,,,,,,,,http://qualityconcretefloorpolishing.com/,10032-200,"Concrete - Restoration, Sealing & Cleaning",2/10/2012 0:00,,False,NR,0.0,,0.0,False,Micro-small,False,7/30/2019 3:56,BBB
563,704,96073412,J and R Auto,1883 Frontage Rd,,Mora,MN,55051,USA,3206791262,rich@moramarine.com,http://jandrautomora.com,50040-000,Auto Dealers - Used Cars,4/1/1973 0:00,8/3/2016 0:00,False,NR,0.0,1.0,,False,Small,False,8/5/2019 4:02,BBB
564,704,96591952,"Pebble Creek Custom Homes, LLC",8774 Egan Dr,,Savage,MN,55378,USA,6124054060,derekwalgrave@gmail.com,http://www.pebblecreekch.com,10078-000,Home Builders,2/18/2015 0:00,,True,A+,100.0,1.0,,False,Micro-small,False,7/20/2022 9:11,BBB
565,704,96007139,"Schuster Home Works, Inc.",2305 Beverly Rd,,Saint Paul,MN,55104,USA,6516038802,info@schusterhomeworks.com,http://www.schusterhomeworks.com,10177-000,Construction & Remodeling Services,4/8/2003 0:00,,False,A+,100.0,1.0,0.0,False,Micro-small,False,2/5/2021 4:08,BBB
566,704,38000179,"Don&#39;s Appliance & TV of Minnesota, Inc.",969 Old Minnesota Ave,,Saint Peter,MN,56082,USA,5079313832,donsappl@hickorytech.net,https://www.donsapplianceandtv.com/,50016-000,Appliances - Major - Dealers,1/1/1984 0:00,,False,A+,100.0,6.0,,False,Micro-small,False,7/12/2022 8:32,BBB
567,704,96059948,Cloud 9 Mattress Superstore,2103 Frontage Rd N Ste 5,,Waite Park,MN,56387,USA,3202303400,cloud9matt@gmail.com,http://www.cloud9matt.com,50291-000,Furniture - Retail,3/1/2004 0:00,,False,A+,100.0,2.0,,False,Small,False,5/12/2022 8:37,BBB
568,704,96293887,"Northland Systems, Inc",9560 85th Ave N,,Maple Grove,MN,55369,USA,9525250700,dana@northlandusa.com,http://www.northlandsystems.com,50175-000,Computers - Supplies & Parts,1/1/1997 0:00,,False,A+,100.0,15.0,,False,Small,False,6/29/2021 3:57,BBB
569,704,1000056523,Curt&#39;s Clocks,9013 11th Ave S,,Bloomington,MN,55420,USA,6122444557,curtsclocks@gmail.com,https://curts-clocks-the-atmos-repair-specialist.business.site/,50157-000,Clocks - Service & Repair,,,False,D,64.55,1.0,,False,Micro-small,False,9/17/2022 8:24,BBB
570,704,1000038469,Sprindcore.com,326 S Birch Ave,,Hallock,MN,56728,USA,,,https://sprindcore.com/,60974-000,Internet Shopping,,,False,F,44.72,,,False,Micro-small,False,10/21/2020 3:54,BBB
571,704,96009854,Progressive Home Services,7000 78th Ave N,,Minneapolis,MN,55445,USA,7635664960,joecole@ipmrealty.com,http://www.ipmrealty.com,60729-000,Real Estate,1/1/2000 0:00,9/29/2015 0:00,False,NR,0.0,3.0,,False,Micro-small,False,10/1/2018 4:02,BBB
572,704,96561974,CFS Twin Cities LLC,1163 137th Ln NW,,Andover,MN,55304,,6125648927,cfstwincities@gmail.com,http://customfundraisingsolutions.com,60386-000,Fund Raising Counselors & Orgs,5/22/2013 0:00,,False,A+,97.0,1.0,0.0,False,Micro-small,False,2/9/2023 9:12,BBB
573,704,96141764,Roundbank,102 Main St,,Waldorf,MN,56091,USA,5072392166,,http://www.roundbank.com,20019-100,Insurance Agency,1/1/1984 0:00,,False,A+,100.0,4.0,,False,Micro-small,False,7/15/2022 8:34,BBB
574,704,1000001375,"Card Surge, LLC",PO Box 144,,Sauk Centre,MN,56378,USA,8009853586,support@cardsurge.com,https://www.cardsurge.com,75000-000,Gift Certificates/Cards,4/29/2016 0:00,,True,A+,100.0,1.0,0.0,False,Micro-small,False,12/16/2022 9:11,BBB
575,704,96387265,Noaker Law,,,,,,,,patrick@noakerlaw.com,http://noakerlaw.com,60075-108,Attorneys & Lawyers  - Business Law/Corporation/Partnership,9/6/2013 0:00,,False,NR,0.0,,0.0,False,Micro-small,False,3/28/2021 3:53,BBB
576,704,96371006,GS Gunsmith,14000 Sunfish Lake Blvd NW Ste M,,Ramsey,MN,55303,USA,7637545964,gunsmithmn@comcast.net,http://www.gunsmithmn.com,50326-000,Guns & Gunsmiths,1/1/2011 0:00,,False,A+,100.0,2.0,,False,Small,False,11/12/2020 3:57,BBB
577,704,1000018467,AMG Plumbing & Heating Inc,2465 E Meadow Dr,,Saint Paul,MN,55109,USA,6512484384,andy@amgphmn.com,https://plumbingcontractomaplewood.com/,10113-000,Plumbers,4/20/2018 0:00,,False,A+,100.0,1.0,0.0,False,Micro-small,False,1/27/2023 9:09,BBB
578,704,96206111,Automation Inc,4830 Azelia Ave N Ste 500,,Minneapolis,MN,55429,USA,7635713336,,http://Automationinc.com,80398-000,Industrial Equipment & Supplies,1/1/1993 0:00,,False,NR,0.0,40.0,,False,Micro-small,False,8/6/2022 8:22,BBB
579,704,1000023782,Formaneck Irrigation L.L.C.,12260 CR 32,,Waconia,MN,55387,USA,6122892801,support@formaneckirrigation.com,https://www.formaneckirrigation.com/,70559-000,Irrigation Consultants,12/2/2018 0:00,,False,A+,100.0,1.0,0.0,False,Micro-small,False,2/4/2023 9:01,BBB
580,704,70,"Associated Consultants, Inc.",516 W Franklin Ave,,Minneapolis,MN,55405,USA,6128717700,associatedconsultants@hotmail.com,http://www.associatedconsultantsusa.com,50351-000,Housewares - Retail,11/1/1974 0:00,,True,A+,100.0,4.0,0.0,False,Small,False,9/22/2022 8:55,BBB
581,704,96559965,Minnesota Dirt Works Inc,2500 County Road 42 W STE 105,,Burnsville,MN,55337,USA,9529558118,Info@mndirtworks.com,http://www.mndirtworks.com/,10050-000,Excavating Contractors,11/18/2005 0:00,,False,A+,100.0,1.0,0.0,False,Micro-small,False,7/14/2022 8:24,BBB
582,704,96177481,"Blackstone, Inc.",601 Carlson Pkwy Ste 1525,,Minnetonka,MN,55305,USA,7635939000,jeremyreboulet@gmail.com,http://www.blackstonemn.com,60771-000,Sales Promotion Service,2/1/2010 0:00,4/25/2016 0:00,False,NR,0.0,40.0,,False,Large,False,12/1/2021 4:53,BBB
583,704,96062712,North Central Medical Supply & Equipment,314 Charles St,,Brainerd,MN,56401,USA,2188257331,customerservice@ncmedicalsupply.com,http://www.ncmedicalsupply.com,50066-000,Bed Wetting Aids,6/8/1999 0:00,,False,A+,100.0,30.0,0.0,False,Small,False,6/3/2022 9:01,BBB
584,704,96126086,Floors by Farmer,502 Central Ave N,,Faribault,MN,55021,USA,5073329709,,http://floorsbyfarmer.com/,50133-000,Carpet & Rug Dealers - New,1/1/2008 0:00,,False,A+,100.0,2.0,,False,Micro-small,False,5/5/2022 8:22,BBB
585,704,96100333,Therapy For Me,7570 Market Place Dr,,Eden Prairie,MN,55344,USA,9529440240,info@therapyforme.net,http://www.therapyforme.net/,60620-000,Occupational Therapists,7/30/2008 0:00,,False,A+,100.0,9.0,0.0,False,Micro-small,False,12/10/2021 4:11,BBB
586,704,96372958,Akquracy,800 Washington Ave N Ste 206,,Minneapolis,MN,55401,USA,6126057556,mission@akquracy.com,http://www.akquracy.com,60010-000,Advertising Agencies & Counselors,7/1/2007 0:00,,False,A+,100.0,9.0,,False,Micro-small,False,11/7/2020 4:08,BBB
587,704,824,"Northern Door Company, Inc.",1803 Buerkle Rd Ste 105,,White Bear Lake,MN,55110,USA,6514901599,info@northerndoor.com,http://www.northerndoor.com,85361-000,Garage Door Repair,5/1/1978 0:00,,True,A+,100.0,10.0,0.0,False,Micro-small,False,2/2/2023 8:52,BBB
588,704,1000048475,Zebulon Images Llc,7773 Hilton Rd,,Royalton,MN,56373,USA,3206303377,lynnkull@zebulonimages.com,https://zebulonimages.com/,60980-000,Web Design,12/28/2006 0:00,,False,A+,100.0,1.0,,False,Micro-small,False,6/22/2022 11:35,BBB
589,704,1000035316,"Ultimate Hearing DE, LLC",600 Reed St Ste 107,,Mankato,MN,56001,USA,8774753751,,http://www.ultimatehearingcenter.com/,50337-000,Hearing Aids & Assistive Devices,12/17/2015 0:00,,False,NR,0.0,1.0,0.0,False,Micro-small,False,6/1/2022 21:27,BBB
590,704,1000041641,"Kim Hunter Law, PLLC",656 Selby Ave,,Saint Paul,MN,55104,USA,6516410440,wendy@kimhunterlaw.com,http://www.kimhunterlaw.com/,60075-122,Attorneys & Lawyers  - Immigration & Naturalization,7/9/2002 0:00,,False,A+,100.0,1.0,0.0,False,Micro-small,False,11/9/2022 9:17,BBB
591,704,96276856,Construction & Turnaround Service,Po Box 1072,,Mandan,ND,58554,USA,9184374400,,http://www.willbros.com,10003-000,Air Conditioning Contractors & Systems,1/1/1999 0:00,2/24/2016 0:00,False,NR,0.0,25.0,,False,Micro-small,False,3/28/2020 3:59,BBB
592,704,96116790,Twin Cities Automation,6585 Edenvale Blvd Ste 120,,Eden Prairie,MN,55346,USA,9529740000,info@twincitiesautomation.com,http://www.twincitiesautomation.com,80050-000,Automation Systems & Equipment,11/1/2006 0:00,,False,A+,100.0,10.0,0.0,False,Micro-small,False,1/14/2022 9:30,BBB
593,704,1000015304,McMonagle HVAC & Duct Cleaning,21286 478th Ave,,Lake Crystal,MN,56055,USA,5073511756,,http://www.mcmonaglehvac.com,10182-300,Air conditioning & Heating Contractors - Commercial,8/10/2015 0:00,,False,A+,100.0,1.0,0.0,False,Micro-small,False,1/31/2023 8:46,BBB
594,704,1000015120,Joe Gutter Guy LLC,1005 6th Ave NE,,Austin,MN,55912,USA,5072198740,joegutterguy@gmail.com,http://joe-gutter-guy-llc.business.site/,10073-310,Gutter Contractor,4/29/2017 0:00,,False,A+,100.0,1.0,0.0,False,Micro-small,False,11/30/2022 9:27,BBB
595,704,96010040,"Automation Services, Inc",400 N 10th St,,Lake City,MN,55041,USA,6513455753,patmurphy@asi-e.com,http://www.asi-e.com,60337-000,Engineers - Electrical,6/7/1995 0:00,,False,A+,100.0,10.0,,False,Micro-small,False,10/12/2022 8:42,BBB
596,704,1000038206,Green Nature Cycle,"15612 Highway 7, Suite 310",,Minnetonka,MN,55345,USA,9522344750,,https://green-nature-cycle.business.site,00155-000,Landscape Contractors,6/8/2020 0:00,,False,A,96.11,1.0,0.0,False,Micro-small,False,11/18/2022 9:14,BBB
597,704,25001992,Cahill Back & Neck Care Center,6115 Cahill Ave E,Ste 100,Inver Grove Heights,MN,55076,USA,6514517222,cahillbackandneck@gmail.com,http://www.cbncc.com,60205-000,Chiropractors D.C.,9/13/1982 0:00,,False,A+,100.0,3.0,,False,Small,False,11/8/2022 9:17,BBB
598,704,1000008462,Nice Guy Technology LLC,14925 Energy Way Ste 200,,Apple Valley,MN,55124,USA,6514609040,mike@niceguytechnology.com,https://niceguytechnology.com/,85320-000,Computer Consultant,2/11/2011 0:00,,False,A+,100.0,5.0,0.0,False,Small,False,1/13/2023 9:01,BBB
599,704,96175972,Chiro Center Bloomington,8120 Penn Ave S Ste 525,,Minneapolis,MN,55431,USA,9528841850,,http://Chirocenterbloomington.com,60205-000,Chiropractors D.C.,1/1/1989 0:00,,False,A+,100.0,4.0,,False,Small,False,12/20/2022 21:41,BBB
600,704,96382634,L & D Lawn Care,PO Box 1422,,Bismarck,ND,58502,USA,7012260803,,http://www.goingmowing.com,00157-000,Lawn Maintenance,1/1/2007 0:00,,False,NR,0.0,3.0,,False,Micro-small,False,6/3/2022 9:03,BBB
601,704,96038739,"Aqueduct Plumbing, Inc.",10418 235th St W,,Lakeville,MN,55044,USA,9524691284,,http://www.aqueductplumbingco.com,10113-000,Plumbers,6/6/1999 0:00,,False,A+,100.0,1.0,,False,Micro-small,False,9/14/2022 8:39,BBB
602,704,96350291,"Custom Contracting Solutions, LLC",4386 Highway 281 SE,,Jamestown,ND,58401,USA,7012518106,tom@customcontractingsolutions.com,http://customcontractingsolutions.com,10035-000,Contractors - General,10/1/2009 0:00,,False,A+,100.0,10.0,,False,Micro-small,False,1/19/2023 8:51,BBB
603,704,96093222,First Farmers & Merchants Bank,111 20th St NE,,Stewartville,MN,55976,USA,5075334081,,http://www.ffmbank.com,20003-000,Banks,1/1/2006 0:00,,False,A+,100.0,3.0,,False,Micro-small,False,1/13/2022 9:32,BBB
604,704,1000035196,"Pulte Homes of Minnesota, LLC",4038 112th Cir NE,,Minneapolis,MN,55449,USA,9529367833,Renee.Anderle@Pulte.com,https://www.pulte.com/homes/minnesota,10078-000,Home Builders,4/1/1950 0:00,,True,NR,0.0,55.0,0.0,False,Medium,False,7/21/2022 8:46,BBB
605,704,1000002205,"Total Tool Supply, Inc.",315 Pierce St N,,Saint Paul,MN,55104,USA,8004444899,sara.preimesberger@totaltool.com,https://www.totaltool.com/,60886-000,Tools - Rent,1/3/1977 0:00,,False,A+,100.0,200.0,0.0,False,Medium,False,12/9/2022 9:20,BBB
606,704,96017123,Steve Johnson Tool & Machine,418 2nd St,,Barrett,MN,56311,USA,3205282490,johnsons@runestone.net,https://www.runestone.net/,30366-000,Machine Shops,1/1/1993 0:00,,False,A+,100.0,3.0,,False,Micro-small,False,11/25/2021 4:05,Email
607,704,96568795,Drake Mallard Consulting,18720 28th Ave N,,Minneapolis,MN,55447,USA,,jisen1027@aol.com,http://drakemallardconsulting.com,60451-000,Human Resources,5/20/2015 0:00,4/14/2021 0:00,False,NR,0.0,1.0,0.0,False,Micro-small,False,1/31/2023 8:46,BBB
608,704,96224177,"Kiffmeyer Plumbing, Inc.",2350 75th Ave NE,,Sauk Rapids,MN,56379,USA,3202533159,judy@kiffmeyerplumbing.com,http://www.kiffmeyerplumbing.com,10003-000,Air Conditioning Contractors & Systems,6/2/1998 0:00,,False,A+,100.0,5.0,0.0,False,Micro-small,False,4/22/2022 8:18,BBB
609,704,1000035079,Aerotek,6640 Shady Oak Rd STE 200,,Eden Prairie,MN,55344,USA,8553471935,,http://www.aerotek.com,60326-000,Employment Agencies,,,False,NR,0.0,1.0,0.0,False,Micro-small,False,6/1/2022 21:27,BBB
610,704,96354126,High Voltage Sounds,212 2nd St N,,Virginia,MN,55792,USA,2182880320,hvsounds@yahoo.com,http://www.hvsounds.com,60301-000,Disc Jockeys,9/1/2009 0:00,,False,A+,100.0,1.0,,False,Micro-small,False,1/13/2021 4:46,BBB
611,704,96008706,Beauty Boutique,308 E Lincoln Ave Hwy 19,,Fairfax,MN,55332,USA,5074267465,jkbhschroeder@mchsi.com,http://www.beautyboutique.com,60134-000,Beauty Salons,1/1/1984 0:00,,False,A+,100.0,2.0,0.0,False,Micro-small,False,11/11/2022 9:28,BBB
612,704,96366084,MN Discus & Exotics,5477 W 135th St,,Savage,MN,55378,USA,9528081601,s.langerud@mchsi.com,http://www.manta.com/c/mttsqx6/mn-discus-exotics,50682-000,Tropical Fish,1/1/2007 0:00,,False,A+,100.0,1.0,,False,Micro-small,False,2/12/2022 9:24,BBB
613,704,1000026295,ENKI Brewing Company LLC,1495 Stieger Lake Ln,,Victoria,MN,55386,USA,9523008408,,http://enkibrewing.com/,50070-000,Beer & Ale - Retail,8/27/2012 0:00,,False,NR,0.0,1.0,0.0,False,Micro-small,False,5/9/2022 8:18,BBB
614,704,1000033548,Huerta Brothers,2416 Lonsdale Blvd W,,Northfield,MN,55057,USA,5075812153,,https://www.facebook.com/pg/Huerta-Brothers-Lawn-Care-and-Snow-Removal-Services-269344179765783/about/?ref=page_internal,00155-103,Landscape Maintenance,2/10/2020 0:00,,False,C+,77.0,1.0,0.0,False,Micro-small,False,11/28/2022 8:54,BBB
615,704,96140548,Central Health Care Inc,444 N Cordova Ave,,Le Center,MN,56057,USA,5073572275,,https://centralhealthcarelecenter.com/,60617-000,Nursing Homes,1/1/1984 0:00,,False,A+,100.0,62.0,,False,Small,False,9/30/2022 8:54,BBB
616,704,18350,"LDK Builders, Inc.",8242 125th Ave,,Milaca,MN,56353,USA,7622449001,gjkup1@gmail.com,http://www.ldkbuilders.com,10078-000,Home Builders,1/1/1977 0:00,,True,A+,100.0,5.0,0.0,False,Micro-small,False,10/21/2022 8:07,BBB
617,704,96560665,Dignity Adult Day Care,10550 Wayzata Blvd,,Minnetonka,MN,55305,USA,9522294861,info@dignitymn.com,http://www.dignitymn.com,60283-000,Day Care - Adults,1/15/2015 0:00,,False,A+,100.0,2.0,0.0,False,Micro-small,False,2/18/2021 4:05,BBB
618,704,96051304,Broadband Corp.,585 Highway 7 W,,Hutchinson,MN,55350,USA,9522153800,sales@broadband-mn.com,http://broadband-mn.com/,60473-100,Internet Access Provider,3/22/2005 0:00,,False,A+,100.0,1.0,0.0,False,Micro-small,False,1/31/2023 8:45,BBB
619,704,1000038436,Exploradores IT Services LLC,800 E Franklin Ave,,Minneapolis,MN,55404,USA,6124815816,,http://www.exploradoresit.com/,60245-000,Computers - Service & Repair,3/25/2014 0:00,,False,A+,100.0,1.0,0.0,False,Micro-small,False,12/17/2021 4:16,BBB
620,704,96154762,"Miller Maintenance, Inc.",111 Excelsior Boulevard,,Hopkins,MN,55343,USA,9529889867,mail@millermaint.com,http://www.millermaint.com,00155-000,Landscape Contractors,1/1/1997 0:00,,True,A+,100.0,10.0,,False,Micro-small,False,8/30/2022 8:17,BBB
621,704,1000045633,Carlson Dental Group,1701 Curve Crest Blvd W Ste 100,,Stillwater,MN,55082,USA,6514398840,info@stillwaterbeautifulsmiles.com,https://www.stillwaterbeautifulsmiles.com,60289-000,Dentists,5/9/2018 0:00,,False,A+,100.0,12.0,,False,Micro-small,False,12/15/2022 9:22,BBB
622,704,96018323,Ferguson Truck & Trailer Sales,5525 Highway 63 S,,Rochester,MN,55904,,8005098333,Sue@ferguson-trailersales.com,https://www.ferguson-trailersales.com/,60899-000,Trailers - Rent & Lease,1/1/1984 0:00,,False,A+,100.0,1.0,,False,Micro-small,False,2/9/2023 9:11,BBB
623,704,96159922,Stockman&#39;s Supply Inc,802 Main Ave W,,West Fargo,ND,58078,USA,7012823255,,http://www.stockmens.com,00106-000,Animal Health Products,1/1/1984 0:00,7/19/2022 0:00,False,NR,0.0,27.0,0.0,False,Small,False,7/20/2022 9:10,BBB
624,704,96298631,H2O for Life,1310 Highway 96 E,,Saint Paul,MN,55110,USA,6517567577,Phall@h2oforlifeschools.org,http://www.H2OforLifeSchools.org,61090-000,Non Profit Organizations - General Membership,5/7/2007 0:00,,False,A+,100.0,3.0,,False,Micro-small,False,7/1/2021 4:10,BBB
625,704,96142310,Wendy's Flowers & Scents,814 Main St,,Edgerton,MN,56128,USA,5074424188,,http://www.wendysflowers.net,50275-000,Florists - Retail,10/1/1992 0:00,,False,A+,100.0,4.0,,False,Micro-small,False,2/27/2022 9:14,BBB
626,704,1000015331,Matt Moeller Heating & Cooling LLC,33850 County 1,,Stewartville,MN,55976,USA,5075336288,info@mattmoellerhvac.com,http://www.mattmoellerhvac.com/,10076-000,Heating Contractors,3/12/2016 0:00,,False,A+,100.0,1.0,0.0,False,Micro-small,False,2/3/2023 9:12,BBB
627,704,1000010479,American Family - Steven A Miller Agency LLC,1250 Moore Lake Dr E Ste D,,Fridley,MN,55432,USA,7635719250,,https://agent.amfam.com/steven-miller/,20019-100,Insurance Agency,6/2/2015 0:00,,False,A+,100.0,1.0,,False,Micro-small,False,5/22/2021 3:58,BBB
628,704,96091425,"Wruck Excavating, Inc.",15096 102nd St,,Becker,MN,55308,USA,3202671855,tony@wruckcompanymn.com,http://www.wruckcompanymn.com,10050-000,Excavating Contractors,3/4/2004 0:00,,True,A+,100.0,5.0,0.0,False,Small,False,12/9/2022 9:20,BBB
629,704,96595108,Heidi&#39;s Green Cleaning & Organizing,2542 Ulysses St NE # 1,,Minneapolis,MN,55418,USA,6123843486,heidistasks@gmail.com,http://www.hmtasks.com/,66002-000,Cleaning Services,1/1/2006 0:00,,False,A+,100.0,1.0,0.0,False,Micro-small,False,12/1/2022 9:22,BBB
630,704,96544896,Meadowlark Builders,1325 27th St SE Apt 1,,Minot,ND,58701,USA,7014202743,,http://www.meadowlarkhomesnd.com,50114-000,"Buildings - Pre - Cut, Prefab & Modular - Dealers",8/24/2011 0:00,,False,A+,97.0,1.0,0.0,False,Micro-small,False,3/17/2020 4:04,BBB
631,704,1000008510,"Drealan Kvilhaug Hoefker & Co., P.A.",909 4th Ave Ste A,,Worthington,MN,56187,USA,5073764151,,https://www.tdkcpa.net/,60005-000,Accountants,11/23/1992 0:00,2/21/2020 0:00,False,NR,0.0,4.0,,False,Micro-small,False,12/16/2020 5:07,BBB
632,704,96553793,Des Moines Valley Health and Human Services,407 5th St,,Jackson,MN,56143,USA,5078472366,,http://www.dvhhs.org/,60441-000,Home Health Services,5/1/2013 0:00,,False,A+,100.0,1.0,0.0,False,Micro-small,False,12/8/2021 4:46,BBB
633,704,1000002102,Beard Construction Inc,304 Lincoln St,,Watford City,ND,58854,USA,7018422726,,http://www.beardconstruction.com,10035-000,Contractors - General,1/1/2007 0:00,,False,NR,0.0,5.0,0.0,False,Micro-small,False,1/30/2023 8:33,BBB
634,704,96105264,Mumford Sanitation,PO Box 417,,Howard Lake,MN,55349,USA,3205433601,mumfordsanitation@gmail.com,http://www.mumfordsanitation.com/,70592-000,Rubbish & Garbage Removal,1/1/1925 0:00,,False,A+,100.0,5.0,,False,Micro-small,False,2/2/2023 8:52,BBB
635,704,11003191,Concordia Language Villages,901 8th St S,,Moorhead,MN,56562,USA,2182994544,clv@cord.edu,http://www.ConcordiaLanguageVillages.org,60495-000,Language Schools,1/1/1961 0:00,,False,A+,100.0,125.0,,False,Small,False,9/22/2022 8:55,BBB
636,704,1000017496,LaMere Exteriors,14651 State Road 70,,Grantsburg,WI,54840,USA,7154633194,lamereexteriors@gmail.com,https://www.facebook.com/lamere-exteriors-168899226460980/,10177-000,Construction & Remodeling Services,7/7/2015 0:00,,False,A+,100.0,1.0,0.0,False,Micro-small,False,8/14/2021 4:20,BBB
637,704,96088504,Atlas Specialized Transport Inc,8425 213th St W,,Lakeville,MN,55044,USA,9529855400,JSchubert@atlas-usa.com,http://www.atlas-usa.com,70640-000,Trucking,1/1/1990 0:00,,False,A+,100.0,6.0,,False,Small,False,10/20/2020 3:46,BBB
638,704,96354427,Temo Sunrooms,20400 Hall Rd,,Clinton Township,MI,48038,USA,5862861900,info@temosunrooms.com,http://www.temosunrooms.com,15100-000,Sunroom & Solarium Design & Construction,1/1/1991 0:00,,False,NR,0.0,150.0,,False,Medium,False,6/1/2022 21:26,BBB
639,704,13001109,"Alpine Asphalt, Inc.",1822 Monroe St NE,,Minneapolis,MN,55418,USA,6127068018,office@alpineasphalt.com,https://alpineasphalt.com,10102-000,Paving Contractors,1/1/1989 0:00,,False,NR,0.0,7.0,,False,Micro-small,False,7/8/2022 12:21,BBB
640,704,96106636,"Absolute Pest Elimination, LLC",1027 7th St NW Ste 106A,,Rochester,MN,55901,USA,8777078200,paulgrimes@charter.net,http://www.absolutepestelimination.com,60650-000,Pest Control Services,4/1/2000 0:00,,False,A+,100.0,7.0,,False,Micro-small,False,3/18/2022 8:14,BBB
641,704,96089832,Landcaster Builders,7127 130th St W,,Lonsdale,MN,55046,USA,5077444969,nate@landcasterbuilders.com,http://www.landcasterbuilders.com,10078-000,Home Builders,1/1/2000 0:00,,False,A+,100.0,1.0,,False,Micro-small,False,12/14/2022 9:35,BBB
642,704,1000051519,Rion Health Inc.,"202 4th Street SW ? Suite 480,",,Rochester,MN,55902,USA,5072060201,info@riontx.com,https://riontx.com/,60971-000,Health & Medical - General,6/9/2014 0:00,,False,A+,100.0,1.0,,False,Micro-small,False,12/15/2021 4:25,BBB
643,704,1000007581,A Fitting Place LLC,16511 Anna Trl SE Ste 3,,Prior Lake,MN,55372,USA,6127498774,darci@afittingplacemn.com,https://www.facebook.com/AFittingPlaceMN,80364-150,Wigs & Hairpieces,5/9/2003 0:00,,False,A+,100.0,1.0,0.0,False,Micro-small,False,1/26/2023 8:50,BBB
644,704,96161765,Autumn Hills Assisted Living,2528 Park Ave NW,,Bemidji,MN,56601,USA,2183333854,autumn@paulbunyan.net,http://www.autumnhillsbemidji.com,61002-000,Assisted Living Centers & Adult Family Homes,9/28/2005 0:00,,False,A+,100.0,14.0,0.0,False,Micro-small,False,2/8/2022 9:23,BBB
645,704,96576347,"Prosperity Team, LLC",3432 Denmark Ave. Ste. 212,,Saint Paul,MN,55123,USA,,,http://www.joinipas2.com,20092-000,Multi-Level Selling Companies,,6/15/2018 0:00,False,NR,0.0,,,False,Micro-small,False,6/22/2021 4:12,BBB
646,704,96091621,Pet Central,2700 Central Ave NE,,Minneapolis,MN,55418,USA,6124247444,frontdesk@petcentralanimalhospital.com,http://www.petcentralanimalhospital.com,00222-000,Veterinarians,1/1/2008 0:00,,False,A+,100.0,15.0,0.0,False,Micro-small,False,5/21/2020 4:03,BBB
647,704,96381503,Jimmy John's,219 Oak St SE,,Minneapolis,MN,55414,USA,6123317827,,http://www.jimmyjohns.com,50555-000,Sandwiches,1/1/2010 0:00,,False,A+,100.0,20.0,0.0,False,Small,False,1/21/2022 9:35,BBB
648,704,1000035419,OneMain Financial,1151 Ryans Rd,Ste 108,Worthington,MN,56187,USA,5073723790,,https://www.onemainfinancial.com/,20049-000,Consumer Finance & Loan Companies,,6/10/2022 0:00,True,NR,0.0,1.0,0.0,False,Micro-small,False,9/14/2022 8:40,BBB
649,704,96149916,Rimage Corporation,7725 Washington Ave S,,Minneapolis,MN,55439,USA,9529448144,sales@rimage.com,http://www.rimage.com,80191-000,Computers - Wholesale & Manufacturers,2/1/1987 0:00,,False,A+,100.0,135.0,0.0,False,Small,False,11/8/2022 9:18,BBB
650,704,51000751,Expert Carpet Care,2809 Robinwood Way,,Woodbury,MN,55125,USA,6514909208,rodloum@msn.com,http://www.expertcare.com,60184-000,Carpet & Rug Cleaners,1/1/1986 0:00,4/25/2016 0:00,False,NR,0.0,2.0,,False,Micro-small,False,4/29/2019 4:01,BBB
651,704,1000024205,Nicety Towing,14731 Cobalt St NW Unit 19,UNIT 19,Ramsey,MN,55303,USA,7632452619,nicetytowing@gmail.com,https://nicetytowing.com/,60891-000,Towing - Automotive,10/12/2017 0:00,,False,A+,100.0,1.0,0.0,False,Micro-small,False,12/2/2021 4:07,BBB
652,704,96382256,Search Results LLC,2751 Hennepin Ave PMB 252,,Minneapolis,MN,55408,USA,,,http://www.searchresults.com,60236-000,Computer Software Publishers & Developers,,,False,A+,100.0,1.0,,False,Micro-small,False,3/16/2022 8:52,BBB
653,704,96383161,Lake Wine and Spirits,404 W Lake St,,Minneapolis,MN,55408,USA,6123547194,,http://lakewinespirits.com/,50399-000,Liquor Stores,1/1/2011 0:00,,False,NR,0.0,4.0,,False,Micro-small,False,8/30/2022 8:18,BBB
654,704,22000451,Minnesota Energy Resources Corporation,2685 145th St W,,Rosemount,MN,55068,USA,8008899508,,http://www.minnesotaenergyresources.com,70554-000,Natural Gas Companies,7/1/2006 0:00,,True,A+,100.0,223.0,,False,Large,False,2/1/2023 8:57,BBB
655,704,96122225,"Bare Escentuals, Inc.",71 Stevenson St,Fl 22,San Francisco,CA,94105,USA,4154895000,,http://www.bareescentuals.com,61036-000,Door-to-Door Sales - Cosmetics,1/1/1994 0:00,,False,NR,0.0,80.0,,False,Medium,False,6/1/2022 21:25,BBB
656,704,96084466,"Tile Plus of Minnesota, Inc.",16100 Valley Rd,,Eden Prairie,MN,55347,USA,,tileplus@mail.blitzlink.com,http://www.bbb.org/minnesota/business-reviews/tile-ceramic-contractors-and-dealers/tile-plus-of-minnesota-in-eden-prairie-mn-96084466?isbureau=Y&language=1,10159-000,Tile - Ceramic - Contractors & Dealers,4/15/1992 0:00,6/27/2018 0:00,False,NR,0.0,2.0,,False,Micro-small,False,2/15/2019 4:05,BBB
657,704,1000022509,Apple Valley Massage,7373 147th St W Ste 108,,Apple Valley,MN,55124,USA,6514606755,,http://applevalleymassage.massagetherapy.com/,60543-000,Massage Therapists,11/11/2012 0:00,,False,A+,100.0,1.0,0.0,False,Micro-small,False,6/22/2021 4:12,BBB
658,704,96343177,"Premier Disability Services, LLC",7225 Northland Dr N Ste 300,,Minneapolis,MN,55428,USA,9522364900,customercare@premierdisability.com,http://www.premierdisability.com,60816-000,Social Security Services,11/29/2010 0:00,,True,A+,100.0,255.0,0.0,False,Large,False,1/31/2023 8:46,BBB
659,704,96160023,Westside Liquor,1227 Timberlane Dr,,Sauk Centre,MN,56378,USA,3203525920,bfeuling@westsideliquor.com,http://www.westsideliquor.com,50399-000,Liquor Stores,1/1/1979 0:00,,False,A+,100.0,10.0,0.0,False,Small,False,11/27/2021 3:52,BBB
660,704,96111548,"The Graphics Guys, LLC",15605 Highway 65 NE Ste 200,,Ham Lake,MN,55304,USA,7634137012,thegraphicsguys@comcast.net,http://www.graphicsguyswraps.com,60413-000,Graphic Designers,1/1/1984 0:00,,True,A+,100.0,3.0,,False,Micro-small,False,1/25/2023 9:00,BBB
661,704,1000016395,Premier Estates Inc,10041 140th Ave NE,,Saint Hilaire,MN,56754,USA,2186810304,trfestates@gmail.com,http://premier-estates.net/,60729-000,Real Estate,3/16/2011 0:00,,False,NR,0.0,1.0,0.0,False,Micro-small,False,4/30/2022 8:10,BBB
662,704,96220606,Custom Computers & Software,PO Box 310,,Sherburn,MN,56171,USA,5077647022,info@ccsinc.org,http://www.ccsinc.org/,50173-000,Computers - Dealers,10/1/1997 0:00,,False,A+,100.0,2.0,,False,Small,False,10/25/2022 8:10,BBB
663,704,1000020705,Precision IT Solutions,700 Cedar St Ste 7,,Alexandria,MN,56308,USA,3207592321,info@pitsmn.com,https://www.pitsmn.com/,60473-000,Internet Services,,,False,A+,97.0,1.0,0.0,False,Micro-small,False,7/30/2021 4:17,BBB
664,704,96003072,"KKE Architects, Inc.",520 Nicollet Mall Ste 200,,Minneapolis,MN,55402,USA,6123394200,tgerster@kke.com,http://www.kke.com,60057-000,Architects,6/1/1968 0:00,4/28/2016 0:00,False,NR,0.0,50.0,,False,Micro-small,False,4/29/2019 4:01,BBB
665,704,96088628,Comfort Keepers #456,8362 Tamarack Vlg # 230,,Saint Paul,MN,55125,USA,6517797740,twincitieseast@comfortkeepers.com,http://www.comfortkeepers.com,60441-000,Home Health Services,2/1/2003 0:00,4/25/2016 0:00,False,NR,0.0,25.0,,False,Large,False,10/14/2020 4:45,BBB
666,704,96025049,Energy Mechanical Services Inc.,18539 Lakeview Point Dr NE,,East Bethel,MN,55092,USA,6122219383,energymechanical@aol.com,https://www.facebook.com/pages/category/Heating--Ventilating---Air-Conditioning-Service/Energy-mechanical-services-inc-196080587094400/,10182-000,Heating & Air Conditioning,4/1/2006 0:00,,False,A+,100.0,1.0,,False,Micro-small,False,11/15/2022 9:11,BBB
667,704,96352987,JAKE Construction Group,,,,,,,,,http://www.jakeconstructiongroup.com,10035-000,Contractors - General,7/27/2011 0:00,,False,NR,0.0,,0.0,False,Micro-small,False,3/17/2021 4:43,BBB
668,704,96554788,Zar Corporation,80 S 8th St STE 900,,Minneapolis,MN,55402,USA,6124554558,tom@zarcorp.com,http://www.zarcorp.com,30531-000,Printers,9/21/1989 0:00,,False,A+,100.0,2.0,0.0,False,Micro-small,False,9/30/2022 8:54,BBB
669,704,1000000035,"Klein Lawn and Landscape,LLC",198 Griggs Street South,,Saint Paul,MN,55105,USA,6518955895,kleinlawnlandscape@gmail.com,https://www.facebook.com/kleinlawnandlandscape/,00157-000,Lawn Maintenance,2/21/2013 0:00,,False,NR,0.0,1.0,0.0,False,Micro-small,False,12/5/2020 4:10,BBB
670,704,96569277,Milnor Market Incorporated,108 S Cascade St,,Fergus Falls,MN,56537,USA,2189984330,rickell@fintegra.net,http://www.richardell.com,50322-000,Grocers - Retail,5/27/2015 0:00,,False,NR,0.0,1.0,0.0,False,Micro-small,False,7/9/2019 4:16,BBB
671,704,96084830,Mandarin Yang,3412 County Road 101 S,,Wayzata,MN,55391,USA,9524731824,,http://www.mandarinyang.com,50544-000,Restaurants,1/1/1984 0:00,,False,A+,100.0,7.0,,False,Micro-small,False,6/3/2022 9:01,BBB
672,704,1000052001,Eric&#39;s Heating & A/C L.L.C.,10374 175th St NE,,Foley,MN,56329,USA,3202922213,ericheating1@gmail.com,https://www.facebook.com/Erics-Heating-AC-103306205531822,10182-000,Heating & Air Conditioning,11/30/2021 0:00,,False,A-,92.94,1.0,,False,Micro-small,False,2/2/2023 8:53,BBB
673,704,96030738,Genghis Grill,1304 Town Centre Dr,,Saint Paul,MN,55123,USA,6514522363,,http://www.genghisgrill.com,50544-000,Restaurants,1/1/2005 0:00,8/1/2022 0:00,False,NR,0.0,20.0,,False,Small,False,8/2/2022 8:44,BBB
674,704,96022409,"LuminAir Innovations, Inc",592 Hayward Ave N,,Saint Paul,MN,55128,USA,6513409216,luminair@comcast.net,http://www.luminairinnovations.com,10182-000,Heating & Air Conditioning,3/1/2005 0:00,1/25/2016 0:00,False,NR,0.0,2.0,,False,Micro-small,False,3/4/2019 4:22,BBB
675,704,57000264,"The Remodeler Shop, Inc.",23960 Hawthorne Ave N,,Forest Lake,MN,55025,USA,6512307382,info@theremodelershop.com,http://www.theremodelershop.com,10035-000,Contractors - General,1/1/1993 0:00,11/18/2015 0:00,False,NR,0.0,1.0,,False,Micro-small,False,11/26/2018 3:52,BBB
676,704,1000008248,Oasis Chiropractic PA,7424 E Point Douglas Rd S,,Cottage Grove,MN,55016,USA,6514585565,oasischiro@mail2world.com,http://cottagegrovechiro.com/,80001-000,Abrasives,12/16/2002 0:00,,False,NR,0.0,1.0,0.0,False,Micro-small,False,1/24/2023 8:58,BBB
677,704,1000051960,Symmetry Acupuncture & Chinese Herbs L. L. C.,112 1st Ave SW,,Rochester,MN,55902,USA,5072181264,senwang@symmetrytcm.com,https://www.symmetrytcm.com/,60007-000,Acupuncturists,7/6/2021 0:00,,False,A-,91.27,1.0,,False,Micro-small,False,1/8/2022 9:20,BBB
678,704,1000008915,"Rapid River Logging Camp, Inc",15073 County 18,,Park Rapids,MN,56470,USA,2187323444,kenneth@rapidriverloggingcamp.com,http://www.rapidriverloggingcamp.com,60179-000,Camps,6/27/2012 0:00,,False,A+,100.0,1.0,0.0,False,Micro-small,False,2/10/2017 4:03,BBB
679,704,96013092,"Allied Camera Repair Service, Inc.",820 Pine St W,,Stillwater,MN,55082,USA,,sales@alliedcamera.com,http://www.alliedcamera.com,50490-000,Photographic Equipment - Repair,1/1/1984 0:00,,False,NR,0.0,1.0,,False,Micro-small,False,11/23/2020 3:56,BBB
680,704,1000008542,"Minnowa Construction, Inc.",850 Wickett Dr NW,,Harmony,MN,55939,USA,5078866162,qthorson@minnowa.com,http://www.minnowa.com/,10121-000,Road Building Contractors,3/6/1984 0:00,,False,A+,100.0,1.0,0.0,False,Micro-small,False,2/24/2022 9:31,BBB
681,704,96110397,"Baby Baby, Inc.",20 2nd Ave SW Ste 91M,,Rochester,MN,55902,USA,5072861295,sales@babybabyonline.net,https://www.babybaby101.com/,55093-000,Clothing - Retail,8/1/1999 0:00,,False,A+,100.0,5.0,,False,Small,False,7/20/2022 19:34,BBB
682,704,96122007,"Houseworks Construction, Inc.",14037 Belmont Trl,,Rosemount,MN,55068,USA,6514850505,houseworks.inc@charter.net,http://www.houseworksconstruction.com,10177-000,Construction & Remodeling Services,1/1/2009 0:00,,False,A+,100.0,1.0,0.0,False,Micro-small,False,9/4/2020 4:07,BBB
683,704,96179275,"Cochrane Law Office, P.A.",2780 Snelling Ave N Ste 209,,Roseville,MN,55113,USA,6514866928,chuck@cochranelawoffice.com,http://www.cochranelawoffice.com,60075-143,Attorneys & Lawyers - Workers Compensation,2/22/1995 0:00,10/4/2021 0:00,False,NR,0.0,3.0,,False,Small,False,10/6/2021 4:13,BBB
684,704,1000019169,"DMI Builders and Recycling, LLC",705 Main Ave E Ste 5,Suite 5,West Fargo,ND,58078,USA,7014901249,NDOTY@dmibuildersandrecycling.com,http://www.dmibuildersandrecycling.com,10035-000,Contractors - General,5/7/2018 0:00,,False,A+,100.0,5.0,0.0,False,Micro-small,False,11/29/2022 9:07,BBB
685,704,96550598,Radon Testing of Minnesota,10740 Zenith Ave S,,Bloomington,MN,55431,USA,6128755345,greg@radontestingmn.com,http://www.radontestingmn.com,61026-000,Radon Testing & Service,11/20/2013 0:00,,False,A+,100.0,1.0,0.0,False,Micro-small,False,11/20/2022 8:59,BBB
686,704,96134429,Zahrbock Funeral Chapel,108 2nd Ave Ste 1,,Madison,MN,56256,USA,3205983339,,http://www.zahrbockfuneralhome.com,61013-000,Funeral Related Services,1/1/1984 0:00,,False,A+,100.0,4.0,0.0,False,Micro-small,False,3/1/2022 9:57,BBB
687,704,96230578,Wold's RV Sales LLC,2221 Highway 10 W,,Detroit Lakes,MN,56501,USA,2188475471,woldsrvsales@msn.com,http://www.woldsrvsales.com,50535-000,Recreational Vehicles - Dealers,1/1/2009 0:00,,False,A+,100.0,8.0,,False,Small,False,11/12/2021 4:01,BBB
688,704,1000002083,Best Choice Construction LLC,855 34th Avenue East,Suite 213,West Fargo,ND,58078,USA,7634390411,rdalbec@gmail.com,http://www.bestchoiceconstruction.net/,10006-000,Kitchen & Bath - Design & Remodeling,11/25/2015 0:00,,False,A+,100.0,1.0,0.0,False,Micro-small,False,1/5/2023 9:23,BBB
689,704,96161408,Alex Power Equipment,111 50th Ave W,,Alexandria,MN,56308,USA,3207634994,allanb@alexpowerequipment.com,http://www.alexpowerequipment.com,50557-000,Saws,8/23/2002 0:00,,False,A+,100.0,16.0,0.0,False,Small,False,12/13/2022 9:03,BBB
690,704,1000041541,Mardell D Presler LLC,3616 Major Ave N,,Robbinsdale,MN,55422,USA,7633607833,Mardell@mardellpreslerlaw.com,https://mardellpreslerlaw.com/,60075-000,Attorneys & Lawyers,12/16/2016 0:00,,False,A+,100.0,1.0,0.0,False,Micro-small,False,10/19/2021 4:00,BBB
691,704,1000017412,Planet Soccer,1465 101st Ave NE,,Blaine,MN,55449,USA,7632087186,,https://www.facebook.com/PlanetSoccerBlaine/,60815-000,Soccer Clubs,,,False,A+,100.0,1.0,0.0,False,Micro-small,False,6/10/2022 8:24,BBB
692,704,96558581,"Desautels Bartosiewski & Associates CPAs, LLC",1309 Highway 29 N # 101,,Alexandria,MN,56308,USA,3207635188,chriscpa@dbacpa.net,http://www.dbacpa.net,60004-000,Accountants - Certified Public,10/31/2011 0:00,,False,A+,100.0,1.0,0.0,False,Micro-small,False,10/6/2022 8:21,BBB
693,704,96364321,TM Counseling,4651 Nicols Rd STE 104,,Eagan,MN,55122,USA,6513739440,tmcounseling@live.com,http://www.tmcounseling.com,60540-000,"Marriage, Family, Child, Individual Counselors",2/1/2015 0:00,,False,A+,100.0,1.0,,False,Micro-small,False,6/24/2021 4:06,BBB
694,704,1000056031,Driven LLC ,21170 Eaton Ave Ste C,,Farmington,MN,55024,USA,6128439727,sales@drivenmn.com,https://drivenmn.com/,60094-000,Auto Body Repair & Painting,3/1/2022 0:00,,False,NR,0.0,1.0,,False,Micro-small,False,5/29/2022 8:12,BBB
695,704,1000058046,Rink-Tec International Inc,3485 Willow Lake Blvd Ste 500,,Vadnais Heights,MN,55110,USA,6514811190,officemanager@rinktec.com,https://www.rinktec.com/,55601-000,Refrigeration,,,False,NR,0.0,1.0,,False,Micro-small,False,12/22/2022 9:09,Email
696,704,96030459,Mounds View Animal Hospital,2625 Highway 10 NE,,Mounds View,MN,55112,USA,7637808351,mvanimalhospital@cs.com,http://www.moundsviewanimalhosp.com,00107-000,Animal Hospitals,7/5/1988 0:00,,False,A+,100.0,30.0,,False,Small,False,2/2/2022 9:42,BBB
697,704,96139334,"A-1 Glass Co., Inc.",883 W 5th St,,Winona,MN,55987,USA,5074548181,mark@a-1glass.com,http://www.a-1glass.com,60404-000,Glass - Plate and Window,1/1/1972 0:00,,False,NR,0.0,2.0,,False,Micro-small,False,8/20/2022 8:40,BBB
698,704,96545139,Bullseye Financial,PO Box 60,,Monticello,MN,55362,USA,7632952236,,http://www.bullseyecollectionagency.com,60226-000,Collection Agencies,6/20/2008 0:00,,False,A+,100.0,12.0,,False,Micro-small,False,1/20/2022 9:52,BBB
699,704,1000003577,Kwik Trip ,7220 West Highway 61,,Winona,MN,55987,USA,5074526230,,http://www.kwiktrip.com,50199-000,Convenience Stores,8/30/2013 0:00,,False,NR,0.0,1.0,0.0,False,Micro-small,False,6/1/2022 21:27,BBB
700,704,22002478,"Four Seasons Air Specialists, Inc",4457 White Bear Pkwy # B,,Saint Paul,MN,55110,USA,6514265254,howard@4seasonsairwbl.com,http://www.4seasonsairwbl.com,10003-000,Air Conditioning Contractors & Systems,1/1/1984 0:00,,False,A+,100.0,5.0,,False,Micro-small,False,7/8/2022 12:21,BBB
701,704,44001497,Keller Residential Inc,2281 Hampden Ave STE B,,Saint Paul,MN,55114,USA,6516465404,info@kellerres.com,http://www.kellerres.com,50252-000,Fence Contractors,2/1/1987 0:00,,False,A+,100.0,10.0,,False,Micro-small,False,3/3/2022 9:50,BBB
702,704,1000055735,Sutherland CBD,4431 E Superior St,,Duluth,MN,55804,USA,2184641002,family@sutherlandcbd.com,https://www.sutherlandcbd.com,81000-800,CBD Oil,5/10/2022 0:00,,False,A-,91.25,5.0,0.0,False,Micro-small,False,11/8/2022 9:19,BBB
703,704,57000431,Lakewood Clinic,49725 County 83,,Staples,MN,56479,USA,2188941515,customerexperience@lakewoodhealthsystem.com,http://www.lakewoodhealthsystem.com/,60218-000,Clinics,1/1/1990 0:00,,False,A+,100.0,3.0,0.0,False,Micro-small,False,10/21/2022 8:07,BBB
704,704,96346190,"Analytics Consulting, LLC",18675 Lake Dr E,,Chanhassen,MN,55317,USA,9524045700,rsimmons@analyticsllc.com,http://www.analyticsllc.com,60075-000,Attorneys & Lawyers,1/1/2008 0:00,,False,F,51.0,25.0,,False,Small,False,12/15/2022 9:21,BBB
705,704,96071792,Construction Bulletin,684 Glencoe Rd,,Excelsior,MN,55331,USA,8772648684,Ric.Thompson@reedbusiness.com,http://www.acppubs.com,80502-000,"News Publications - Trade, Association",,,False,A+,100.0,,,False,Micro-small,False,3/28/2020 3:59,BBB
706,704,96063230,Natural Therapeutics,427 Vermillion St,,Hastings,MN,55033,USA,6512952698,david@creatingreality.com,http://creatingreality.com/dr-david-blackie-natural-therapeutics/,60605-000,Naturopaths,9/22/2002 0:00,,False,A+,100.0,1.0,,False,Small,False,1/3/2023 8:39,BBB
707,704,96176245,"Re-Mod Construction, LLC",9318 Minnesota Ln N,,Maple Grove,MN,55369,USA,6122026000,,http://www.remodconstruction.com,10035-000,Contractors - General,12/26/2008 0:00,11/17/2016 0:00,False,NR,0.0,6.0,,False,Micro-small,False,11/18/2019 4:08,BBB
708,704,96384145,Zierke Built Manufacturing Inc,120 6th Ave SE,,Winnebago,MN,56098,USA,5078933688,,http://www.zierkebuilt.com,80786-000,Welding Equipment & Supplies,1/1/1998 0:00,,False,A+,100.0,30.0,,False,Small,False,2/2/2023 8:52,BBB
709,704,1000044803,Prime Effects Marketing LLC,8375 Sunnyside Rd,,Robbinsdale,MN,55422,USA,6519558143,kurtis@prime-effects-marketing.com,https://primeeffectsmarketing.com,60473-200,Search Engine Optimization Services,6/2/2018 0:00,,False,A+,98.84,1.0,0.0,False,Micro-small,False,12/15/2021 4:25,BBB
710,704,1000052452,FM Drywall Inc,3266 37 1/2 Ave S,,Fargo,ND,58104,USA,7013611591,,http://memberzone.hbafm.com/list/member/fm-drywall-fargo-2809,10046-000,Drywall Contractors,9/4/2013 0:00,,False,A+,100.0,1.0,0.0,False,Micro-small,False,3/25/2022 8:41,BBB
711,704,1000034607,Seamless Transitions LLC,7665 Crosswind Ct,,Lakeville,MN,55044,USA,6127184843,katie@seamlesstransitionsmn.com,https://seamlesstransitionsmn.com/,85296-000,Elderly/Senior Specialty Services,1/20/2020 0:00,,False,A+,97.0,1.0,0.0,False,Micro-small,False,11/7/2022 9:16,BBB
712,704,17004174,Granite City Moving & Storage Inc,207 14th Ave E,,Sartell,MN,56377,USA,3202521311,dustin@granitecitymoving.com,http://,70571-000,Movers,1/1/1964 0:00,,False,A+,100.0,15.0,,False,Small,False,12/14/2022 9:35,BBB
713,704,96137510,Mal-O-Sen Co Inc,465 Spiral Blvd,,Hastings,MN,55033,USA,6514372134,jerry@mal-o-sen.com,http://www.mal-o-sen.com,50191-000,Countertops,1/1/1970 0:00,,False,A+,100.0,14.0,0.0,False,Micro-small,False,2/4/2021 4:07,BBB
714,704,96158375,Dry Gate Weather Seals,1917 State Ave,,Anoka,MN,55303,USA,7634212146,,http://www.dry-gate.com,60095-100,Auto Accessories,1/1/2005 0:00,,False,NR,0.0,1.0,,False,Micro-small,False,3/9/2020 4:24,BBB
715,704,1000037982,Altus Architecture LTD,420 2nd St,,Excelsior,MN,55331,USA,6123338095,taalt@altusarch.com,https://www.altusarch.com/,60057-000,Architects,8/28/1995 0:00,,False,A+,100.0,1.0,0.0,False,Micro-small,False,6/22/2021 4:12,BBB
716,704,1000044656,Afterglow Studios Inc,1610 Norwood Dr,,Eagan,MN,55122,USA,6123322828,info@afterglowstudios.com,http://afterglowstudios.com/,60928-000,Video Production Services,12/27/2007 0:00,,False,A+,100.0,1.0,0.0,False,Micro-small,False,6/18/2021 3:56,BBB
717,704,96140898,"Beacon Promotions, Inc.",2121 N Bridge Street,,New Ulm,MN,56073,USA,6124543540,,http://www.beaconpromotions.com/,30344-000,Leather Goods - Wholesale & Manufacturers,4/4/2003 0:00,,False,A+,100.0,1.0,0.0,False,Small,False,6/3/2022 9:02,BBB
718,704,96191761,"Greg Foote Jewelers, Inc.",1075 Hadley Ave N Ste 100,,Oakdale,MN,55128,USA,6512277324,footeprints@q.com,http://www.gregfootejewelers.com,50367-000,Jewelers - Retail,1/1/2008 0:00,,False,A+,100.0,1.0,,False,Micro-small,False,7/31/2022 8:23,BBB
719,704,96024478,Summit Air Industries LLC,14228 23rd Ave N,,Plymouth,MN,55447,USA,9527466680,melissa@summitairfq.com,https://www.summitairfq.com/,80013-000,Air Purifying & Cleaning Systems & Equipment,1/1/1994 0:00,,False,A+,100.0,5.0,,False,Medium,False,9/22/2022 8:55,BBB
720,704,1000017061,"Abe&#39;s Plumbing & Heating, LLC",217 44th Ave SW,,Backus,MN,56435,USA,2188386133,,http://www.abesplumbingandheating.com/,10113-300,Plumbing - Renovation & Repair ,4/12/2010 0:00,,False,A+,100.0,1.0,0.0,False,Micro-small,False,2/7/2023 9:00,BBB
721,704,96012130,Re/Max Associates Plus,2677 Bunker Lake Blvd NW,,Ham Lake,MN,55304,USA,7633236248,dennis.anderson@results.net,http://www.everyhomeeverywhere.com,60729-000,Real Estate,,,False,A+,100.0,1.0,,False,Micro-small,False,8/5/2022 8:37,BBB
722,704,21003683,"American Electric, Inc",832 Bellvue Ln,,Minneapolis,MN,55430,USA,7635665777,AmericanElectricMN@gmail.com,http://www.americanelectricmn.com,10049-000,Electricians,6/1/1978 0:00,,False,A+,100.0,9.0,,False,Small,False,9/30/2022 8:53,BBB
723,704,96150600,Law Offices of Christian M. Dillon,23 Journey,,Aliso Viejo,CA,92656,USA,7149213048,,http://www.foreclosurereliefcenter.net,25054-000,Foreclosure Services,,,False,NR,0.0,,,False,Micro-small,False,5/21/2016 2:56,BBB
724,704,1000044714,theecomgoat.com,365 Nicollet Mall,,Minneapolis,MN,55401,USA,,,https://theecomgoat.com/,60588-000,Motivational & Self Improvement Training,,4/28/2021 0:00,False,NR,0.0,,,False,Micro-small,False,4/30/2021 4:07,BBB
725,704,45000923,"Reliable Medical Supply, LLC",9401 Winnetka Ave N,,Brooklyn Park,MN,55445,USA,7632553800,reliamed@reliamed.com,http://www.reliamed.com,80385-100,Medical Equipment & Supplies,1/12/1989 0:00,,False,A+,100.0,170.0,0.0,False,Small,False,11/29/2022 9:07,BBB
726,704,96138008,Minnesota Ace Billiards League,437 Ruby Dr,,Saint Paul,MN,55118,USA,6514539390,tvruno@comcast.net,http://www.acebilliardsleague.com,60141-000,Billiard Parlors,9/1/2000 0:00,,False,A+,100.0,3.0,,False,Micro-small,False,5/29/2022 8:11,BBB
727,704,1000007722,Epitome Papers,261 School Ave Ste 110,Suite 110,Greenwood,MN,55331,USA,9527773620,info@epitomepapers.com,http://www.epitomepapers.com/,80686-000,Stationery - Wholesale & Manufacturers,12/19/2005 0:00,,False,NR,0.0,1.0,0.0,False,Micro-small,False,1/21/2023 8:56,BBB
728,704,96004014,Becker Area Chamber of Commerce,12060 Sherburne Ave,PO Box 313,Becker,MN,55308,USA,7632622420,chamber@beckerchamber.org,http://www.beckerchamber.org,60194-000,Chambers Of Commerce,3/1/1986 0:00,,True,A+,100.0,1.0,,False,Micro-small,False,1/24/2023 8:57,BBB
729,704,1000006738,EPIC Endeavors Preschool Academy,20 9th St SE,,Rochester,MN,55904,USA,5073195709,epicendeavorsacademy@gmail.com,http://www.epicendeavorsacademy.com/,85331-200,Child Parent Development Centers,11/4/2015 0:00,,False,A+,100.0,3.0,0.0,False,Micro-small,False,7/27/2021 4:13,BBB
730,704,96382660,Roat Osha,2650 Hennepin Ave,,Minneapolis,MN,55408,USA,6123774418,crzyegg@gmail.com,https://roatosha.com/,50544-000,Restaurants,10/15/2008 0:00,,False,A+,100.0,30.0,,False,Small,False,9/21/2022 10:05,BBB
731,704,96571221,US Pressure Test Inc.,14049 Hwy 2,,Williston,ND,58801,USA,7017748378,info@uspressuretest.com,http://www.uspressuretest.com/,60940-100,Pressure Washers,5/9/2012 0:00,,False,NR,0.0,1.0,0.0,False,Micro-small,False,2/4/2023 9:01,BBB
732,704,96160660,Speltz Custom Building,105 Misty Ln,,Minnesota City,MN,55959,USA,5074522086,kcspeltz@hbci.com,https://www.hbci.com/,50121-000,Cabinets,10/22/1986 0:00,,False,A+,100.0,1.0,,False,Micro-small,False,3/15/2018 4:03,Email
733,704,96014768,DL&#39;s Radiator & Exhaust,109 West HWY 55,,Buffalo,MN,55313,USA,7636824520,classiccarguy55@hotmail.com,https://www.facebook.com/pages/Dls-Radiator-and-Exhaust/150594908317244,60724-000,Radiators - Automotive,9/14/2005 0:00,,True,A+,100.0,1.0,,False,Small,False,12/9/2022 9:20,BBB
734,704,1000047813,ARTA Child Care Center Inc,3401 Chicago Ave,,Minneapolis,MN,55407,USA,6128861312,,https://www.facebook.com/arta-child-care-1934829116762369/,60199-000,Child Care Centers,2/18/2020 0:00,,False,A+,97.0,1.0,0.0,False,Micro-small,False,12/6/2022 9:13,BBB
735,704,1000013226,Midwest Mastercraft Inc,5160 W Broadway Ave,,Crystal,MN,55429,USA,7635339666,andy@waterskis.com,https://www.waterskis.com/,50082-000,Boat Dealers,7/10/2002 0:00,,False,A+,100.0,15.0,0.0,False,Micro-small,False,1/7/2022 14:14,Email
736,704,96296108,Wells Municipal Liquor,21 S Broadway,,Wells,MN,56097,USA,5075533226,,http://www.cityofwells.net,50399-000,Liquor Stores,1/1/1988 0:00,,False,NR,0.0,9.0,0.0,False,Micro-small,False,2/16/2022 10:05,BBB
737,704,96116114,Otten Law Offices,12400 Portland Ave Ste 175,,Burnsville,MN,55337,USA,9527363300,info@ottenlaw.com,http://www.ottenlaw.com,60075-000,Attorneys & Lawyers,1/25/1988 0:00,,True,A+,100.0,3.0,0.0,False,Micro-small,False,7/8/2022 12:23,BBB
738,704,1000054297,Velos Construction Inc,17017 78th Ct N,,Osseo,MN,55311,USA,7633463378,atsapov@velosmn.com,https://www.velosmn.com/,55525-000,Construction,3/17/2022 0:00,,False,A-,91.81,1.0,0.0,False,Micro-small,False,12/6/2022 9:13,Email
739,704,96383469,"Just Ask Paul, LLC",14033 Round Lake Blvd NW,,Andover,MN,55304,USA,7633237285,paul@justaskpaul.info,http://www.justaskpaul.info,60245-000,Computers - Service & Repair,5/28/2003 0:00,,False,A+,100.0,1.0,,False,Small,False,2/1/2023 8:57,BBB
740,704,1000003729,Animal Eye Specialty Center PA,13783 Ibis St NW Ste 800,,Andover,MN,55304,USA,7637673937,referrals@animaleyespecialtycenter.com,https://www.animaleyespecialtycenter.com,00222-000,Veterinarians,1/1/2007 0:00,,False,A+,100.0,4.0,0.0,False,Micro-small,False,2/8/2023 19:16,BBB
741,704,96136532,"D.F.W. Roofing, Inc.",22741 E Bethel Blvd NE,,East Bethel,MN,55005,USA,6127708502,dfwroofinginc@gmail.com,http://dfwroofingcorp.com/,10126-200,Commercial Roofing,7/9/2008 0:00,,False,A+,100.0,3.0,0.0,False,Micro-small,False,9/16/2022 8:14,BBB
742,704,1000032286,Signs by Dan,1119 4th Street East,,Williston,ND,58801,USA,7015726212,signsbytam@hotmail.com,https://www.signsbydanwilliston.com/,30614-000,Signs,,,False,NR,0.0,1.0,0.0,False,Micro-small,False,1/13/2023 9:01,BBB
743,704,96010781,"Star Tutoring Service, LLC",6708 Emerson Ave S,,Richfield,MN,55423,USA,6128660566,startutoringservice@yahoo.com,http://www.StarTutoring.com,60912-000,Tutoring,5/1/2003 0:00,,False,A+,100.0,1.0,,False,Micro-small,False,1/24/2023 8:57,BBB
744,704,96084848,Jim's Repair Refrigeration & Heating,119 W Main St,,Taylor,ND,58656,USA,7019743663,jswolf@ndsupernet.com,https://www.ndsupernet.com/,80600-000,Refrigeration Equipment - Commercial - Sales & Service,1/1/1980 0:00,,False,A+,100.0,2.0,,False,Micro-small,False,5/11/2021 4:04,Email
745,704,96037167,Daryl Hansen Architect,3841 Thomas Ave S,,Minneapolis,MN,55410,USA,6129206232,dha@isd.net,http://www.architectur-rugs.com,60057-000,Architects,1/1/1981 0:00,,False,A+,100.0,1.0,,False,Micro-small,False,3/10/2021 4:42,BBB
746,704,96374714,Mister Squeegee,8355 Ashton Ave,,Inver Grove,MN,55077,USA,6124324250,mistersqueegee@live.com,http://www.mistersqueegee.biz,60954-000,Window Cleaning,4/11/2012 0:00,,False,A+,100.0,,0.0,False,Micro-small,False,6/24/2021 4:06,BBB
747,704,96549877,Ken's Sewer Service,,,,,,,,,http://kensewer.com,10113-000,Plumbers,6/20/2014 0:00,,False,NR,0.0,,0.0,False,Micro-small,False,3/21/2021 3:53,BBB
748,704,96218346,Sorenson&#39;s Appliance & TV,101 North Central Ave,,Geneva,MN,56035,USA,5072567258,sales@SorensonsAppliance.com,http://www.sorensonsappliance.com,50016-000,Appliances - Major - Dealers,1/1/1984 0:00,,False,A+,100.0,12.0,,False,Small,False,11/18/2022 9:13,BBB
749,704,1000049568,Figuretoyz,1201 Broadway Ave S,,Rochester,MN,55904,USA,5073845660,contact@figuretoyz.com,https://www.figuretoyz.com/,62100-000,Online Retailer,9/22/2021 0:00,,False,NR,0.0,1.0,,False,Micro-small,False,7/31/2022 8:23,Email
750,704,96562618,Kenneth M. Wasche PC,13060 Central Ave NE Ste 200,,Blaine,MN,55434,USA,7632805100,,http://www.kmwasche.com,60075-000,Attorneys & Lawyers,,,False,A+,100.0,1.0,0.0,False,Micro-small,False,9/28/2021 3:52,BBB
751,704,96203434,Upsize Minnesota,3033 Excelsior Blvd Ste 400,,Minneapolis,MN,55416,USA,6129200701,wbergstrom@upsizemag.com,http://www.upsizemag.com/,30545-000,Publishers - Periodical,,,False,A+,100.0,1.0,,False,Micro-small,False,8/26/2020 4:59,BBB
752,704,96005137,Kincaid's,8400 Normandale Lake Blvd,,Minneapolis,MN,55437,USA,9529212255,,http://www.kincaids.com,50544-000,Restaurants,1/1/1987 0:00,,False,A+,100.0,125.0,0.0,False,Medium,False,5/27/2022 8:35,BBB
753,704,1000044540,"B. P. METALS, LLC",1611 99th Ln NE,,Blaine,MN,55449,USA,7637853883,blake@bpmetals.us,http://www.bpmetals.us/,85278-100,Metal Fabricating Machinery,2/23/2011 0:00,,False,A+,100.0,1.0,,False,Micro-small,False,12/20/2022 8:57,BBB
754,704,96009414,Hydro Seeding Creations,6405 Green Valley Rd,,Anoka,MN,55303,USA,6122213475,hydroseeder@msn.com,http://www.hydroseedingcreations.com/sitebk/index.html,80390-000,Hydroponics - Equipment & Supplies,10/25/2004 0:00,,False,A+,100.0,3.0,,False,Micro-small,False,11/10/2021 4:13,BBB
755,704,1000011631,Alexander Exteriors,5100 Edina Industrial Blvd Ste 209,,Edina,MN,55439,USA,9522589926,info@AlexanderExteriorsMN.com,https://www.alexanderexteriorsmn.com,10126-000,Roofing Contractors,7/16/2016 0:00,,True,A+,100.0,8.0,0.0,False,Micro-small,False,6/3/2022 9:03,BBB
756,704,96098932,Great Mandarin Restaurant,8251 Flying Cloud Dr Ste 1206,,Eden Prairie,MN,55344,USA,9529419828,,http://www.great-mandarin.com,50544-000,Restaurants,1/1/2004 0:00,,False,A+,100.0,10.0,,False,Micro-small,False,11/16/2021 3:59,BBB
757,704,1000055917,A-Team Fence LLP,5916 113 1/2 Ave N,,Champlin,MN,55316,USA,7634202500,ggynild.bsi@gmail.com,https://www.ateamfence.com/contact-us,85264-010,Fence Services,3/8/2022 0:00,,True,A-,92.5,1.0,,False,Micro-small,False,9/14/2022 8:40,BBB
758,704,96036175,State Auto Insurance,PO Box 1980,,Indianapolis,IN,46206,USA,3179317000,,http://www.stateauto.com,20019-000,Insurance Companies,1/1/2003 0:00,,False,A+,100.0,500.0,0.0,False,Large,False,8/4/2022 8:29,BBB
759,704,1000047603,Farrell&#39;s Extreme Bodyshaping,9893 Maple Grove Parkway,,Maple Grove,MN,55369,USA,6122458933,maplegrove@extremebodyshaping.com,https://fxbmaplegrove.com/,60430-100,Fitness Centers,7/1/2021 0:00,,False,A,94.0,1.0,,False,Micro-small,False,2/5/2023 8:42,BBB
760,704,21005207,"Old Home Foods, Inc.",7808 Creekridge Cir Ste 320,,Minneapolis,MN,55439,USA,6513128900,,http://www.oldhomefoods.com,80228-000,Dairy Products - Wholesale,12/12/2001 0:00,,False,A+,100.0,16.0,,False,Small,False,10/29/2021 3:55,BBB
761,704,1000054089,Sabrius Electric LLC,23581 Heather Street NW,,Saint Francis,MN,55070,,7634781043,sabriuselectric@gmail.com,https://www.facebook.com/SabriusElectric,10035-500,Electricians - Residential,9/27/2021 0:00,,False,A-,93.42,1.0,,False,Micro-small,False,2/9/2023 9:12,BBB
762,704,96090730,Legent Communications Corporation,,,,,,,,attorney@oistadonline.com,http://www.legentcom.com,70620-000,Telephone Service - Long Distance,,,False,NR,0.0,1.0,,False,Micro-small,False,8/5/2022 8:38,BBB
763,704,96088027,Minnesota Disaster Restoration Services,2750 County Road 74,,Saint Cloud,MN,56301,USA,3202524545,mndrs1@peoplepc.com,http://www.stcloudwaterrestoration.com,60367-000,Fire & Water Damage Restoration,1/1/2002 0:00,,False,A+,100.0,3.0,,False,Micro-small,False,9/10/2022 8:38,BBB
764,704,1000011908,Indoorenvironclean LLC,14747 Olivine St NW,,Ramsey,MN,55303,USA,6129990899,assaelquintero@gmail.com,http://www.airductfree.com,60312-100,Air Duct Cleaning,6/6/2016 0:00,,False,A+,100.0,1.0,0.0,False,Micro-small,False,1/10/2023 8:49,BBB
765,704,96376757,"Booker??s Tree Care, Ltd.",5480 Arnold Rd ,,Duluth,MN,55803,USA,2183437837,bookerstreecareltd@gmail.com,http://www.bookerstreecare.com/,00219-000,Tree Service,2/11/2015 0:00,,False,A+,100.0,1.0,,False,Micro-small,False,9/10/2022 8:39,BBB
766,704,1000008929,Trading Post,204 Main Ave S,,Park Rapids,MN,56470,USA,2187324509,,http://www.tradingpostonmain.com/,55093-000,Clothing - Retail,6/19/2007 0:00,,False,A+,100.0,1.0,0.0,False,Micro-small,False,9/27/2020 3:58,BBB
767,704,96387106,Adarve Prosthodontics,15322 Galaxie Ave STE 205,,Apple Valley,MN,55124,USA,8888166160,,http://www.applevalleyprosthodontics.com,60289-103,Dentist - Dental Implants,,,False,A+,100.0,1.0,,False,Micro-small,False,11/18/2021 4:09,BBB
768,704,96006466,"American Laser Centers, Inc",3440 O&#39;Leary Lane,Suite 102,Eagan,MN,55123,USA,2484268250,operator@alcpartner.com,http://www.americanlaser.com,60420-000,Hair Styling and Services,3/1/2003 0:00,,False,NR,0.0,3.0,,False,Micro-small,False,10/27/2022 8:14,BBB
769,704,96014535,"Treecare, Inc.",PO Box 358,,Excelsior,MN,55331,USA,6127198733,info@treecaretoday.com,http://www.treecaretoday.com,00219-000,Tree Service,1/1/1990 0:00,,True,A+,100.0,8.0,,False,Micro-small,False,1/26/2023 8:49,BBB
770,704,96012510,Value Added Movers,950 3rd St,,St Paul Park,MN,55071,USA,3202894351,info@valueaddedmoving.com,http://www.valueaddedmovers.com/,10079-000,Home Improvements,8/1/2004 0:00,,False,A,94.0,1.0,,False,Micro-small,False,9/17/2022 8:23,BBB
771,704,1000002262,Veterinary Hospitals Association,370 Bridgepoint Dr,,South Saint Paul,MN,55075,USA,6514516669,customerservice@veterinaryha.org,http://veterinaryha.org/,61090-000,Non Profit Organizations - General Membership,12/10/1984 0:00,,False,NR,0.0,1.0,0.0,False,Micro-small,False,7/8/2022 12:28,BBB
772,704,1000016517,Chins Up LLC,PO Box 558,,Winsted,MN,55395,USA,3202826636,charlie@chinsupusa.com,https://www.chinsupusa.com/,50576-000,Shirts - Custom Made,8/23/2017 0:00,7/28/2021 0:00,False,NR,0.0,2.0,,False,Micro-small,False,6/22/2022 11:35,Email
773,704,96006740,Maximum Recovery Systems Inc,24 13th Ave N,,Waite Park,MN,56387,USA,8005473403,info@maximumrecoverysystems.com,http://www.maximumrecoverysystems.com,60226-000,Collection Agencies,3/26/1996 0:00,,False,A+,100.0,1.0,,False,Micro-small,False,9/28/2021 3:51,BBB
774,704,96153549,St Mane Sporting Goods,4149 28th Ave S,,Minneapolis,MN,55406,USA,6127221447,,http://www.stmanes.com/,50608-000,Sporting Goods - Retail,6/1/1962 0:00,,False,A+,100.0,3.0,0.0,False,Small,False,7/8/2022 12:25,BBB
775,704,96002791,"Specialty Products & Technology, Inc.",10924 Leaping Deer Ln,,Eden Prairie,MN,55344,USA,9529333006,grask@scecialtyprod.com,http://specialtyprod.com,30790-000,"Food Manufacturers, Wholesalers, Distributors",1/1/1984 0:00,,False,A+,100.0,2.0,,False,Small,False,4/7/2020 4:06,BBB
776,704,17000502,Masonite International,1 N Dale Mabry Hwy Ste 950,,Tampa,FL,33609,USA,8138772726,question@masonite.com,https://www.masonite.com/,10135-000,Siding Contractors,1/1/1927 0:00,,False,A+,100.0,500.0,,False,Large,False,8/4/2022 8:29,BBB
777,704,1000010973,"Exceptional Outdoor Living, LLC",3680 194th St W,,Farmington,MN,55024,USA,6126193831,paulschlafman@gmail.com,http://www.eol-llc.com,10035-000,Contractors - General,7/21/2016 0:00,,False,A+,100.0,1.0,0.0,False,Micro-small,False,1/13/2023 9:01,BBB
778,704,17005248,"Bever Landscape Design Group, LLC",2456 125th Avenue NE,,Minneapolis,MN,55449,USA,6514267733,chuck.palmer@beverlandscaping.com,http://www.beverlandscaping.com,00155-000,Landscape Contractors,5/1/1969 0:00,9/1/2018 0:00,False,NR,0.0,2.0,,False,Micro-small,False,2/16/2022 10:04,BBB
779,704,96131001,Express Point Technology,10900 Wayzata Blvd Ste 800,,Hopkins,MN,55305,USA,7635436000,,http://www.expresspoint.com,60246-100,Computers - Programming,1/1/2005 0:00,,False,A+,100.0,225.0,,False,Small,False,6/26/2020 4:02,BBB
780,704,96277190,Stock Growers Bank,324 Main Ave,,Napoleon,ND,58561,USA,7017542226,,http://Stockgrowersbanknapoleon.com,20003-000,Banks,1/1/1984 0:00,,False,A+,100.0,11.0,0.0,False,Micro-small,False,4/24/2022 8:09,BBB
781,704,1000034856,General Electric,GE Consumer & Industrial Appliance Park,AP3-232,Louisville,KY,40225,USA,8003861215,,http://www.geappliances.com,50017-000,Appliances - Major - Parts & Supplies,1892-01-01 00:00:00,,False,NR,0.0,3400.0,0.0,False,Large,False,6/1/2022 21:26,BBB
782,704,14003860,"Rockford Management & Maintenance, Inc.",3361 Republic Ave,,Minneapolis,MN,55426,USA,9529295154,pete@rockfordinc.com,http://www.ryancompanyinc.com/index.html,60731-000,Real Estate Consultants,1/1/1968 0:00,5/27/2016 0:00,False,NR,0.0,7.0,,False,Micro-small,False,6/3/2019 4:08,BBB
783,704,96202001,Holt Lock & Key,3728 12th Ave S,,Minneapolis,MN,55407,USA,6128229522,,http://www.holtlocksmith.com,60522-000,Locks & Locksmiths,1/1/2001 0:00,,False,NR,0.0,1.0,,False,Micro-small,False,7/8/2022 12:25,BBB
784,704,96007874,Reinking Financial Consulting,18455 Pathfinder Dr,,Eden Prairie,MN,55347,USA,9529492166,ricardo@reinkingfinancialconsulting.com,http://www.reinkingfinancialconsulting.com,20012-000,Financial Planning Consultants,8/1/2003 0:00,,False,A+,100.0,3.0,,False,Micro-small,False,12/14/2022 9:35,BBB
785,704,96114720,Cumberland Enterprises,110 Cheshire Ln,Ste 350,Hopkins,MN,55305,USA,9524287700,hr@clandenterprises.com,http://www.clandenterprises.net,60538-000,Marketing Consultants,,4/25/2016 0:00,False,NR,0.0,,,False,Small,False,4/29/2019 4:01,BBB
786,704,96006728,"ClearWave Hearing Instruments, Inc.",2700 Broadway Ave N,,Rochester,MN,55906,USA,5072818989,apinvoiceus60@dgs.com,http://www.clearwavehearing.com/,50337-000,Hearing Aids & Assistive Devices,3/1/2003 0:00,,False,A+,100.0,4.0,,False,Small,False,8/4/2022 8:29,BBB
787,704,96009222,National Creative Enterprises Inc,12120 12th Ave S,,Burnsville,MN,55337,USA,9528901360,sales@ncebattery.com,https://nceempoweringsafety.com/,80385-100,Medical Equipment & Supplies,10/12/2004 0:00,,False,A+,100.0,4.0,,False,Micro-small,False,1/22/2022 9:32,BBB
788,704,96558990,Monster Tree Service,16526 W 78th St # 320,,Eden Prairie,MN,55346,USA,6129991089,minneapolis@whymonster.com,http://www.minneapolis.whymonster.com,00219-000,Tree Service,3/25/2014 0:00,,False,A+,100.0,5.0,,False,Small,False,2/4/2023 9:01,BBB
789,704,96383667,"O&#39;Malley Concrete, Inc.",1243 W Prairie St,,Le Center,MN,56057,USA,6127563060,Kelly@OmalleyConcrete.com,http://www.omalleyconcrete.com,10032-000,Concrete Contractors,12/5/2012 0:00,,True,A+,100.0,2.0,,False,Micro-small,False,7/8/2022 12:27,BBB
790,704,1000022472,"Juergens Builders, LLC",1290 Diamond Ct S,,Shakopee,MN,55379,,6123668096,juergensbuilders@gmail.com,http://www.juergensbuilders.com,10035-000,Contractors - General,5/12/2009 0:00,,False,A+,100.0,1.0,0.0,False,Micro-small,False,2/9/2023 9:12,BBB
791,704,1000025534,"Northern Escapes Home Improvement, LLC",25816 Ida Dr,,Nevis,MN,56467,USA,2185071101,mattchafos@gmail.com,https://www.facebook.com/Northern-Escapes-Home-Improvement-1258380960941952/,10095-000,Painting Contractors,4/4/2017 0:00,,False,A+,99.17,3.0,0.0,False,Micro-small,False,3/17/2022 8:44,BBB
792,704,96195765,G R Promotions,3782 Burgundy Dr,,Eagan,MN,55122,USA,9527361900,jennifer@grpromotions.com,http://www.grpromotions.com,60771-300,Promotional Products,1/1/2001 0:00,,False,A+,100.0,7.0,,False,Small,False,2/4/2023 9:01,BBB
793,704,96564184,"North Shore Cleaning Services, Inc.",2021 Highway 61 ,,Two Harbors,MN,55616,USA,2182605743,april.schultz@northshorecleaningservices.net,http://northshorecleaning.business.site,60449-000,House Cleaning,3/1/2010 0:00,,False,A+,100.0,5.0,0.0,False,Micro-small,False,8/23/2022 8:26,BBB
794,704,1000028540,Barbacoa American & Mexican Food,441 Railroad Avenue,,Albany,MN,56307,USA,3204031590,david@myglobaldata.com,https://www.barbacoaam.com/,50544-000,Restaurants,12/30/2018 0:00,,False,A+,97.16,1.0,0.0,False,Micro-small,False,11/11/2021 4:02,BBB
795,704,1000018933,Maribel Garcia - Keller Williams Integrity Lakes,1350 Lagoon Ave Ste 900,,Minneapolis,MN,55408,USA,6123854085,maribelgarcia@kw.com,https://www.garciasellshomes.com/,60729-102,Real Estate Agents,8/9/2002 0:00,,False,A+,100.0,,0.0,False,Micro-small,False,12/1/2020 4:03,BBB
796,704,1000004126,AIM Networking,872 54th Avenue,,Winona,MN,55987,USA,5074594409,dbittner21@hotmail.com,https://www.aimtoamplify.com,60538-000,Marketing Consultants,5/3/2012 0:00,,False,A+,100.0,1.0,0.0,False,Micro-small,False,3/8/2022 9:29,BBB
797,704,1000007774,"Crow River Dental, P.A.",405 Babcock Blvd E Ste 130,,Delano,MN,55328,USA,7632761410,smiles@crowriverdental.com,http://www.crowriverdental.com/,60289-000,Dentists,12/11/2011 0:00,,True,A+,100.0,10.0,0.0,False,Small,False,9/30/2022 8:54,BBB
798,704,96364679,Traxler Security,3600 Minnehaha Ave Ste 1,,Minneapolis,MN,55406,USA,6128127051,,http://www.traxlersecurity.com,60789-000,Security Guard & Patrol Service,1/1/2006 0:00,,False,A+,100.0,1.0,0.0,False,Micro-small,False,11/10/2021 4:13,BBB
799,704,96232757,Victory Home Sales Inc,42807 County Highway 9,,Pelican Rapids,MN,56572,USA,2188636639,scott@victoryhomes.net,http://www.Victoryhomes.net,50431-000,Manufactured Homes - Dealers,3/26/2012 0:00,,False,A+,100.0,9.0,0.0,False,Micro-small,False,9/14/2022 8:39,BBB
