,BBBID,BusinessID,BusinessName,StreetAddress,StreetAddress2,City,StateProvince,PostalCode,Country,Phone,Email,Website,TOBID,TOBDescription,DateBusinessStarted,DateBusinessClosed,IsBBBAccredited,BBBRatingGrade,BBBRatingScore,NumberOfEmployees,NumberOfPartTimeEmployees,IsHQ,SizeOfBusiness,IsCharity,CDWLastUpdate,FoundVia
0,704,96360886,"Grant&#39;s Precision Painting, LLC",2160 Grimm Rd,,Chaska,MN,55318,USA,6128608102,grantsprecisionpainting@gmail.com,http://www.grantsprecisionpainting.com,10095-000,Painting Contractors,4/28/2011 0:00,,False,A+,100.0,1.0,0.0,False,Micro-small,False,11/29/2022 9:07,BBB
1,704,96504270,"SC Cleaning Services, LLC",13000 Harriet Ave S Apt 126,,Burnsville,MN,55337,USA,9524056023,sccleaningservices@gmail.com,http://www.sccleaningservices.com,66002-000,Cleaning Services,7/15/2013 0:00,,False,A+,100.0,1.0,,False,Micro-small,False,11/3/2021 4:22,BBB
2,704,1000047607,JRS Heart Foundation,4308 29th Ave south,,Minneapolis,MN,55406,USA,7152239891,joshua.r.rolfwalz@gmail.com,https://jrsheartfoundation104.workplace.com/profile.php?id=100070153208120,88100-000,Employee Assistance Programs,,,False,A,94.0,1.0,,False,Micro-small,False,2/5/2023 8:42,BBB
3,704,1000001500,YMCA--Bismarck,1608 N Washington St.,,Bismarck,ND,58501,USA,7012551525,,http://www.bismarckymca.org/,60430-100,Fitness Centers,,,False,NR,0.0,1.0,0.0,False,Micro-small,False,6/15/2022 9:02,BBB
4,704,96119794,ARP Wave LLC,7721 145th St W,,Saint Paul,MN,55124,USA,9524319708,onlinesupport@arpwave.com,http://www.arpwave.com,60971-000,Health & Medical - General,1/1/2000 0:00,,False,A+,100.0,35.0,0.0,False,Small,False,2/8/2023 9:28,BBB
5,704,14000649,Wildlife Management Services,7441 Jolly Ln,,Brooklyn Park,MN,55428,USA,7634249111,wildlifemanagementservicesmn@gmail.com,http://www.wmsmn.com,70517-100,Animals - Nuisance Control - Trapping,1/1/1989 0:00,,True,A+,100.0,15.0,,False,Small,False,11/18/2022 9:13,BBB
6,704,96355563,A Weise Choice Construction LLC,4576 Embassy Cir NE,,Prior Lake,MN,55372,USA,6125995169,awcconstruction@gmail.com,http://www.awcconstruction.com/,10035-000,Contractors - General,9/27/2011 0:00,,False,A+,100.0,1.0,0.0,False,Micro-small,False,8/20/2021 4:25,BBB
7,704,96503332,All in One Painting & Decoration,111 2nd Ave NW,,Hankinson,ND,58041,USA,2183293181,allinone@gomoorhead.com,http://www.allinonepaintingnd.com,10095-300,Painters - Commercial or Residential,,,False,A+,100.0,1.0,,False,Micro-small,False,9/1/2022 8:30,BBB
8,704,96126284,Salon Capri,200 8th Ave NW Ste 8,,Faribault,MN,55021,USA,5073320585,salon.capri@live.com,http://saloncaprimn.com,60134-000,Beauty Salons,2/15/1999 0:00,,False,A+,100.0,6.0,0.0,False,Small,False,3/22/2022 8:36,BBB
9,704,96089337,WC Construction,4511 Sandywood Ct SE,,Rochester,MN,55904,USA,5072520987,wayne@wcconstruct.com,http://www.wcconstruct.com,10177-000,Construction & Remodeling Services,1/1/1999 0:00,,False,A+,100.0,1.0,,False,Micro-small,False,4/8/2021 4:07,BBB
10,704,96293285,"Clearwater Recreation, LLC",329 E Lake St,,Waconia,MN,55387,USA,9524421820,clearwaterrec@msn.com,http://www.clearwaterrecreation.com,30509-000,Playground Equipment,5/5/2004 0:00,8/4/2021 0:00,False,NR,0.0,1.0,0.0,False,Micro-small,False,2/1/2023 8:57,BBB
11,704,96030300,"Grainger, Inc.",4444 Round Lake Rd W,,Arden Hills,MN,55112,USA,6516365737,brn.497@grainger.com,http://grainger.com,80201-100,Construction Equipment Sales / Services,1/1/1927 0:00,,False,A+,100.0,14.0,,False,Small,False,12/27/2022 8:49,BBB
12,704,1000044497,"Brad Aschnewitz Construction, LLC",320 W Adolphus Ave,,Fergus Falls,MN,56537,USA,2182054408,bradaschnewitz@yahoo.com,https://www.facebook.com/bradaschnewitzconstructuon/,10035-000,Contractors - General,10/23/2020 0:00,,True,A,94.64,4.0,,False,Micro-small,False,8/31/2022 9:00,BBB
13,704,96550729,Toonstra Psychological Services,107 SE 10th St STE 2,,Grand Rapids,MN,55744,USA,2182597424,jeff@paulbunyan.net,https://www.paulbunyan.net/,60710-000,Psychologists,7/16/2014 0:00,,False,A+,100.0,1.0,0.0,False,Micro-small,False,2/18/2022 9:11,Email
14,704,1000018827,Amazing Lash Studio Woodbury,530 Woodbury Dr Ste 100,,Woodbury,MN,55125,USA,6515643200,woodbury@amazinglashstudio.com,https://www.amazinglashstudio.com/studios/mn/minneapolis/woodbury,60603-000,Nail Salons,11/16/2016 0:00,,False,A,94.0,1.0,0.0,False,Micro-small,False,5/19/2022 8:39,BBB
15,704,24000605,"Dents Unlimited, Inc.",110 Roosevelt Rd,,Saint Cloud,MN,56301,USA,3206560113,scott@dentsunlimitedinc.com,http://www.dentsunlimitedinc.com/,60094-000,Auto Body Repair & Painting,6/15/1992 0:00,,False,A+,100.0,5.0,0.0,False,Small,False,3/16/2022 8:49,BBB
16,704,1000023848,Beartooth Forestry LLC,3800 W 104th St.,,Bloomington,MN,55431,USA,6122501224,nate@beartoothforestry.com,https://beartoothforestry.com/,00219-000,Tree Service,6/25/2018 0:00,,False,A+,100.0,1.0,0.0,False,Micro-small,False,1/27/2023 9:09,BBB
17,704,96162759,Ries Electric Company,777 Concord St N,,South Saint Paul,MN,55075,USA,6514512238,johnr@rieselectric.com,http://www.rieselectric.com,10049-000,Electricians,1/1/1953 0:00,,False,A+,100.0,15.0,,False,Small,False,5/11/2022 8:36,BBB
18,704,96035109,Villeroy & Boch USA Inc,3A S Middlesex Ave,,Monroe Township,NJ,8831,USA,6095784300,,http://www.villeroy-boch.com,50310-000,Gift Shops,1/1/1997 0:00,,False,A+,100.0,30.0,0.0,False,Small,False,8/4/2022 8:30,BBB
19,704,96580965,"ADB Advertising, LLC",2766 Commerce Dr NW,Ste D,Rochester,MN,55901,USA,5079900670,alex@adb-studios.com,https://www.facebook.com/ADBStudios/?fref=ts,60010-000,Advertising Agencies & Counselors,3/28/2012 0:00,,False,NR,0.0,3.0,0.0,False,Micro-small,False,2/5/2023 8:42,BBB
20,704,1000036035,Wells Fargo Bank Minnesota,875 34th Ave,,Winona,MN,55987,USA,5074571390,carolyn.h.roby@wellsfargo.com,http://www.wellsfargo.com,20003-000,Banks,1/1/1929 0:00,,False,NR,0.0,16600.0,0.0,False,Giant,False,6/1/2022 21:29,BBB
21,704,9000832,"Frana Companies, Inc.",633 2nd Ave S,,Hopkins,MN,55343,USA,9529358600,info@frana.com,http://www.frana.com,10035-000,Contractors - General,1/1/1977 0:00,,False,A+,100.0,350.0,,False,Medium,False,2/25/2022 9:44,BBB
22,704,96011844,Creative Cabinetry,2825 S Broadway,,Minot,ND,58701,USA,7018386510,creativecabinetry@srt.com,http://www.creativecabinetryminot.com,50120-000,Cabinet Manufacturer,1/1/1995 0:00,4/25/2016 0:00,False,NR,0.0,14.0,,False,Micro-small,False,4/29/2019 4:00,BBB
23,704,96099955,Random Specialties,PO Box 2110,,Manitowoc,WI,54221,USA,9529447600,bradM@crawleyprinting.com,http://www.crawleyprinting.com,30534-000,"Printers - Glass, Metal, Plastic",1/1/1949 0:00,,False,A+,100.0,18.0,,False,Micro-small,False,8/4/2022 8:29,BBB
24,704,96000404,"Vision Loss Resources, Inc.",216 Wabasha St S,,Saint Paul,MN,55107,USA,6512247662,info@vlrw.org,http://www.visionlossresources.org,60817-000,Social Service Organizations,1/1/1955 0:00,,False,A+,100.0,75.0,0.0,False,Small,False,12/10/2022 9:02,BBB
25,704,1000047838,CaptionMax LLC,2438 27th Ave S,275 Market Street #445,Mpls,MN,55406,USA,6123413566,services@captionmax.com,https://captionmax.com/,85350-000,Media Consultant,5/4/2017 0:00,,False,A+,100.0,1.0,,False,Micro-small,False,1/6/2023 9:13,BBB
26,704,96119294,"Excelsior Exteriors, LLC",3030 Granada Ave N Ste C,,Oakdale,MN,55128,USA,6514281877,,http://www.excelsiorexteriorsllc.com,10126-000,Roofing Contractors,3/24/2008 0:00,8/3/2012 0:00,False,NR,0.0,5.0,,False,Micro-small,False,3/19/2018 4:34,BBB
27,704,96351837,Professional DJ Services,2717 W 135th St,,Burnsville,MN,55337,USA,6513368375,RyanConlin@yahoo.com,http://www.yourminnesotadj.com,60598-000,Music & Messaging Services ,1/1/2010 0:00,,False,NR,0.0,1.0,,False,Micro-small,False,5/11/2022 8:37,BBB
28,704,96013868,"Cedarstone Construction, Inc.",16916 Island Ave,,Lakeville,MN,55044,USA,6514970446,jason@cedarstonehome.com,http://www.cedarstonehome.com,10079-000,Home Improvements,6/15/2004 0:00,,True,A+,100.0,1.0,0.0,False,Micro-small,False,8/12/2022 8:32,BBB
29,704,96083587,MB Products Inc,409 Main St W,,Hazen,ND,58545,USA,7017482938,deschauer@westriv.com,http://www.eagle-international-direct.com,60974-000,Internet Shopping,,4/29/2016 0:00,False,NR,0.0,,,False,Micro-small,False,5/6/2019 4:21,BBB
30,704,96570268,"123 Realty, LLC",PO Box 226,,Willmar,MN,56201,USA,3202962079,123flatfee@gmail.com,http://123flatfeeminnesota.com,60729-105,Real Estate Brokers,1/30/2012 0:00,,True,A+,100.0,1.0,0.0,False,Micro-small,False,11/10/2022 9:22,BBB
31,704,43001558,Concrete Coating Systems,25029 Dupont Ave,,Lakeville,MN,55044,USA,9524696496,tom@ccs-mn.com,http://www.ccs-mn.com,10032-200,"Concrete - Restoration, Sealing & Cleaning",8/18/1989 0:00,,True,A+,100.0,6.0,0.0,False,Micro-small,False,8/12/2022 8:32,BBB
32,704,1000043058,Mannequin in Motion Inc,5021 Vernon Ave S,,Minneapolis,MN,55436,USA,6123271270,loren.mannequin@icloud.com,https://www.facebook.com/mannequininmotion/,80457-000,Mannequins - Display Fixture,11/16/1999 0:00,,False,NR,0.0,1.0,0.0,False,Micro-small,False,11/19/2020 4:13,BBB
33,704,21005051,"J & K DeLong Services, LLP",9217 17th Ave S STE 202,,Bloomington,MN,55425,USA,9528881912,jkdelongservices@yahoo.com,https://www.facebook.com/DeLongTaxServices/,60857-000,Tax Return Preparation,1/2/1989 0:00,,True,A+,100.0,3.0,0.0,False,Small,False,10/19/2022 8:27,BBB
34,704,96168357,Eggink & Eggink,332 Minnesota St Ste W3100,,Saint Paul,MN,55101,USA,6512981171,info@egginklaw.com,http://www.egginklaw.com,60075-000,Attorneys & Lawyers,1/1/1984 0:00,,False,A+,100.0,4.0,,False,Micro-small,False,10/30/2022 8:34,BBB
35,704,1000056046,"International PDR, Inc.",2657 32nd Ave S,Unit 3,Minneapolis,MN,55406,USA,8004014553,contact@internationalpdr.com,http://www.internationalpdr.com,60094-110,Paintless Dent Repair,9/15/2017 0:00,,False,A+,100.0,5.0,,False,Micro-small,False,12/8/2022 9:14,BBB
36,704,96351565,Creating a Ruckus,219 Central Ave N # A,,Faribault,MN,55021,USA,5073330800,,http://www.creatingaruckustoo.com,50089-000,Boutiques,10/6/2004 0:00,3/4/2019 0:00,False,NR,0.0,3.0,0.0,False,Micro-small,False,3/8/2022 9:29,BBB
37,704,96155714,Dreamers Resort,16585 Wilkey Loop Rd NE,,Bemidji,MN,56601,USA,2187511020,dreamersresort@aol.com,http://www.dreamersresort.com,60752-000,Resorts,1/1/1984 0:00,,False,A+,100.0,2.0,,False,Micro-small,False,6/22/2021 4:12,BBB
38,704,96176215,Picture Perfect Tree and Landscape,109 1st St,,Randall,MN,56475,USA,7636453044,info@pictureperfecttree.com,http://pictureperfecttree.com/,00155-103,Landscape Maintenance,,,False,A+,100.0,1.0,,False,Micro-small,False,7/23/2022 8:43,BBB
39,704,6001945,Maurices Inc,425 W Superior St,,Duluth,MN,55802,USA,2184912434,bfischer@maurices.com,http://www.maurices.com,50740-000,Womens Apparel - Retail,1/1/1989 0:00,,False,D-,60.0,300.0,,False,Large,False,1/7/2023 9:06,BBB
40,704,1000006177,Romenesko LLC,7924 Victoria Dr Ste 211,,Victoria,MN,55386,USA,9523008836,tempoip2@gmail.com,http://tempo-investments.com,20012-000,Financial Planning Consultants,4/7/2010 0:00,,False,A+,100.0,1.0,0.0,False,Micro-small,False,1/14/2023 8:57,BBB
41,704,1000017075,"Our Vision Recycling, LLC",2582 Long Lake Rd Ste O,,Saint Paul,MN,55113,USA,6128078795,bobc@ourvisionrecycling.com,http://www.ourvisionrecycling.com/,85288-100,Recycling - Computers & Other Electronics,6/7/2012 0:00,,False,A+,100.0,2.0,0.0,False,Small,False,1/21/2023 8:56,BBB
42,704,96214368,Kelley&#39;s Quality Sewing Center Inc,3432 55th St NW,,Rochester,MN,55901,USA,5072889051,kelleysqualitysewingcenter@yahoo.com,http://www.kqsc.net,50568-000,Sewing Machines - Dealers,6/1/1985 0:00,6/27/2019 0:00,False,NR,0.0,8.0,0.0,False,Micro-small,False,7/8/2022 12:26,BBB
43,704,1000057474,Magic Forest Child Care Center & Preschool LLC,1411 8th St NE,,Staples,MN,56479,USA,2188955330,s_finck4@hotmail.com,https://magicforestccc.weebly.com/,55541-000,Child Care Services,8/18/2014 0:00,,True,A+,100.0,6.0,,False,Micro-small,False,1/24/2023 8:59,BBB
44,704,96230533,Bristlin Construction,1374 Egret Ave,,Detroit Lakes,MN,56501,USA,8888965107,info@bristlin.com,http://www.bristlin.com,10013-000,Building Contractors,5/1/1960 0:00,,False,A+,100.0,10.0,,False,Micro-small,False,10/30/2022 8:34,BBB
45,704,1000048404,Headwaters Home Inspection,24677 County 16,,Laporte,MN,56461,USA,2183683388,info@headwatershomeinspection.com,https://www.headwatershomeinspection.com/,60469-000,Home Inspection Service,3/18/2015 0:00,,False,A+,100.0,1.0,,False,Micro-small,False,7/8/2022 12:30,BBB
46,704,96051202,"Defined Logistics Solutions, Inc.",810 Clearwater Center,,Clearwater,MN,55320,USA,3205586600,kmockros@definedlogistics.com,http://www.definedlogistics.com,70635-000,Trucking Transportation Brokers,4/1/2002 0:00,,True,A+,100.0,26.0,0.0,False,Micro-small,False,1/12/2023 8:54,BBB
47,704,96026894,Climate by Design International Inc,2100 Park Dr,,Owatonna,MN,55060,USA,5074512198,hvac@cdihvac.com,http://www.cdihvac.com,80812-000,Industrial Manufacturers,4/1/1991 0:00,,False,A+,100.0,132.0,0.0,False,Medium,False,4/21/2022 8:27,BBB
48,704,96088236,"LGI Energy Solutions, Inc.",111 Cheshire Ln Ste 400,,Minnetonka,MN,55305,USA,9529438900,sbailey@lgies.com,http://www.lgienergysolutions.com,60332-000,Energy Management & Conservation Consultant,1/1/1996 0:00,12/18/2015 0:00,False,NR,0.0,60.0,,False,Medium,False,12/24/2018 4:01,BBB
49,704,1000026438,Stock & Barrel Eagan LLC,18832 Lake Dr E,,Chanhassen,MN,55317,USA,6128880540,k.vick@stockandbarrel.com,https://stockandbarrel.com/,60761-000,Rifle & Pistol Ranges,3/20/2018 0:00,,False,NR,0.0,1.0,0.0,False,Micro-small,False,11/14/2022 9:09,BBB
50,704,1000020619,Charles Hunt Carpet Installs LLC,1280 Ironwood Ln Apt 8,,Eagan,MN,55123,USA,7632184069,,https://www.facebook.com/pg/DaCarpetNinja/posts/,10058-400,Carpet Installation,12/9/2008 0:00,,False,A+,100.0,1.0,0.0,False,Micro-small,False,4/2/2022 8:47,BBB
51,704,1000056378,Dvorak Eye Clinic,1311 2nd St. North,,Sauk Rapids,MN,56379,USA,3207743666,,https://www.cataractdvorak.com/,50469-000,Opticians,,,False,A-,91.45,5.0,0.0,False,Micro-small,False,1/18/2023 9:32,BBB
52,704,96387258,Yesterday's Charm,10 Central Ave,,Buffalo,MN,55313,USA,7636843961,margeschumacher@gmail.com,http://www.yesterdayscharmmn.com,50293-000,Furniture - Used,9/1/2004 0:00,11/1/2016 0:00,False,NR,0.0,,,False,Micro-small,False,11/4/2019 4:11,BBB
53,704,1000016094,Har Salon LLC,21190 Ozark Ave N Ste 6,,Scandia,MN,55073,USA,6513073237,info@harsalon.com,https://harsalon.com/,60420-000,Hair Styling and Services,2/27/2017 0:00,,False,A+,100.0,1.0,0.0,False,Micro-small,False,10/15/2021 4:11,BBB
54,704,17005296,"Quality Transfer & Storage, Inc.",1212 W 96th St,,Bloomington,MN,55431,USA,9528316800,dave@qualitymovingco.com,http://qualitymovingco.com/,70571-000,Movers,12/27/2000 0:00,,False,NR,0.0,20.0,0.0,False,Small,False,10/6/2022 8:21,BBB
55,704,96003890,Nugent Sealcoating Inc,6937 W Shadow Dr,,Circle Pines,MN,55014,USA,6514292100,rnugent@nugentsealcoating.com,http://www.nugentsealcoating.com,10102-000,Paving Contractors,1/1/1992 0:00,,False,A+,100.0,5.0,,False,Small,False,5/17/2022 8:14,BBB
56,704,1000040185,Amon Designs,6825 Portland Ave,,Richfield,MN,55423,USA,6122053668,dmamon1@hotmail.com,http://amondesigns.net/,80411-000,Jewelry Designers,11/8/2010 0:00,,False,A+,100.0,1.0,0.0,False,Micro-small,False,6/25/2021 4:15,BBB
57,704,1000008745,"71 Bottles of Beer and Liquor, Inc",19862 Us 71,,Park Rapids,MN,56470,USA,2182372739,71bottles@arvig.net,https://71bottles.com/?fbclid=IwAR3B3loVLL1qb8vUgGMGdCPzxxYcLm3o0DPGXh6JqSBCCyvlNYRrgGOC6l8,50399-000,Liquor Stores,12/17/2014 0:00,,False,A+,100.0,1.0,0.0,False,Micro-small,False,4/29/2022 8:16,BBB
58,704,255,Forsythe Appraisals LLC,222 Little Canada Rd E # 175,,Saint Paul,MN,55117,USA,6514869550,ForsytheInfo@ForsytheAppraisals.com,http://www.ForsytheAppraisals.com,60730-000,Real Estate Appraisers,1/1/1940 0:00,,False,A+,100.0,66.0,0.0,False,Small,False,11/15/2022 9:10,BBB
59,704,1000008963,Germain Design LLC,1816 Scheffer Ave,,Saint Paul,MN,55116,USA,6125484065,cara@germaindesign.org,http://www.germaindesign.org/,85269-000,Home Staging,8/15/2014 0:00,,False,A+,100.0,1.0,0.0,False,Micro-small,False,4/30/2020 3:57,BBB
60,704,1000026502,Rolls Transportation,26040 Wild Rose Ln,,Greenwood,MN,55331,USA,9524465174,,https://www.truckdrivingjobs.com/companies/5a3843c689d90349af9625b4,70641-000,Trucking - Motor Freight,1/3/2018 0:00,,False,NR,0.0,1.0,,False,Micro-small,False,5/23/2022 8:19,BBB
61,704,96306756,ThreeFive,3033 Excelsior Blvd,,Minneapolis,MN,55416,USA,6123536372,serickson@threefive.com,https://www.threefive.com/,60005-000,Accountants,,,False,A+,100.0,4.0,,False,Micro-small,False,1/5/2023 9:23,Email
62,704,1000002895,DURAtrace,111 Thomas Park Dr,,Monticello,MN,55362,USA,8772154477,j.atwood@copperheadwire.com,http://duratracewire.com/,30131-000,Connectors - Electric,9/22/2009 0:00,,False,NR,0.0,1.0,0.0,False,Micro-small,False,10/17/2022 7:53,BBB
63,704,51001528,Otogawa-Anschel Design-Build,3212 Hennepin Ave,,Minneapolis,MN,55408,USA,6127897070,info@otogawa-anschel.com,http://www.OADesignBuild.com,10177-000,Construction & Remodeling Services,4/1/1996 0:00,,True,A+,100.0,10.0,,False,Micro-small,False,2/8/2023 9:27,BBB
64,704,1000047767,"PMD Customs, LLC",1424 Gorton Ave NW,,Willmar,MN,56201,USA,6125672699,pmdcustoms@yahoo.com,https://www.facebook.com/poofmonkeydust/,50252-000,Fence Contractors,5/22/2020 0:00,,False,A,96.79,2.0,,False,Micro-small,False,2/8/2023 9:28,BBB
65,704,1000044964,Business Access Marketing,6615 Lake Shore Dr S,,Edina,MN,55423,USA,6514473865,,http://businessaccessmarketing.com,60538-000,Marketing Consultants,2/8/2021 0:00,10/20/2021 0:00,False,NR,0.0,1.0,,False,Micro-small,False,10/21/2021 3:59,BBB
66,704,96141175,Robert Webb Insurance Inc,1300 S Broadway St,,New Ulm,MN,56073,USA,5073543151,bob.webb.g15d@statefarm.com,http://www.bobwebb.net,20028-000,Insurance - Homeowners,1/1/1990 0:00,,False,A+,100.0,5.0,,False,Small,False,8/25/2022 8:35,BBB
67,704,96062283,"American National Homes Construction, Inc.",12265 Jay St NW,,Coon Rapids,MN,55448,USA,7634329422,info@anhconstruction.com,http://www.anhconstruction.com,10126-000,Roofing Contractors,1/1/2006 0:00,4/18/2016 0:00,False,NR,0.0,5.0,,False,Micro-small,False,4/22/2019 4:07,BBB
68,704,21002497,Crystal Cabinet Works Inc,1100 Crystal Dr,,Princeton,MN,55371,USA,8003475045,info@ccworks.com,http://www.crystalcabinets.com,50120-000,Cabinet Manufacturer,1/1/1947 0:00,,False,A+,100.0,470.0,,False,Small,False,1/31/2023 8:45,BBB
69,704,96010228,Watergate Marina Sales,2500 Crosby Farm Rd,,Saint Paul,MN,55116,USA,6516953780,jason@watergatemarina.net,http://www.watergatemarina.net,70566-000,Marinas,1/1/1998 0:00,,False,A+,100.0,8.0,0.0,False,Micro-small,False,11/3/2022 8:23,BBB
70,704,1000034771,"Fix It Forward Auto Care, Llc",1119 100th Ave Nw,,Moorhead,MN,56560,USA,2182843200,matt@fixitforwardautocare.com,https://www.fixitforwardautocare.com/,60103-000,Auto Repair & Service,1/16/2018 0:00,,False,A+,100.0,1.0,0.0,False,Micro-small,False,12/8/2022 9:14,BBB
71,704,96020976,Reps For Rent,601 1st St W Ste 2,,Jamestown,ND,58401,USA,7012522779,,http://www.repsforrent.com,60863-000,Telemarketing Services,,8/19/2016 0:00,False,NR,0.0,,,False,Micro-small,False,8/26/2019 4:11,BBB
72,704,1000061143,Twin River Cabinets LLC ,5051 Stewart Ave,,Saint Paul,MN,55110,USA,6515600123,joe@twinrivercabinets.com,https://www.twinrivercabinets.com,50120-100,Cabinet Maker,12/23/2020 0:00,,True,A,95.32,2.0,,False,Micro-small,False,2/7/2023 9:01,BBB
73,704,229,Alexander&#39;s Mobility Services,2811 Beverly Rd Ste 100,,Eagan,MN,55121,USA,9528814128,kquagliano@alexanders.net,http://www.alexanders.net,70571-000,Movers,1/11/1978 0:00,,False,A+,100.0,26.0,0.0,False,Small,False,11/15/2022 9:10,BBB
74,704,1000020723,Miltimore  Motor  Company,16604 Highway 371,,Brainerd,MN,56401,USA,2184542886,,http://www.mmcminnesota.com,55502-000,Car Dealers,7/17/2013 0:00,,False,A+,100.0,1.0,0.0,False,Micro-small,False,10/14/2022 8:13,BBB
75,704,96505445,Staples Financial,2906 Upper 55th St,,Inver Grove Heights,MN,55076,USA,6512897800,trevor@staplesmn.com,http://www.staplesmn.com,20085-000,Financial Services,1/15/2014 0:00,,False,A+,100.0,31.0,0.0,False,Micro-small,False,1/12/2023 8:54,BBB
76,704,96205533,Granite Specialists LLC,9100 10th Ave N Ste 200,,Golden Valley,MN,55427,USA,7634170040,contact@granitespecialists.com,http://www.granitespecialists.com,85328-000,"Marble & Granite Installation, Stonework Fabrication",1/1/2006 0:00,,False,A+,100.0,3.0,0.0,False,Small,False,6/17/2022 8:35,BBB
77,704,1000051112,Magnolia Services,8311 Excelsior Blvd Apt 6,,Hopkins,MN,55353,USA,6125842424,taylor.t.byrne@gmail.com,http://www.magnoliaservices.online,10035-000,Contractors - General,9/17/2019 0:00,,False,A+,97.11,1.0,,False,Micro-small,False,7/21/2022 8:46,BBB
78,704,96327928,Webb Surveying LLC,201 Division St E STE B,,Maple Lake,MN,55358,USA,7638989999,daw@webbsurveying.net,http://www.webbsurveying.net,60845-000,Surveyors - Land,1/10/2010 0:00,,False,A+,100.0,2.0,0.0,False,Micro-small,False,5/1/2022 8:02,BBB
79,704,96130318,Curtis Johnson & Associates,3320 Xanthus Ln N,,Minneapolis,MN,55447,USA,6126301032,cj@curtisjohnsonphoto.com,http://www.curtisjohnsonphoto.com,60075-000,Attorneys & Lawyers,1/1/1998 0:00,,False,A+,100.0,1.0,,False,Micro-small,False,5/27/2020 4:36,BBB
80,704,1000043442,J And J Accounting Pa,15830 Ventureland ,,Eden Prairie,MN,55346,USA,6123892121,tan@jnjaccounting.com,http://www.jnjaccounting.com,60005-000,Accountants,2/2/2018 0:00,,False,A+,99.37,1.0,,False,Micro-small,False,11/2/2021 3:52,BBB
81,704,1000038137,Multimedia Graphics Inc,2400 N 2nd St,,Minneapolis,MN,55411,USA,6123121757,design@mmcreate.com,https://www.multimediagraphics.net/,60413-000,Graphic Designers,3/9/2012 0:00,,False,A+,100.0,1.0,0.0,False,Micro-small,False,4/14/2022 8:45,BBB
82,704,96142165,Egan's Market,208 Maine Ave,,Adrian,MN,56110,USA,5074832024,egansmkt@live.com,https://www.live.com/,80467-100,Meat - Processing,3/8/1999 0:00,,False,A+,100.0,2.0,,False,Micro-small,False,9/9/2021 4:03,Email
83,704,96344012,"Wild & Associates, LTD",500 2nd Ave N Ste 514,,Fargo,ND,58102,USA,7012938106,shapala@wildarch.com,http://www.wildarch.com,60057-000,Architects,5/26/1994 0:00,,False,A+,100.0,14.0,0.0,False,Micro-small,False,7/16/2021 4:18,BBB
84,704,96360828,The Lacek Group,"900 2nd Ave S,  Suite 1800",,Minneapolis,MN,55402,USA,6123593700,info@lacek.com,http://www.lacek.com,60539-000,Marketing Programs & Services,1/1/1993 0:00,,False,A+,100.0,225.0,,False,Small,False,12/11/2020 4:12,BBB
85,704,96037928,"Rise, Inc.",8406 Sunset Rd NE,,Minneapolis,MN,55432,USA,7637868334,,http://www.rise.org,60817-000,Social Service Organizations,1/1/1984 0:00,,False,A+,100.0,250.0,,False,Small,False,9/25/2021 4:01,BBB
86,704,1000041345,TLS Companies LLC,3777 40th Ave NW #201,,Rochester,MN,55901,USA,5073220100,info@tlscompanies.com,https://www.tlscompanies.com/,10035-000,Contractors - General,9/8/2014 0:00,,False,A+,100.0,1.0,0.0,False,Micro-small,False,11/22/2022 8:45,BBB
87,704,1000004531,"Sustainable Heating & Cooling, Inc.",21646 Thames St NE,,Wyoming,MN,55092,USA,6514621300,chris@sustainableheatingandcooling.com,https://www.facebook.com/SustainableHeatingandCooling/,10182-200,Air conditioning & Heating Contractors - Residential,2/12/2014 0:00,,True,A+,100.0,4.0,0.0,False,Micro-small,False,5/15/2022 8:13,BBB
88,704,96098372,Respicardia Inc,12400 Whitewater Dr STE 150,,Hopkins,MN,55343,USA,9525404470,info@respiacardia.com,http://www.respicardia.com,60971-000,Health & Medical - General,1/1/2007 0:00,,False,A+,100.0,10.0,,False,Micro-small,False,6/9/2022 8:18,BBB
89,704,96089066,PS Hairport,33 S.E. 11th Street,,Grand Rapids,MN,55744,USA,2183261335,,http://www.hairport.com,60134-000,Beauty Salons,1/1/1987 0:00,5/31/2017 0:00,False,NR,0.0,4.0,,False,Micro-small,False,6/1/2020 3:51,BBB
90,704,96051638,Anderson Passe & Associates,1611 County Highway 10 Ste 1,,Minneapolis,MN,55432,USA,7637804100,passe@passe-eng.com,http://www.andersonpasse.com,60336-000,Engineers - Civil,3/1/1993 0:00,7/1/2019 0:00,False,NR,0.0,19.0,,False,Small,False,7/8/2022 12:23,BBB
91,704,1000024204,BoomBoom Prints,250 2nd Ave S,,Minneapolis,MN,55401,USA,,hello@boomboomprints.com,http://Boomboomprints.com,62100-000,Online Retailer,10/14/2015 0:00,7/13/2021 0:00,False,NR,0.0,1.0,0.0,False,Micro-small,False,12/16/2021 4:10,BBB
92,704,44000379,A & J Painting,4256 Queen Ave N,,Minneapolis,MN,55412,USA,6123381981,james@cunningham.net,http://www.a-jpainting.com,10095-000,Painting Contractors,10/10/1995 0:00,,False,A+,100.0,5.0,0.0,False,Micro-small,False,10/7/2022 8:31,BBB
93,704,6000852,John Hirsch&#39;s Cambridge Motors,700 Garfield St S,,Cambridge,MN,55008,USA,7636897600,john.hirsch@cambridge-motors.com,http://www.cambridge-motors.com,50039-000,Auto Dealers - New Cars,6/1/1995 0:00,,True,A+,100.0,48.0,0.0,False,Small,False,11/16/2022 9:42,BBB
94,704,96150032,Consumer Health Benefits Association,25108 Marguerite Pkwy,Ste 214,Mission Viejo,CA,92692,USA,8884639778,,http://www.nbchealth.com,25018-000,Medical - Dental Discount Plans,,,False,NR,0.0,,,False,Micro-small,False,3/2/2019 4:09,BBB
95,704,8004619,Swann Real Estate,PO Box 182,,Fargo,ND,58107,USA,7012329444,kswann@swannrealestate.com,http://www.swannrealestate.com,60729-000,Real Estate,1/1/1992 0:00,,False,A+,100.0,1.0,0.0,False,Micro-small,False,3/13/2021 4:08,BBB
96,704,96370806,"Xtratyme Technologies, Inc.",16754 705th Ave,,Dassel,MN,55325,USA,8889872896,info@xtratyme.com,http://www.xtratyme.com/,60473-100,Internet Access Provider,3/13/2014 0:00,,False,A+,100.0,1.0,0.0,False,Micro-small,False,8/11/2022 8:30,BBB
97,704,96006590,Maple Brook Dental Center of Minnesota Ltd,8401 W Broadway Ave,,Brooklyn Park,MN,55445,USA,7634245313,info@maplebrookdentalmn.com,http://www.maplebrookdentalmn.com,60289-000,Dentists,1/1/1985 0:00,,False,A+,100.0,7.0,,False,Micro-small,False,11/17/2021 4:33,BBB
98,704,96150468,Johnson/Turner Legal,56 E Broadway Ave Ste 206,,Forest Lake,MN,55025,USA,6514647292,chris@johnsonturner.com,http://www.johnsonturner.com,60075-101,Attorneys & Lawyers  -  Family,4/21/2003 0:00,,True,A+,100.0,35.0,,False,Small,False,1/7/2023 9:07,BBB
99,704,96198736,Palmer Agency,11795 Willow Ln,,Rogers,MN,55374,USA,7634285545,,http://Healthinsurancemn.com,20080-000,Insurance Services,1/1/2001 0:00,,False,NR,0.0,1.0,,False,Micro-small,False,5/15/2022 8:13,BBB
100,704,21002685,"Brogren's Timberline Tree Service, Inc.",4110 Hoffman Rd,,White Bear Lake,MN,55110,USA,6514298884,kebrogren@yahoo.com,http://timberlinetreeservicemn.com,00219-000,Tree Service,4/8/1988 0:00,,False,NR,0.0,5.0,0.0,False,Micro-small,False,4/22/2022 8:17,BBB
101,704,96162163,"Fusion Finishing, LLC",17135 Bison St NW,,Ramsey,MN,55303,USA,6127303791,davidsanders@fusionfinishing.com,http://www.fusionfinishing.com,10177-000,Construction & Remodeling Services,1/29/2009 0:00,,False,A+,100.0,1.0,0.0,False,Micro-small,False,4/21/2022 8:28,BBB
102,704,96038646,"Anchors Aweigh Boat Sales, Inc.",PO Box 44,,Afton,MN,55001,USA,6514361566,info@anchorsaweighboats.com,http://www.anchorsaweighboats.com,50082-000,Boat Dealers,1/1/2004 0:00,,True,A+,100.0,8.0,0.0,False,Small,False,12/2/2022 9:28,BBB
103,704,10000469,"Lino Lakes Blacktop, Inc.",510 Lilac St,,Lino Lakes,MN,55014,USA,6517864378,sales@linolakesblacktop.com,http://www.linolakesblacktop.com,10102-000,Paving Contractors,1/1/1971 0:00,,False,A+,100.0,14.0,,False,Small,False,1/15/2021 4:07,BBB
104,704,1000056660,"Schneider Collision & Hydrographics, LLC",39204 County Road 186,,Sauk Centre,MN,56378,USA,3204290249,schneider733@hotmail.com,https://www.facebook.com/pages/category/Automotive-Body-Shop/Schneider-Collision-Hydrographics-402704510204788/,60094-000,Auto Body Repair & Painting,4/11/2018 0:00,,False,A+,100.0,4.0,,False,Micro-small,False,1/18/2023 9:33,BBB
105,704,25002073,A-1 Storage,1306 Stadium Rd,,Mankato,MN,56001,USA,5073271662,,http://www.a1mankato.com,70629-000,Trailer Storage ,1/1/2000 0:00,,False,A+,100.0,1.0,0.0,False,Micro-small,False,7/23/2022 8:43,BBB
106,704,96051326,"Delaney Company, LLC",1902 Greeley St S,,Stillwater,MN,55082,USA,6516743013,josh@delaneycompany.net,http://www.delaneycompany.net,10035-000,Contractors - General,1/1/2003 0:00,,False,A+,100.0,1.0,,False,Micro-small,False,1/13/2023 9:01,BBB
107,704,96056175,Pearle Vision,13195 Weaver Lake Rd,,Maple Grove,MN,55369,USA,6125990153,donna@pearlemg.com,https://www.MapleGroveEye.Vision,44091-000,Optometry,1/1/1994 0:00,,False,A+,100.0,28.0,,False,Small,False,6/3/2022 9:01,BBB
108,704,1000052812,Geib Well Co Inc,512 W Alden St,,Arlington,MN,55307,USA,5072069785,geibwell@gmail.com,https://www.geibwell.com/,10169-000,Water Well Drilling & Service,1/10/1995 0:00,,False,A+,100.0,3.0,,False,Micro-small,False,4/13/2022 8:07,BBB
109,704,96362276,Tax Pros Inc,4520 19th Ave S,,Fargo,ND,58103,USA,7014929000,dave@taxprosnd.com,http://www.taxprosnd.com,60857-000,Tax Return Preparation,1/1/2010 0:00,,False,A+,100.0,2.0,,False,Micro-small,False,12/9/2022 9:20,BBB
110,704,96126260,Plush Pup,12 3rd Ave SW,,Faribault,MN,55021,USA,5073327113,julie@plushpupspa.com,http://www.plushpupspa.com,00196-000,Pet Grooming,8/10/1999 0:00,,False,A+,100.0,1.0,,False,Micro-small,False,10/14/2021 4:03,BBB
111,704,1000039807,Conlin's Furniture,310 34th Avenue,,Alexandria ,MN,56308,USA,3207625511,,https://www.conlins.com/,50291-000,Furniture - Retail,8/5/2020 0:00,,False,C,74.02,1.0,,False,Micro-small,False,3/16/2022 8:55,BBB
112,704,96293611,Ashland Builders,19784 Jasper St NW,,Anoka,MN,55303,USA,7632584867,ashlandbuildersinc@usfamily.net,https://www.usfamily.net/,10126-100,Contractors - Framing,1/1/2006 0:00,,False,A+,100.0,1.0,,False,Micro-small,False,5/10/2022 20:30,Email
113,704,96206065,Custom Mold & Design,22455 Everton Ave N,,Forest Lake,MN,55025,USA,7635352334,,http://www.custommold.com,30368-000,Machine Tools - Repair & Rebuild,1/1/2003 0:00,,False,NR,0.0,75.0,,False,Micro-small,False,6/18/2022 8:22,BBB
114,704,96544827,Maggie May Interiors,3884 Dolomite Dr,,Saint Paul,MN,55122,USA,6516819283,maggiemayinteriors@gmail.com,http://maggiemayinteriors.com/,60470-000,Interior Decorators & Designers,7/1/2002 0:00,,False,A+,100.0,,0.0,False,Micro-small,False,3/14/2020 4:18,BBB
115,704,96594618,RJM Printing,7793 Ranchers Road,,Minneapolis,MN,55432,USA,6123345679,thomas@rjmprinting.com,http://www.rjm.company,30531-000,Printers,1/11/2013 0:00,,False,NR,0.0,1.0,0.0,False,Micro-small,False,3/16/2022 8:53,BBB
116,704,96118000,Book Corner Incorporated,783 Radio Dr # 115,,Saint Paul,MN,55125,USA,6517300661,dobe@usfamily.net,https://www.usfamily.net/,50086-000,Books - Used & Rare,1/1/1992 0:00,9/20/2021 0:00,False,NR,0.0,1.0,,False,Micro-small,False,9/22/2021 4:11,Email
117,704,96350959,Wild Prairie Harley-Davidson,12480 Plaza Dr,,Eden Prairie,MN,55344,USA,9526985000,tgiannetti@stpaulhd.com,http://www.wildprairiehd.com,50440-100,Motorcycle Sales - Consignments,2/1/2008 0:00,,False,B-,80.0,31.0,0.0,False,Micro-small,False,1/24/2023 8:58,BBB
118,704,96160652,Mr. Mow Lawn Care,4317 10th Ave S,,Minneapolis,MN,55407,USA,6123274126,dave@mrmow.com,http://www.mrmow.com,00157-000,Lawn Maintenance,,,False,A+,100.0,1.0,,False,Micro-small,False,7/10/2022 8:28,BBB
119,704,16752,Lane Bryant,2003 Burnsville Ctr,,Burnsville,MN,55306,USA,7637848549,,https://stores.lanebryant.com/mn/burnsville/plus-size-clothing-burnsville-mn-6512.html,50740-000,Womens Apparel - Retail,,,False,A+,97.0,,,False,Micro-small,False,1/20/2018 4:05,BBB
120,704,10347,Leighton's Garage Inc,14301 W 62nd St,,Eden Prairie,MN,55346,USA,9529348900,leighton@leightonsgarage.com,http://www.leightonsgarage.com,60103-000,Auto Repair & Service,1/1/1982 0:00,,False,A+,100.0,6.0,,False,Micro-small,False,4/21/2022 8:27,BBB
121,704,22001130,AIMCO/Apartment Investment & Management Co,4582 S Ulster St,Ste 1100,Denver,CO,80237,USA,9528909123,customerrelations@aimco.com,http://www.aimco.com,60732-000,Property Management,1/1/1971 0:00,,False,NR,0.0,4.0,,True,Micro-small,False,6/1/2022 21:22,BBB
122,704,96345875,Spyeworks LLC,2740 31st Ave S,,Minneapolis,MN,55406,USA,6124352246,info@spyeglass.com,https://www.spyeworks.com/,30614-400,Signs - Digital,4/1/2011 0:00,,False,A+,100.0,1.0,0.0,False,Micro-small,False,1/6/2023 9:12,BBB
123,704,96363239,Billie's Soap & Spa Products,5066 Copper Gate Dr,,Grand Forks,ND,58203,USA,7016106428,billiessoapandspa@gmail.com,http://www.billiessoap.com,80208-000,Cosmetic & Toiletry Preparations - Manufacturers,,,False,A+,100.0,1.0,,False,Micro-small,False,3/24/2022 8:32,BBB
124,704,96361820,"A & A Landscape & Maintenance of ND, LLC",501 E Broadway,,Williston,ND,58801,USA,7015776052,info@aalandscapend.com,http://www.aalandscapend.com,00155-000,Landscape Contractors,9/8/1999 0:00,,True,A+,100.0,42.0,,False,Micro-small,False,8/18/2022 8:20,BBB
125,704,96020996,"MIK Transportation, Inc.",3445 Washington Dr Ste 102,,Eagan,MN,55122,USA,6127992899,mikdispatch@mik-transportation.com,https://mik-transportation.com,50750-000,Transportation Services,3/15/1995 0:00,,True,A+,100.0,30.0,,False,Small,False,1/28/2023 8:47,BBB
126,704,96175817,KMAT Inc.,13146 Evermore Pkwy,,Saint Paul,MN,55124,USA,9526981750,bkons@kmat-inc.ocm,http://www.kmat-inc.com,20019-100,Insurance Agency,1/1/1995 0:00,,False,A+,100.0,3.0,,False,Micro-small,False,2/2/2022 9:43,BBB
127,704,96345568,HomeNeeds.co LLC,3950 N Shore Dr,,Mound,MN,55364,USA,6518080171,hailpros@gmail.com,http://www.homeneeds.co,10177-000,Construction & Remodeling Services,1/1/2009 0:00,,False,A+,100.0,1.0,0.0,False,Micro-small,False,8/9/2020 4:12,BBB
128,704,96218026,Wildcat Cafe,203 E Willis St,,Elmore,MN,56027,USA,5079433400,cjh@bevcomm.net,https://www.bevcomm.net/,50544-000,Restaurants,3/10/2014 0:00,,False,A+,100.0,1.0,,False,Small,False,9/26/2021 3:52,Email
129,704,96025887,Modern Woodmen of America,1300 Vermillion St,,Hastings,MN,55033,USA,3097866481,,http://www.modern-woodmen.org,20019-000,Insurance Companies,1/1/1984 0:00,,False,NR,0.0,435.0,,False,Medium,False,9/17/2022 8:23,BBB
130,704,1000031661,Accurate Builders LLC,2628 Old Military Rd,,Sandstone,MN,55072,USA,2182599232,,https://www.facebook.com/pages/category/construction-company/accurate-builders-mn-505085533349711/,10078-000,Home Builders,2/5/2019 0:00,,False,F,54.89,1.0,,False,Micro-small,False,6/15/2021 4:23,BBB
131,704,1000036683,Energetic Alignments,1910 County Road B W,,Roseville,MN,55113,USA,7635719437,energeticalignments@gmail.com,http://energeticalignments.com/,60470-400,Feng Shui,4/24/1998 0:00,,False,A+,100.0,1.0,0.0,False,Micro-small,False,9/1/2021 4:20,BBB
132,704,96592778,Employment Plus,920 Litchfield Ave SW,,Willmar,MN,56201,USA,3202351707,,http://www.employment-plus.com/#,60328-100,Employment Service,1/1/1988 0:00,,False,NR,0.0,1.0,0.0,False,Micro-small,False,3/28/2022 8:35,BBB
133,704,41000097,Quality Appliance & TV Center,63 3rd St NE,,Waite Park,MN,56387,USA,3202590220,ronharper@qualityappliancewaitepark.com,http://www.qualityappliancewaitepark.com/,50016-000,Appliances - Major - Dealers,11/10/1978 0:00,,False,A+,100.0,8.0,0.0,False,Small,False,1/7/2023 9:07,BBB
134,704,1000011222,An Elegant Affair,623 4th Ave NE,PO Box 458,Devils Lake,ND,58301,USA,7016627433,anelegantaffair@gondtc.com,http://anelegantaffairnd.com/,65259-000,Event Planners,5/18/2004 0:00,,False,A+,100.0,1.0,0.0,False,Micro-small,False,5/5/2017 4:00,BBB
135,704,1000016837,Jim Christensen - Kurilla Real Estate,PO Box 828,,Nisswa,MN,56468,USA,2188202147,jim@lakeshorebroker.com,http://www.lakeshorebroker.com,60729-000,Real Estate,9/1/1993 0:00,,False,A+,100.0,1.0,0.0,False,Micro-small,False,11/9/2021 3:56,BBB
136,704,96135520,Wevley Funeral Home,107 1st St NE,,Sebeka,MN,56477,USA,2185649455,,http://www.wevleyfuneralhome.com,62000-000,Funeral Homes,6/1/2005 0:00,,False,A+,100.0,3.0,,False,Micro-small,False,4/21/2022 8:28,BBB
137,704,96009908,Trinity Regional Eyecare,1321 W Dakota Pkwy,,Williston,ND,58801,USA,7018575000,info@trinityhealth.org,http://www.trinityhealth.org,50468-000,Optical Goods - Service & Repair,1/1/1984 0:00,,False,NR,0.0,20.0,,False,Small,False,11/29/2021 3:59,BBB
138,704,1000030223,Black Dog Built LLC,PO Box 464,,South Saint Paul,MN,55075,USA,6122841378,brian@blackdogbuilt.com,http://www.blackdogbuilt.com,10177-200,Remodeling Services,,,False,A+,98.29,1.0,0.0,False,Micro-small,False,12/23/2022 9:05,BBB
139,704,1000027300,"Revival Roofing, LLC",230 York St,,Pine River,MN,56474,USA,2188660957,aguirrerobert47@yahoo.com,http://www.revival-roofing.com,10126-000,Roofing Contractors,7/13/2018 0:00,,True,A+,100.0,1.0,,False,Micro-small,False,8/10/2022 8:52,BBB
140,704,96093733,Praxair Distribution Inc,4105 W Superior St,,Duluth,MN,55807,USA,2186245741,,http://www.praxair.com,60948-000,Welding,1/1/2005 0:00,,False,A+,100.0,15.0,,False,Small,False,8/24/2022 17:52,BBB
141,704,96082945,Brookfield Properties,5775 Wayzata Blvd,,Minneapolis,MN,55416,USA,6123721500,,http://www.brookfieldofficeproperties.com,60624-000,Office Buildings,1/1/1992 0:00,,False,NR,0.0,50.0,,False,Medium,False,9/10/2022 8:38,BBB
142,704,1000009084,Paramount Pixels ,511 Hemlock St S,,Stillwater,MN,55082,USA,6514301068,info@paramountpixels.net,http://www.paramountpixels.net/,61044-000,Photography Sales,4/24/2007 0:00,,False,A+,100.0,1.0,0.0,False,Micro-small,False,2/4/2023 9:01,BBB
143,704,96576070,John Kovach Insurance Agency,114 4th St NW,,Bemidji,MN,56601,USA,2184447611,jrkovachjr@mn-ia.aaa.com,http://mn-ia.aaa.com/Branches/Agent.aspx?cid=Agent_john.kovach,20080-000,Insurance Services,5/5/2015 0:00,,False,A+,100.0,1.0,0.0,False,Small,False,1/4/2023 9:05,BBB
144,704,96353952,Badger Professional Services LLC,17401 Flying Cloud Dr,,Eden Prairie,MN,55347,USA,9524406824,info@badgerboilerservice.com,http://www.badgerboilerservice.com,10076-000,Heating Contractors,1/1/2000 0:00,,False,A+,100.0,5.0,,False,Micro-small,False,3/25/2022 8:40,BBB
145,704,96357935,Rackfinity,8085 Wayzata Blvd Ste 107,,Minneapolis,MN,55426,USA,8009440338,stevek@rackfinity.com,http://rackfinity.com,50175-000,Computers - Supplies & Parts,4/2/2008 0:00,,True,A+,100.0,1.0,0.0,False,Small,False,5/21/2022 8:15,BBB
146,704,96161290,"McCarthy Electric, LLC",3473 Adair Ave NE,,Buffalo,MN,55313,USA,7636826867,chad@mccarthyelectric.biz,http://www.mccarthyelectric.biz,10049-000,Electricians,1/1/2005 0:00,,False,A+,100.0,4.0,,False,Micro-small,False,10/19/2022 8:27,BBB
147,704,1000012550,Block 8 Home Improvements,723 14th St S,,Fargo,ND,58103,,7018667737,block8homeimprovements@yahoo.com,https://www.facebook.com/block8homeimprovements/,10177-000,Construction & Remodeling Services,1/3/2017 0:00,,False,A+,100.0,1.0,0.0,False,Micro-small,False,2/9/2023 9:12,BBB
148,704,96116949,IHOP,1935 Beam Ave,,Maplewood,MN,55109,USA,6517481700,,http://www.ihop.com,50544-000,Restaurants,1/1/2003 0:00,,False,NR,0.0,25.0,,False,Micro-small,False,6/1/2022 21:24,BBB
149,704,96175236,Two Lost Cities,PO Box 107,,Osseo,MN,55369,USA,6128602099,nvinson@twolostcities.net,http://www.twolostcities.net,30413-000,Music Publishers,2/10/2004 0:00,,False,A+,100.0,2.0,0.0,False,Micro-small,False,3/24/2022 8:31,BBB
150,704,1000056018,Patriot Auto & Glass,15 S 1st St W,,Aurora,MN,55705,USA,2182293800,Info@patriotautoandglass.com,https://www.facebook.com/patriotautoandglass,60103-000,Auto Repair & Service,5/5/2021 0:00,,True,A,94.0,2.0,,False,Micro-small,False,12/10/2022 9:03,BBB
151,704,96174912,"All American Exteriors, LLC",601 Carlson Pkwy Ste 1050A,,Hopkins,MN,55305,USA,7632285881,allamericanexteriors@yahoo.com,http://allamericanexteriorsandremodeling.com,10126-000,Roofing Contractors,5/1/2002 0:00,1/1/2018 0:00,False,NR,0.0,1.0,,False,Micro-small,False,11/15/2022 9:11,BBB
152,704,96088966,"Lawn by the Yard, Inc.",3998 McMenemy St,,Saint Paul,MN,55127,USA,6516365296,lawnbytheyard@yahoo.com,http://www.lawnbytheyard.com,00155-100,Erosion Control,9/30/2002 0:00,,False,A+,100.0,1.0,,False,Micro-small,False,11/23/2022 9:42,BBB
153,704,96119442,CD Inzane LLC,10138 Karston Ave NE,,Albertville,MN,55301,USA,7632006556,sales@cdinzane.com,http://www.cdinzane.com,50534-000,"Compact Discs, Tapes & Records - Retail",2/27/2003 0:00,4/25/2016 0:00,False,NR,0.0,,,False,Micro-small,False,4/29/2019 4:00,BBB
154,704,96551318,Legacy Building Solutions Inc,19500 County Road 142,,South Haven,MN,55382,USA,3202597126,legacy@legacybuildingsolutions.com,http://www.linkedin.com/company/legacy-building-solutions,60346-000,Environmental & Ecological Services,,,False,A+,100.0,1.0,0.0,False,Small,False,11/5/2021 4:03,BBB
155,704,96108841,"Missouri Slope Lutheran Care Center, Inc.",2425 Hillview Ave,,Bismarck,ND,58501,USA,7012239407,rjthompson@mslcc.com,http://www.mslcc.com,60617-000,Nursing Homes,7/6/1967 0:00,,False,A+,100.0,412.0,,False,Micro-small,False,8/27/2020 4:03,BBB
156,704,96376976,Diamond MC Entertainment,4217 W 7th St,,Duluth,MN,55807,USA,2184098099,,http://www.diamondmcent.com,50730-000,Wedding Supplies & Services,4/6/2013 0:00,,False,NR,0.0,1.0,0.0,False,Micro-small,False,6/17/2022 8:36,BBB
157,704,1000004738,Relaxation Advantage,4900 Highway 169 N,,Minneapolis,MN,55428,USA,6128160255,info@relaxationadvantage.com,http://relaxationadvantage.com,60543-000,Massage Therapists,6/9/2008 0:00,,False,A+,100.0,1.0,0.0,False,Micro-small,False,12/24/2022 8:49,BBB
158,704,1000015904,"Pillar Title Services, LLC",3050 Centre Pointe Dr Ste 30,,Roseville,MN,55113,USA,6512040422,clyde@pillarts.com,http://www.pillartitleservices.com/index.html,20072-000,Title Companies & Agents,12/16/2015 0:00,,False,A+,100.0,1.0,0.0,False,Micro-small,False,7/11/2020 4:06,BBB
159,704,1000013171,"Oak Ridge Construction, LLC",445 Minnesota St Ste 1500,,Saint Paul,MN,55101,USA,6519681934,service@oakridgeroofs.com,https://www.oakridgeroofs.com/,10035-000,Contractors - General,8/14/2013 0:00,9/9/2021 0:00,False,NR,0.0,1.0,0.0,False,Micro-small,False,1/27/2023 9:09,BBB
160,704,96344968,A1 Carpentry Services LLC,1225 E Center St,,Rochester,MN,55904,USA,5079904216,marcus@a1carpentryservices.com,http://www.a1carpentryservices.com,10019-000,Carpenters,1/1/2004 0:00,4/18/2016 0:00,False,NR,0.0,1.0,0.0,False,Micro-small,False,4/22/2019 4:07,BBB
161,704,6002471,Sedona Hills Apartments,6410 Medicine Lake Rd,,Minneapolis,MN,55427,USA,7635919888,betsy@marathonmanagement.com,http://www.marathonmanagement.com,60042-000,Apartments,1/1/1995 0:00,,False,A+,100.0,5.0,,False,Micro-small,False,8/20/2020 3:59,BBB
162,704,1000003911,"Prairie Lakes Management, LLC",17018 Commercial Park Rd,,E Gull Lake,MN,56401,USA,2184540383,Michelle@prairielakesmanagement.com,https://www.prairielakesmanagement.com/,60732-000,Property Management,12/14/2009 0:00,,False,A+,100.0,1.0,0.0,False,Micro-small,False,1/25/2023 9:01,BBB
163,704,96024551,"Progressive Dental,Inc.",235 1st Ave E,,Shakopee,MN,55379,USA,9524456220,progressivedental1@gmail.com,http://www.progressivedentalmn.com,60289-000,Dentists,1/1/1984 0:00,,False,A+,100.0,5.0,,False,Micro-small,False,11/17/2021 4:34,BBB
164,704,96013176,"Vision Remodeling, Inc.",3448 Walden Alcove,,Woodbury,MN,55129,USA,6513371913,todd@vision-remodeling.com,http://www.vision-remodeling.com,10177-000,Construction & Remodeling Services,6/1/2004 0:00,9/11/2017 0:00,False,NR,0.0,5.0,0.0,False,Micro-small,False,8/20/2022 8:40,BBB
165,704,1000032316,St. Paul Tax Services,217 Como Ave Ste 104,,Saint Paul,MN,55103,USA,6514012156,paul@stpaultaxservice.com,http://stpaultaxservice.com,60857-000,Tax Return Preparation,1/10/2017 0:00,,True,A+,100.0,2.0,,False,Small,False,7/8/2022 12:29,BBB
166,704,96014026,"New Age Tree Service of MN, Inc.",PO Box 543,,Spring Grove,MN,55974,USA,5074983650,todd@newagetree.com,https://www.newagetree.com/,00219-000,Tree Service,1/1/1994 0:00,,True,A+,97.0,6.0,,False,Micro-small,False,5/27/2022 8:35,BBB
167,704,96090716,Moss Envy,3056 Excelsior Blvd,,Minneapolis,MN,55416,USA,6123744581,info@mossenvy.com,http://www.mossenvy.com,50351-000,Housewares - Retail,10/6/2007 0:00,,False,A+,100.0,7.0,,False,Small,False,8/6/2020 4:09,BBB
168,704,1000045793,Guardian Concrete Polishing and Coatings LLC, 2080 119th Ave NE,,Blaine,MN,55449,USA,6513002680,,https://www.guardianconcretemn.com/,10032-000,Concrete Contractors,2/3/2020 0:00,,False,A+,97.0,1.0,,False,Micro-small,False,11/22/2022 8:45,BBB
169,704,96347149,"PLC Recovery, LLC",PO Box 4025,,Saint Paul,MN,55104,USA,6512479783,plcrecovery@yahoo.com,http://www.plcrecovery.com,60891-000,Towing - Automotive,2/28/2005 0:00,,True,A,94.0,5.0,,False,Small,False,6/10/2022 8:24,BBB
170,704,25000214,Republic Bank,306 W Superior St,,Duluth,MN,55802,USA,2187223445,sutech@bankrepublic.com,http://www.bankrepublic.com,20003-000,Banks,,,False,NR,0.0,1.0,,False,Small,False,8/9/2022 8:28,BBB
171,704,1000045904,Elite Development LLC,1370 Sunrise Ct Ste 6000,,Clearwater,MN,55320,USA,3202504588,tylerkeller7@yahoo.com,https://www.facebook.com/elitedevelopmentllc/,10078-200,Custom Home Builder,5/1/2014 0:00,,False,A+,100.0,1.0,0.0,False,Micro-small,False,1/21/2023 8:56,BBB
172,704,1000002619,"American Concrete Design, LLC",20915 Chippendale Ave W,,Farmington,MN,55024,USA,6512351546,americanconcretedesign@gmail.com,https://www.facebook.com/american.concrete.design.llc/,10032-000,Concrete Contractors,10/28/2011 0:00,,True,A+,100.0,3.0,0.0,False,Micro-small,False,6/15/2022 9:02,BBB
173,704,96176873,"The Canine Club and Spa, Inc.",2910 82nd St,,Chanhassen,MN,55317,USA,9523619663,carrie@thecanineclubandspa.com,http://www.thecanineclubandspa.com,05153-100,Pet Day Care,3/14/2008 0:00,11/7/2018 0:00,False,NR,0.0,28.0,0.0,False,Small,False,11/9/2021 3:55,BBB
174,704,96174092,"Seager, Tufte, and Wickhem, LLC",1221 Nicollet Mall # 800,,Minneapolis,MN,55403,USA,6126779050,stw@stwiplaw.com,http://www.stwiplaw.com,60075-145,Attorneys & Lawyers - Intellectual Property,1/1/1997 0:00,,False,A+,100.0,2.0,,False,Micro-small,False,10/16/2021 4:13,BBB
175,704,1000049661,Greg Johnson Installations LLC,6512 Bergstrom Rd,,Saginaw,MN,55779,USA,7632217908,gjohnson57@mail.com,https://www.facebook.com/gregjohnsoninstallations/,85366-000,Contractors - Flooring,2/13/2009 0:00,,False,A+,100.0,1.0,0.0,False,Micro-small,False,11/15/2022 9:12,BBB
176,704,12000227,"Westman Freight Liner, Inc",2120 3rd Ave # 759,,Mankato,MN,56001,USA,5073451128,betho@westmanfreightliner.com,http://westmanfreightliner.com,60910-000,Truck Repair & Service,,,False,NR,0.0,1.0,,False,Small,False,12/16/2022 9:10,BBB
177,704,1000020193,Wannigan Point Cabins Resort,150 Maple St,,Taylors Falls,MN,55084,USA,6124653247,wanniganpoint@gmail.com,https://www.wanniganpoint.com/,60752-000,Resorts,9/14/2018 0:00,,False,NR,0.0,1.0,0.0,False,Micro-small,False,1/11/2023 9:01,BBB
178,704,96213444,A Touch Of Plasch,1131 E 9th St,,Duluth,MN,55805,USA,2187248836,touchofplasch@live.com,http://www.atouchofplasch.com,60134-000,Beauty Salons,1/1/1984 0:00,,False,A+,100.0,10.0,0.0,False,Micro-small,False,4/15/2022 8:42,BBB
179,704,96370207,Running Room (USA) Inc.,14635 County Road 11,,Burnsville,MN,55337,USA,9524329577,burnsville@runningroom.com,http://www.walkingroom.com,50582-000,Shoes - Retail,6/8/2001 0:00,,False,NR,0.0,5.0,0.0,False,Small,False,2/13/2022 9:10,BBB
180,704,96006445,ReMod Squad LLC,9408 Briar Rd,,Minneapolis,MN,55437,USA,9529941233,,http://www.remodsquad.com,10035-000,Contractors - General,4/1/2000 0:00,4/11/2018 0:00,False,NR,0.0,1.0,,False,Micro-small,False,4/13/2021 4:06,BBB
181,704,1000033553,Cartesian Solutions Inc,3004 Foxpoint Rd,,Burnsville,MN,55337,USA,9524261626,rogerkathol@icloud.com,https://www.cartesiansolutions.com/,60971-101,Consultants - Medical,1/5/2004 0:00,,False,A+,100.0,1.0,0.0,False,Micro-small,False,3/4/2022 9:47,BBB
182,704,96137283,Hi-Quality Bakery,121 4th St N,,Cannon Falls,MN,55009,USA,5072632221,hqbakery@hotmail.com,http://www.hiqualitybakery.com,50052-000,Bakers - Retail,1/1/1947 0:00,,False,A+,100.0,15.0,0.0,False,Medium,False,9/13/2017 3:59,BBB
183,704,1000020815,Erbert's and Gerbert's,2233 Energy Park Dr,,Saint Paul,MN,55108,USA,6512046400,,http://www.erbertsandgerberts.com,50544-000,Restaurants,10/16/2018 0:00,,False,NR,0.0,1.0,0.0,False,Micro-small,False,10/18/2021 3:53,BBB
184,704,1000043230,Scott County Cremation,833 Marschall Rd,,Shakopee,MN,55379,USA,9524029000,info@scottcountycremation.org,https://www.scottcountycremation.org/,60269-000,Cremation Services,1/1/2020 0:00,,False,NR,0.0,1.0,0.0,False,Micro-small,False,12/2/2020 4:43,BBB
185,704,96592304,Blessed Be Photography by Lana Kelly,41026 475th St,,Perham,MN,56573,USA,8082271297,lanakelly@live.com,http://www.blessedbe.us/,60655-100,Photographers,10/25/2014 0:00,,False,A+,100.0,1.0,0.0,False,Micro-small,False,11/24/2022 9:02,BBB
186,704,1000034807,"New Light Home Inspections, LLC",725 Main St W,,Silver Lake,MN,55381,USA,3202476900,sean@newlighthomeinspections.com,https://newlighthomeinspections.com/,60469-000,Home Inspection Service,4/22/2019 0:00,,False,NR,0.0,1.0,0.0,False,Micro-small,False,12/2/2021 4:07,BBB
187,704,96121286,"Insulation Systems, LLC",906 Airport Rd,,Bismarck,ND,58504,USA,7014007618,insulationsystems@live.com,https://www.live.com/,10081-000,Contractor - Insulation,3/7/2008 0:00,7/1/2019 0:00,False,NR,0.0,5.0,,False,Micro-small,False,7/8/2022 12:23,Email
188,704,1000061042,Meet Joe Black Construction,207 Stephen Ave Apt 2,,Marshall,MN,56258,USA,5074762222,afrometive2@gmail.com,https://www.facebook.com/afrometive/,10035-000,Contractors - General,5/11/2022 0:00,,True,A-,91.77,2.0,,False,Micro-small,False,1/25/2023 9:01,BBB
189,704,96381577,Majestic Custom Electric,19735 Iguana St NW Ste 108,,Elk River,MN,55330,USA,6124192173,andre@majesticcustom.com,https://www.majesticcustom.com/,10035-500,Electricians - Residential,3/23/2004 0:00,,False,NR,0.0,1.0,,False,Micro-small,False,1/14/2023 8:57,Email
190,704,96128479,"North Shore Resources, Inc.",125 Main Street SE,Suite 341,Minneapolis,MN,55414,USA,6123750318,tpeterson@gonorthshore.com,http://www.gonorthshore.com,85272-000,Information Technology Services,2/1/2000 0:00,,False,A+,100.0,6.0,,False,Small,False,6/16/2022 8:33,BBB
191,704,36001041,"Flowers Collision Repair Center, LLC",412 US 71 N,,Sauk Centre,MN,56378,USA,3203522237,flowers@mainstreetcom.com,https://www.facebook.com/FlowersCollisionRepairCenterLLC/,60094-000,Auto Body Repair & Painting,1/1/1948 0:00,,False,NR,0.0,1.0,,False,Small,False,8/25/2022 8:34,BBB
192,704,96021084,Real  Estate 7 LLP,702 5th Ave SE # 1,,Devils Lake,ND,58301,USA,7016627171,al@realestate7.com,http://www.realestate7.com,60729-000,Real Estate,1/1/1978 0:00,,False,A+,100.0,6.0,,False,Micro-small,False,12/29/2020 4:01,BBB
193,704,96379831,"Innovative Marketing Solutions Inc,",5012 53rd St S,,Fargo,ND,58104,USA,7015414993,careers@innovativemarketingsolutions.us,http://www.innovativemarketingsolutions.us,70623-000,"Television - Cable, CATV & Satellite",,,False,A+,100.0,1.0,,False,Micro-small,False,10/29/2021 3:56,BBB
194,704,1000007640,Fish Lake Dock and Lift Inc,6600 Stark Rd,,Harris,MN,55032,USA,6516748581,greg@fishlakemn.com,http://www.fishlakemn.com/,10038-000,Dock Builders,2/5/2014 0:00,,False,A+,97.0,1.0,0.0,False,Micro-small,False,8/5/2022 8:38,BBB
195,704,43001041,Little Bear Lodges Inc,30923 Wabana Rd,,Grand Rapids,MN,55744,USA,2183262800,don@littlebearlodges.com,http://www.littlebearlodges.com,10078-000,Home Builders,9/1/1997 0:00,4/28/2016 0:00,False,NR,0.0,26.0,,False,Small,False,4/29/2019 4:00,BBB
196,704,1000006464,Simply Healthy For You,928 133rd Ln NE,,Ham Lake,MN,55304,USA,6128108796,susan@simplyhealthyforyou.com,https://www.facebook.com/simplyhealthyforyou/about/?ref=page_internal,60429-000,Health & Fitness Program Consultants,5/8/2013 0:00,,False,NR,0.0,1.0,0.0,False,Micro-small,False,10/22/2019 4:13,BBB
197,704,96008553,"B & R Hardwood and Tile, Inc.",8445 Powers Pl,,Chanhassen,MN,55317,USA,6126448779,kurt@brflooring.biz,http://www.brflooring.biz,10058-000,"Floor Laying, Refinishing & Resurfacing",10/1/2001 0:00,,False,A+,100.0,1.0,0.0,False,Micro-small,False,10/14/2022 8:12,BBB
198,704,96019295,"Dix Bros Siding, LLC",2323 15th Ave NW,,Rochester,MN,55901,USA,5072811888,shawndix@centurylink.net,https://www.centurylink.net/,10135-000,Siding Contractors,7/26/1999 0:00,,False,A+,100.0,1.0,,False,Micro-small,False,7/12/2022 8:33,Email
199,704,1000045469,Contactmeasap,322 N Maple St,,Chaska,MN,55318,USA,844313TEXT,custservice@contactmeasap.com,http://www.contactmeasap.com,60539-000,Marketing Programs & Services,4/18/2020 0:00,,True,A-,90.8,1.0,,False,Micro-small,False,1/6/2023 9:13,BBB
200,704,1000045559,Breeze Heating and Cooling LLC,6332 205TH Court N,,Forest Lake,MN,55025,USA,6512698009,breezeheating@gmail.com,https://www.breezemn.com/,10182-000,Heating & Air Conditioning,2/28/2019 0:00,,False,A+,99.82,2.0,,False,Micro-small,False,2/1/2023 8:58,BBB
201,704,96558064,Brooke Makennah Photography,,,,,,,,,http://brookemakennahphotography.zenfolio.com/contact.html,60655-100,Photographers,1/20/2015 0:00,,False,NR,0.0,,0.0,False,Micro-small,False,2/27/2021 4:08,BBB
202,704,1000061180,Posh Pocket Pups,2231 Robich Rd,,Ely,MN,55731,USA,2182123303,,https://www.poshpocketpups.com,05195-000,Dog Breeders,12/1/2022 0:00,,False,NR,0.0,1.0,0.0,False,Micro-small,False,12/27/2022 8:49,BBB
203,704,96031268,Cartridge World Bloomington,6552 Nathan Ln N,,Maple Grove,MN,55369,USA,9527465768,,http://www.cartridgeworld.com,30539-101,Ink Cartridge - Refill & Sales,8/17/2004 0:00,,False,NR,0.0,4.0,,False,Small,False,10/23/2022 8:01,BBB
204,704,1000017763,Ben Johnson - RE/MAX Results: Real Estate Nation,125 Lake St West,,Wayzata,MN,55391,USA,9524758057,info@realenation.com,https://www.realestatenationteam.com,60729-000,Real Estate,6/2/2006 0:00,,False,A+,100.0,1.0,0.0,False,Micro-small,False,8/25/2021 4:57,BBB
205,704,96011841,Terrys Pools & Spas,2918 State Highway 68,,Marshall,MN,56258,USA,5075327550,,https://www.facebook.com/Owner-Terrys-Foods-Terrys-Pools-and-Spas-396460887038064/,50602-000,Spas & Hot Tubs - Dealers,1/1/2000 0:00,,False,A+,100.0,3.0,,False,Micro-small,False,10/15/2021 4:11,BBB
206,704,96542822,Midwest Art & Frame Inc,3250 Fanum Rd,,Vadnais Hts,MN,55110,USA,6126239771,curt@midwestart.com,http://www.zartastic.com,30760-100,Wood Products - Sawdust & Shavings,5/15/1991 0:00,,False,A+,100.0,1.0,0.0,False,Small,False,7/21/2022 8:46,BBB
207,704,96091849,Crest Precast Inc,609 Kistler Dr,,La Crescent,MN,55947,USA,5078952342,info@crestprecastconcrete.com,http://www.crestprecastconcrete.com,50180-000,Concrete Products,1/1/1984 0:00,,False,A+,100.0,47.0,,False,Small,False,8/20/2022 8:40,BBB
208,704,96036519,"Electric Component Sales, Inc.",6474 City West Pkwy,,Eden Prairie,MN,55344,USA,9529469510,,http://www.ecs-sales.com,50236-000,Electric Equipment & Supplies - Retail,1/1/1999 0:00,,False,A+,100.0,15.0,,False,Small,False,11/13/2021 3:59,BBB
209,704,96385598,Total Real Estate Success,1076 County Road B W Ste 103,,Saint Paul,MN,55113,USA,6125682234,info@totalREsuccess.com,http://www.totalREsuccess.com,60729-102,Real Estate Agents,9/16/2010 0:00,,False,A+,100.0,1.0,0.0,False,Micro-small,False,11/2/2021 3:51,BBB
210,704,1000057111,Theory Z Media LLC,11936 Baypoint Dr,,Burnsville,MN,55337,USA,6513357093,info@theoryzmedia.com,https://www.theoryzmedia.com/,60538-000,Marketing Consultants,4/2/2019 0:00,,False,A+,99.06,1.0,,False,Micro-small,False,11/15/2022 9:12,BBB
211,704,1000038291,Homewatch CareGivers of St. Cloud,2701 Clearwater Rd,,Saint Cloud,MN,56301,USA,3202381101,ttravaglio@homewatchcaregivers.com,https://www.homewatchcaregivers.com/stcloud/,85273-000,In-Home Care,5/13/2019 0:00,,False,A+,98.35,20.0,0.0,False,Small,False,9/13/2022 8:18,BBB
212,704,96008371,AllBright Home Services Corp,4445 W 77th St,Ste 120,Minneapolis,MN,55435,USA,9528883000,allbrighthomeservices@gmail.com,http://www.allbrighthomeservices.com,60954-000,Window Cleaning,7/27/1990 0:00,,True,A+,100.0,7.0,0.0,False,Small,False,1/10/2023 8:48,BBB
213,704,1000038292,JP Handyman & Remodeling,34178 Jackal Ct NW,,Princeton,MN,55371,USA,6123630398,JPhandyman@mac.com,http://www.jphandyman.net,15035-000,Handyman Services,5/8/2008 0:00,,False,F,59.0,1.0,0.0,False,Micro-small,False,8/26/2020 4:59,BBB
214,704,1000026459,Total Auto Care,5995 Main St,,North Branch,MN,55056,USA,6516748787,,https://total-auto-care-auto-repair.business.site,60103-000,Auto Repair & Service,,,False,C,74.52,1.0,0.0,False,Micro-small,False,5/23/2022 8:19,BBB
215,704,96031256,"C & J Bus Repair, Inc.",9010 Pillsbury Ave S,,Minneapolis,MN,55420,USA,9528810034,denise@cjinc.net,https://www.cjbusrepair.net/,60169-000,Buses - Repair & Service,4/15/1988 0:00,,True,A+,100.0,10.0,,False,Small,False,2/3/2023 9:11,BBB
216,704,1000016171,"Blue Ribbon Quality Meats, LLC",7124 Jason Ave NE,,Monticello,MN,55362,USA,7632952025,,http://www.blueribbonmeatsmn.com/,30068-000,Butchering,11/20/2013 0:00,,False,A+,100.0,1.0,0.0,False,Micro-small,False,12/3/2021 4:08,BBB
217,704,1000024305,Customize  It,1050 Burnsville Center,,Burnsville,MN,55306,USA,9528923522,customizeitmn@yahoo.com,http://shopcustomizeit.com/,44024-000,Custom Service,2/19/2019 0:00,,False,NR,0.0,1.0,0.0,False,Micro-small,False,8/2/2022 8:45,BBB
218,704,96345159,"Eventive Meetings, LLC",6411 Rolling Hills Rd,,Hamel,MN,55340,USA,6123275550,liza@eventivemeetings.com,http://www.eventivemeetings.com,65259-000,Event Planners,1/29/2007 0:00,,False,A+,100.0,1.0,,False,Micro-small,False,8/4/2022 8:31,BBB
219,704,17000436,Multiple Concepts Interiors,26 1st Ave N,,Waite Park,MN,56387,USA,3202535078,pfuller@mcicarpetone.com,http://www.mcicarpetone.com,50133-000,Carpet & Rug Dealers - New,7/1/1976 0:00,,False,A+,100.0,50.0,,False,Medium,False,9/15/2022 8:33,BBB
220,704,1000014180,Hardline Exteriors LLC,21483 Grenada Ave Ste 120,,Lakeville,MN,55044,USA,6512424740,caleb@hardlineexteriors.com,https://www.hardlineexteriors.com/,10035-000,Contractors - General,6/22/2017 0:00,,False,A+,100.0,1.0,0.0,False,Micro-small,False,1/10/2023 8:49,Email
221,704,43000976,Laurentian Chamber of Commerce,403 1st St N Ste 1,,Virginia,MN,55792,USA,2187412717,admin@laurentianchamber.org,http://laurentianchamber.org/,60194-000,Chambers Of Commerce,1/1/1921 0:00,,True,A+,100.0,4.0,0.0,False,Micro-small,False,12/13/2022 9:02,BBB
222,704,96087275,Cornerstone Construction,1571 Brummer Dr,,Cloquet,MN,55720,USA,2188792922,,http://www.cornerstoneconstruction.com,10177-000,Construction & Remodeling Services,1/1/2004 0:00,,False,NR,0.0,4.0,0.0,False,Micro-small,False,3/2/2022 10:29,BBB
223,704,96013406,Cruzan Construction,49452 316th St,,Winthrop,MN,55396,USA,5072375544,stcruzan@netzero.org,http://www.CruzanConstruction.com,10177-000,Construction & Remodeling Services,8/1/1996 0:00,,False,A+,100.0,1.0,,False,Micro-small,False,7/20/2022 9:10,BBB
224,704,1000045593,Arcon Credit Solutions LLC,8425 Seasons Parkway; Suite #106,,Woodbury,MN,55125,USA,8339760969,craig.gordon@arconcredit.com,https://arconcredit.com/,60226-000,Collection Agencies,4/10/2020 0:00,,False,A,94.08,20.0,0.0,False,Small,False,2/8/2023 9:28,BBB
225,704,51000477,The Exchange Inc. of Duluth,301 W 1st St Ste 1,,Duluth,MN,55802,USA,2187278836,info@theexchangecateringanddeli.com,http://www.theexchangecateringanddeli.com,50138-000,Caterers,1/1/1989 0:00,7/24/2020 0:00,False,NR,0.0,6.0,,False,Small,False,7/29/2020 4:43,BBB
226,704,3000330,Custom Upholstery,445 Broadway Ave,Ste 5,Saint Paul Park,MN,55071,USA,6514581519,cabinets@pro-ns.net,http://www.thecabinetoutlet.com,50373-000,Kitchen Cabinets & Equipment - Household,12/29/2006 0:00,8/29/2018 0:00,False,NR,0.0,4.0,0.0,False,Micro-small,False,8/30/2018 4:03,BBB
227,704,96578459,Arbor Pointe Liquors,9084 Buchanon Trl,,Inver Grove Heights,MN,55076,USA,6514576775,apliquors@gmail.com,http://www.arborpointeliquor.com/,50399-000,Liquor Stores,3/25/2009 0:00,,False,NR,0.0,1.0,0.0,False,Micro-small,False,11/7/2022 9:16,BBB
228,704,96177932,Wise Insurance Inc,Po Box 647,,Chanhassen,MN,55317,USA,9529330352,linda.wise@wise-agency.com,https://www.wise-agency.com/,20080-000,Insurance Services,1/1/1990 0:00,,False,A+,100.0,8.0,,False,Micro-small,False,7/23/2022 8:43,Email
229,704,23001268,HVAC Services Inc,312 NE 3rd Ave,,Grand Rapids,MN,55744,USA,2183274962,cori@aaplghtg.com,http://www.aaplghtg.com,10076-000,Heating Contractors,1/1/1990 0:00,9/20/2021 0:00,False,NR,0.0,9.0,,False,Micro-small,False,2/2/2023 8:52,BBB
230,704,96056647,"A. Pietig Concrete & Brick Paving, LLC",8116 Pillsbury Ave S,,Bloomington,MN,55420,USA,9528350393,pietig@apietigconcrete.com,http://www.apietigconcrete.com,10089-000,Mason Contractors,5/1/2003 0:00,,False,A+,100.0,1.0,0.0,False,Micro-small,False,12/7/2022 9:09,BBB
231,704,1000028690,Northwoods Painting LLC,11017 187th Ave NW,,Elk River,MN,55330,USA,7639138498,northwoodspaintingllc@gmail.com,http://www.facebook.com/pages/category/Home-Improvement/Northwoods-Painting-LLC-2363506813880530/,10095-000,Painting Contractors,12/28/2018 0:00,,False,NR,0.0,1.0,0.0,False,Micro-small,False,8/25/2022 8:36,BBB
232,704,96297820,Skaff Apartments,1130 28th Ave S,,Moorhead,MN,56560,USA,7012361193,,http://www.skaffapartments.com,60042-000,Apartments,1/1/1957 0:00,,False,A+,100.0,13.0,,False,Small,False,2/9/2022 9:41,BBB
233,704,1000003579,Kwik Trip,375 Cottonwood Drive,,Winona,MN,55987,USA,5074523273,,http://kwiktrip.com,50199-000,Convenience Stores,9/4/2013 0:00,,False,NR,0.0,1.0,0.0,False,Micro-small,False,6/1/2022 21:26,BBB
234,704,1000022062,Freeland Realty LLC,708 Eastridge Dr,,Northfield,MN,55057,USA,5075815038,tim@timfreeland.com,http://timfreeland.com/,60729-102,Real Estate Agents,3/9/2017 0:00,,False,A+,100.0,1.0,0.0,False,Micro-small,False,9/17/2021 4:03,BBB
235,704,1000054230,Brand Advantage Group Inc,12872 State Highway 55,,Minneapolis,MN,55441,USA,7635594330,info@brandadvantagegroup.com,http://www.brandadvantagegroup.com/,60771-300,Promotional Products,2/28/2017 0:00,,False,A+,100.0,1.0,,False,Micro-small,False,4/20/2022 8:37,BBB
236,704,519,Luther Auto Group,3701 Alabama Ave S,,Minneapolis,MN,55416,,8666999621,barb.hilbert@lutherauto.com,http://www.lutherauto.com/,50039-000,Auto Dealers - New Cars,1/1/1937 0:00,,True,A+,100.0,90.0,,False,Small,False,2/9/2023 9:11,BBB
237,704,1000026156,Cities Edge Specialized Transportation LLC,204 Railroad Ave,,Delano,MN,55328,USA,6124183203,citiesedge@citiesedge.net,http://www.citiesedge.net/,50750-000,Transportation Services,1/8/2017 0:00,,False,A+,100.0,12.0,,False,Small,False,2/3/2023 9:12,BBB
238,704,1000012529,"All-State Painting, LLC",810 Robert Ave N,,Maple Lake,MN,55358,USA,7633705511,info@allstatepaintingmn.com,http://www.allstatepaintingmn.com/,10095-000,Painting Contractors,3/12/2014 0:00,,False,A+,100.0,1.0,0.0,False,Micro-small,False,10/7/2022 8:31,BBB
239,704,96074374,EddieVegas Online Store,1555 Carlton Ave W,,Cloquet,MN,55720,USA,2188793796,e.matthews@mchsi.com,http://www.eddievegas.com,60974-000,Internet Shopping,,,False,A+,100.0,1.0,,False,Micro-small,False,2/4/2022 9:35,BBB
240,704,1000016260,Curvy Angels,7108 Unity Ave N,,Brooklyn Ctr,MN,55429,USA,6126002359,curvyangels1@gmail.com,http://thickcurvyangels.com,55093-000,Clothing - Retail,1/16/2018 0:00,,False,A+,100.0,1.0,0.0,False,Micro-small,False,1/14/2023 8:57,BBB
241,704,96369845,Pirtek Burnsville,1409 Cliff Rd E,,Burnsville,MN,55337,USA,9528955400,,http://www.pirtekusa.com/fwp/burnsville,50347-000,Hose & Tubing - Rubber & Plastic,5/25/2012 0:00,,False,A+,100.0,4.0,0.0,False,Micro-small,False,12/7/2021 4:13,BBB
242,704,96083001,Livhome,5900 Wilshire Blvd Ste 705,,Los Angeles,CA,90036,USA,3239335880,cgislason@livhome.com,http://www.livhome.com,60614-000,Nurses Registries,1/1/1999 0:00,,False,A+,100.0,80.0,,False,Medium,False,8/11/2021 4:45,BBB
243,704,1000013506,Club Pilates Arbor Lakes,11658 Fountains Dr,,Maple Grove,MN,55369,USA,7632194880,ArborLakes@clubpilates.com,http://www.clubpilates.com/arborlakes,60430-100,Fitness Centers,6/20/2016 0:00,,False,A+,100.0,14.0,0.0,False,Small,False,2/11/2022 9:25,BBB
244,704,1000049655,High Point Gutters LLC,5063 Silver Leaf St,,Hermantown,MN,55811,USA,2183913388,matt@highpointgutters.com,http://highpointgutters.com/,10073-310,Gutter Contractor,12/26/2012 0:00,,False,A+,100.0,1.0,0.0,False,Micro-small,False,6/15/2022 9:02,BBB
245,704,1000001283,Rainbow International of Fargo,102 W Beaton Dr,,West Fargo,ND,58078,USA,7014124776,ned@rainbowfargo.com,https://rainbowintl.com/fargo,60184-000,Carpet & Rug Cleaners,1/1/2007 0:00,,False,A+,100.0,3.0,0.0,False,Micro-small,False,12/3/2022 9:06,BBB
246,704,96311346,Beste & Associates (A private wealth advisory practice of Ameriprise Financial Services Inc),30 25th Ave S Ste 101,,Saint Cloud,MN,56301,USA,3202301710,james.2.beste@ampf.com,http://www.jbeste.com,20045-000,Investment Advisory Service,8/30/2002 0:00,,False,A+,100.0,6.0,0.0,False,Small,False,8/25/2022 8:35,BBB
247,704,44002498,Anderson Exteriors - Kevin D Anderson,6621 157th Ave NW,,Ramsey,MN,55303,USA,7633230970,andext76@aol.com,http://www.andersonexteriors.com,10178-000,Windows - Installation & Service,10/20/1987 0:00,,True,A+,100.0,1.0,0.0,False,Micro-small,False,8/25/2022 8:35,BBB
248,704,1000019214,Bluff Country Tree Service LLC,616 Tower Ct Se,,Stewartville,MN,55976,USA,5072514775,,https://bluffcountrytreellc.business.site/,00219-000,Tree Service,4/10/2017 0:00,,False,A+,100.0,1.0,0.0,False,Micro-small,False,11/12/2021 4:01,BBB
249,704,96564110,"Blueline Seamless Rain Gutters, LLC",820 Walnut St E,,Devils Lake,ND,58301,,7012303635,,http://bluelinegutter.com/,10073-000,Gutters & Downspouts,11/14/2014 0:00,,False,A+,100.0,1.0,0.0,False,Micro-small,False,2/9/2023 17:07,BBB
250,704,1000036743,Beautiful Classy Driven LLC,2639 Dupont Ave N,,Minneapolis,MN,55411,USA,6122428050,beautifulclassydriven@gmail.com,https://www.beautifulclassydriven.com,65259-000,Event Planners,8/28/2019 0:00,,False,A+,98.46,1.0,0.0,False,Micro-small,False,1/14/2023 8:57,BBB
251,704,1000027072,1-ton Wonton,2365 Cottage Dr,,Stillwater,MN,55082,USA,6123668450,,https://www.facebook.com/1TONWONTON/,50544-200,Food Trucks,8/18/2017 0:00,,False,NR,0.0,1.0,,False,Micro-small,False,2/7/2023 9:00,BBB
252,704,96345432,Lignite Tire Service,300 19th St NW,,Beulah,ND,58523,USA,7018737711,tires@westriv.com,https://www.westriv.com/,50659-000,Tire Dealers,1/1/1985 0:00,,False,A+,100.0,10.0,,False,Micro-small,False,11/10/2022 9:22,Email
253,704,96084918,MB25 Media Solutions,4969 Olson Memorial Hwy,,Golden Valley,MN,55422,USA,6122109494,bepstein@mb25media.com,http://www.mb25media.com,60010-000,Advertising Agencies & Counselors,1/1/1989 0:00,10/16/2019 0:00,False,NR,0.0,14.0,,False,Micro-small,False,10/17/2022 7:54,BBB
254,704,96015833,Tecnifoam Inc,4400 Ball Rd NE,,Circle Pines,MN,55014,USA,7635377000,info@tecnifoam.com,http://www.tecnifoam.com,30499-000,Plastics - Foam,1/1/1994 0:00,,False,A+,100.0,30.0,,False,Small,False,11/23/2021 6:32,BBB
255,704,96075074,BANK Bar,88 S 6th St,,Minneapolis,MN,55402,USA,2038498844,info@heihotels.com,http://www.bankrestaurantmpls.com/,50544-000,Restaurants,10/1/2007 0:00,,False,NR,0.0,1.0,0.0,False,Micro-small,False,10/18/2022 8:15,BBB
256,704,1000045979,Broberg Concrete LLC,69285 260th St,,Dassel,MN,55325,USA,3203109468,,https://www.brobergconcrete.com/,10015-000,Buildings - Concrete,7/31/2019 0:00,,False,A+,98.73,1.0,,False,Micro-small,False,1/26/2023 22:17,BBB
257,704,96117973,"All Night Pillows, LLC",7373 Knollwood Dr,,Mounds View,MN,55112,USA,6513296418,pillowmanan@gmail.com,http://www.allnightpillows.com,50498-000,Pillows,12/28/2009 0:00,2/4/2016 0:00,False,NR,0.0,1.0,,False,Small,False,11/21/2019 4:32,BBB
258,704,96056607,RHS Realty,7741 147th St W,,Saint Paul,MN,55124,USA,9529971900,,http://www.rhsrealty.com,60729-000,Real Estate,,,False,A+,100.0,1.0,,False,Micro-small,False,12/17/2021 4:16,BBB
259,704,96210026,"Arrowhead Electric Cooperative, Inc.",5401 W Hwy 61,,Lutsen,MN,55612,USA,2186637239,jkartes@arrowhead.coop,http://www.aecimn.com,70544-000,Electric Companies,1/1/1953 0:00,,False,A+,100.0,17.0,,False,Small,False,7/1/2021 4:10,BBB
260,704,96023318,"Credit Score Recovery, LLC",10159 Wayzata Blvd Ste 200,,Minnetonka,MN,55305,USA,9529604060,info@creditscorerecovery.org,http://www.creditscorerecovery.org,20079-000,Credit Services,11/1/2005 0:00,4/25/2016 0:00,False,NR,0.0,3.0,,False,Micro-small,False,1/10/2023 8:48,BBB
261,704,96152923,"RazorWire Solutions, Inc",12527 Central Ave NE Ste 197,,Blaine,MN,55434,USA,6124240857,info@razorwiresolutions.com,http://www.razorwiresolutions.com,65473-000,Internet - Web Hosting,4/1/2008 0:00,,False,A+,100.0,1.0,,False,Micro-small,False,6/18/2022 8:22,BBB
262,704,1000008511,Klosterbuer & Haubrich LLP,120 N Mckenzie St,,Luverne,MN,56156,USA,5072839111,,http://www.khlawmn.com,60075-000,Attorneys & Lawyers,1/1/1984 0:00,,False,A+,100.0,5.0,0.0,False,Micro-small,False,4/25/2020 3:58,BBB
263,704,96117005,Federal Industries Corporation,2550 Niagara Ln N,,Minneapolis,MN,55447,USA,7634761500,cs@chem-tran.com,http://www.chem-tran.com,30374-000,Mailing Containers,1/1/1980 0:00,,False,A+,100.0,3.0,0.0,False,Small,False,4/27/2022 8:41,BBB
264,704,1000013153,Cultivate Construction LLC,4506 Bloomington Ave,,Minneapolis,MN,55407,USA,6127301434,lance@cultivatedspaces.com,https://cultivatedspaces.com/,10177-000,Construction & Remodeling Services,6/30/2016 0:00,,False,A+,100.0,1.0,0.0,False,Micro-small,False,8/31/2022 9:00,BBB
265,704,96026848,Burns Plumbing and Heating,318 Woodland Dr,,Owatonna,MN,55060,USA,5074517629,,http://www.burnsplumbingandheating.com,10113-000,Plumbers,1/1/1977 0:00,,False,A+,100.0,5.0,,False,Micro-small,False,8/24/2021 4:06,BBB
266,704,96558492,Jay Fletch Real Estate Group,8631 Eagle Point Blvd,,Lake Elmo,MN,55042,USA,6515022972,jayfletch@edinarealty.com,http://www.jayfletchrealty.com/,60729-102,Real Estate Agents,,,False,A+,100.0,1.0,0.0,False,Micro-small,False,11/18/2022 9:13,BBB
267,704,96153246,Glissade Ski Products,4855 Eagle Creek Blvd,,Shakopee,MN,55379,USA,9524961927,,http://www.glissade.com,50592-000,Ski Equipment - Retail,1/1/2002 0:00,,False,NR,0.0,6.0,0.0,False,Micro-small,False,3/2/2022 10:31,BBB
268,704,1000045103,Renewal Properties,295 Wedgewood Ln N,,Plymouth,MN,55441,USA,6126162532,tony@renewal-properties.com,http://www.renewal-properties.com,10035-000,Contractors - General,8/26/2019 0:00,,False,A+,98.21,1.0,0.0,False,Micro-small,False,12/6/2022 9:13,BBB
269,704,96372097,Power Chairs and Scooter Store Medical Supply LLC,255 Highway 97 Unit 7B,,Forest Lake,MN,55025,USA,6519820002,Joel@PowerChairsAndScooterStore.com,http://www.powerchairsandscooterstore.com,80152-000,Chairs - Orthopedic & Lift,10/11/2010 0:00,,False,A+,100.0,3.0,,False,Micro-small,False,1/14/2023 8:57,BBB
270,704,1000043406,Nextstep Resources Inc,7890 12th Ave S,,Minneapolis,MN,55425,USA,9528538400,,http://www.nsresources.com,60745-000,Religious Organizations,1/1/1997 0:00,,False,A+,100.0,4.0,,False,Micro-small,False,12/16/2020 5:07,BBB
271,704,96146079,Robert Linden Construction,4356 5th St NE,,Columbia Heights,MN,55421,USA,6123968773,rlinden1@mac.com,http://www.facebook.com/pages/Robert-Linden-Construction/111127422247575,10177-000,Construction & Remodeling Services,5/1/2008 0:00,,False,A+,100.0,2.0,,False,Micro-small,False,4/29/2021 4:07,BBB
272,704,96025101,"Haala Homes, Inc.",1688 Beech St,,Saint Paul,MN,55106,USA,6517741680,haalahomes@msn.com,http://www.haalahomes.com,10035-000,Contractors - General,8/1/2005 0:00,4/27/2016 0:00,False,NR,0.0,1.0,,False,Micro-small,False,4/29/2019 4:00,BBB
273,704,1000009315,Red Leaf Design,3957 Yosemite Ave S,,Minneapolis,MN,55416,USA,6123145260,,http://www.redleafdesign.com/,60979-000,Internet Marketing Services,8/22/2000 0:00,,False,A+,100.0,1.0,0.0,False,Micro-small,False,5/4/2020 3:53,BBB
274,704,24000224,Tyler Area Community Club,151 N Tyler St,,Tyler,MN,56178,USA,5072473905,info@mnchamberexecutives.com,http://www.mnchamberexecutives.com/,60194-000,Chambers Of Commerce,1/1/1983 0:00,,True,A+,100.0,1.0,0.0,False,Small,False,12/13/2022 9:02,BBB
275,704,1000035114,Duluth Trading Company,9320 Hudson Rd,,Saint Paul,MN,55125,USA,6084241544,,https://www.duluthtrading.com/,55093-000,Clothing - Retail,10/29/1986 0:00,,False,NR,0.0,1.0,0.0,False,Micro-small,False,6/1/2022 21:27,BBB
276,704,96536090,Sunrise Sprinkler,12978 Pheasant Hill Rd NE,,Osakis,MN,56360,USA,3208595320,,http://www.sunrise-sprinkler.com/,50782-000,Lawn & Garden Sprinkler Systems,3/5/2014 0:00,,False,A+,100.0,,0.0,False,Micro-small,False,4/29/2021 4:07,BBB
277,704,96364299,Mosquito Squad of SE MN,905 Riverwood Ln SW,,Oronoco,MN,55960,USA,5073672529,dbuchanan@mosquitosquad.com,http://southeast-minnesota.mosquitosquad.com,60650-200,Mosquito Control,11/22/2010 0:00,8/7/2020 0:00,False,NR,0.0,5.0,,False,Micro-small,False,3/22/2022 8:36,BBB
278,704,96220671,Hospice of Murray County,36 Park Dr,,Slayton,MN,56172,USA,5078368114,hospice@hospiceofmurraycounty.com,http://www.hospiceofmurraycounty.com,60443-000,Hospices,1/1/1996 0:00,,False,NR,0.0,32.0,0.0,False,Small,False,6/29/2020 3:55,BBB
279,704,96354945,Gadtke & Brennan PA,11210 86th Ave N,,Maple Grove,MN,55369,USA,7633154548,tgadtke@gadtkelawfirm.com,http://www.lemonlawminnesota.com/,60005-000,Accountants,1/1/2010 0:00,,False,A+,100.0,5.0,,False,Micro-small,False,2/2/2022 9:43,BBB
280,704,96542945,Dirt Dynamics,4206 3rd Ave N,,Fargo,ND,58102,USA,7017933055,mstock.dirtdynamics@gmail.com,https://www.dirtdynamicsllc.com/,10035-000,Contractors - General,3/1/2001 0:00,,False,A+,100.0,50.0,,False,Small,False,12/6/2022 9:12,BBB
281,704,1000036384,Kouril Woodworks LLC,PO BOX 152,,Big Lake,MN,55309,USA,6125580676,,http://www.kourilwoodworks.com,30760-000,Woodworking,6/18/2018 0:00,,False,A+,100.0,1.0,0.0,False,Micro-small,False,8/25/2022 8:36,BBB
282,704,96234530,R K Construction Service Inc,39335 State Highway 286,,Marcell,MN,56657,USA,2188322842,rkconstructioninc@gmail.com,http://Rkconstructionservices.com,10050-000,Excavating Contractors,1/1/2007 0:00,,False,A+,100.0,10.0,,False,Micro-small,False,11/8/2022 9:18,BBB
283,704,1000029078,Codabow International Llc,876 East Third Street,,Winona,MN,55987,USA,5074541509,acct@codabow.com,http://codabow.com,50447-000,Musical Instruments - Dealers,6/22/2016 0:00,,False,A+,100.0,20.0,0.0,False,Small,False,11/17/2022 9:22,BBB
284,704,96578321,"Design Envy USA, Inc.",539 Bielenberg Dr Ste 200,,Woodbury,MN,55125,USA,6512369888,info@designenvyusa.com,http://www.designenvyusa.com,10035-000,Contractors - General,8/19/2015 0:00,,True,A+,100.0,10.0,0.0,False,Micro-small,False,2/2/2023 8:52,BBB
285,704,1000001506,Lawn & Snow Express,3500 Vicksburg Ln N # 328,,Minneapolis,MN,55447,USA,8554669464,customerservice@lawncareexpress.com,http://www.lawnandsnowexpress.com,82300-000,Lawn & Tree Care,3/16/2015 0:00,,False,A+,100.0,47.0,,False,Small,False,12/28/2022 9:14,BBB
286,704,1000017244,Domino's Pizza,1100 E Main St,,Mandan,ND,58554,USA,7016636988,judyb@hickorytech.net,https://www.dominos.com,50544-000,Restaurants,,,False,A+,98.54,1.0,0.0,False,Micro-small,False,8/25/2021 4:57,BBB
287,704,96006580,Morgan Printing Co.,307 3RD. Avenue SE,,Minot,ND,58701,USA,7018525250,mpc@srt.com,https://www.srt.com/,30531-000,Printers,,7/26/2021 0:00,False,NR,0.0,,,False,Micro-small,False,7/28/2021 4:40,Email
288,704,96223444,The Water's Edge Restaurant,714 Bridle Ridge Rd,,Eagan,MN,55123,USA,3202532465,,http://www.400supper.club.com,50544-000,Restaurants,1/1/1938 0:00,,False,A+,100.0,30.0,,False,Small,False,11/3/2021 4:22,BBB
289,704,96381924,Jewelry by Johan,592 Hayward Ave N,,Oakdale,MN,55128,USA,6513461362,admin@jewelrybyjohan.com,http://www.jewelrybyjohan.com,80411-000,Jewelry Designers,7/1/2010 0:00,,False,A+,100.0,10.0,,False,Micro-small,False,4/15/2022 8:42,BBB
290,704,1000008128,Westside Hardwood Floors,7007 Eagle Rdg,,Eden Prairie,MN,55346,USA,6127996687,chiepler@westsidehardwoodfloors.com,http://westsidehardwoodfloors.com/,85366-000,Contractors - Flooring,5/20/2010 0:00,,False,A+,100.0,1.0,0.0,False,Micro-small,False,2/8/2023 9:28,BBB
291,704,96126520,"Hix & Kurzeka Consulting, Inc",3301 Library Ln,,Minneapolis,MN,55426,USA,9529398080,,http://www.everythingstogether.com,60632-000,Organizing Services - Household & Business,1/1/1992 0:00,,False,A+,100.0,1.0,,False,Micro-small,False,10/15/2021 4:11,BBB
292,704,1000051063,Northern Cyber Security LLC,1107 8th Ave. SW.,,Little Falls,MN,56345,USA,3202660599,dane@seelen.us,https://www.northerncybersecurity.com/,44122-000,Security,4/1/2021 0:00,,False,A,94.0,1.0,,False,Micro-small,False,11/6/2022 9:03,BBB
293,704,1000002644,Malkerson Gunn Martin LLP,220 S 6th St Ste 1900,,Minneapolis,MN,55402,USA,6123441111,jill.treska@mgmllp.com,http://www.mgmllp.com/,60075-106,Attorneys & Lawyers - Real Estate,3/14/2000 0:00,,False,NR,0.0,1.0,0.0,False,Micro-small,False,10/14/2022 8:13,BBB
294,704,96021275,Meinerts Law Office PA,8682 Eagle Creek Cir,,Savage,MN,55378,USA,9522088500,stephanie@meinertslaw.com,http://www.meinertslaw.com,60075-000,Attorneys & Lawyers,3/3/2006 0:00,,False,A+,100.0,1.0,,False,Micro-small,False,9/13/2022 8:17,BBB
295,704,58000116,"Smitty&#39;s Repair, Inc.",306 20th Ave SE,,Minot,ND,58701,USA,7018381969,Smittysrepairminot@gmail.com,http://smittysautorepair.net,60902-000,Transmissions - Automobile,1/1/1957 0:00,,True,A+,100.0,3.0,,False,Micro-small,False,1/10/2023 8:48,BBB
296,704,24000172,"Advanced Graphix, Inc.",3600 Labore Rd # 3,,Saint Paul,MN,55110,USA,6514903221,sally@advancedgraphix.com,http://www.advancedgraphix.com,30614-000,Signs,1/1/1997 0:00,,False,A+,100.0,6.0,0.0,False,Micro-small,False,12/21/2022 9:21,BBB
297,704,96142971,Superior Glass Inc,3323 E Broadway Ave,,Bismarck,ND,58501,USA,7012585600,superiorglassbismarck@gmail.com,http://www.superiorglassofbismarck.com,60404-000,Glass - Plate and Window,9/1/2001 0:00,,False,A+,100.0,4.0,,False,Small,False,9/1/2022 8:30,BBB
298,704,96114616,Ameristar Manufacturing Inc.,2600 9th Ave,,Mankato,MN,56001,USA,5076251515,dans@ameristarmfg.com,http://www.ameristarmfg.com,30366-000,Machine Shops,7/28/1995 0:00,,False,A+,100.0,30.0,,False,Small,False,4/23/2022 8:15,BBB
299,704,1000057766,American Gate & Security Company,1301 41st St N,,Fargo,ND,58102,USA,7015151045,customercarefargo@americafence.com,https://fencecompanyfargo.com/,50252-000,Fence Contractors,7/7/2021 0:00,,False,A-,93.84,1.0,0.0,False,Micro-small,False,1/18/2023 9:32,BBB
300,704,96380415,Northland Recovery Center,215 SE 2nd Ave,,Grand Rapids,MN,55744,USA,2183271105,cmackay@northlandcounseling.org,http://www.northlandrecovery.com,60033-000,Alcoholism Info & Treatment Centers,1/1/1991 0:00,,False,A+,100.0,40.0,,False,Small,False,8/30/2022 8:18,BBB
301,704,96360609,"GoCodes, Inc.",7900 International Dr,,Bloomington,MN,55425,USA,8005135778,sales@gocodes.com,https://gocodes.com/,60123-000,Bar Coding Service,6/30/2011 0:00,,False,A+,100.0,5.0,,False,Small,False,5/27/2020 4:37,BBB
302,704,1000056421,Odyssey Events LLC,915 Mainstreet Suite 2,,Hopkins,MN,55343,USA,6512069650,odysseyevents310@gmail.com,http://odysseyeventsllc.com,65259-000,Event Planners,6/22/2022 0:00,,False,NR,0.0,1.0,0.0,False,Micro-small,False,8/20/2022 8:40,BBB
303,704,96020615,"Food Perspectives, Inc.",13755 1st Ave N # 500,,Minneapolis,MN,55441,USA,7635537787,info@foodperspectives.com,https://www.thenfl.com/,60537-000,Market Research & Analysis,1/1/1996 0:00,,False,A+,100.0,35.0,,False,Small,False,7/8/2022 12:22,BBB
304,704,1000016209,Powder Coating Solutions Inc,1115 N 7th St,,Lake City,MN,55041,USA,6513457507,info@powdercoatingmn.com,https://www.powdercoatingmn.com/,30111-100,Coatings - Powder,4/23/2003 0:00,,False,A+,100.0,1.0,0.0,False,Micro-small,False,5/12/2022 8:37,BBB
305,704,96091423,"On Time LandCare, LLC",8794 Dunkirk Ct NE,,Minneapolis,MN,55449,USA,7632056236,bill@ontimelawn.com,https://www.ontimelandcare.com/,00157-000,Lawn Maintenance,12/8/2003 0:00,,False,A+,100.0,30.0,,False,Micro-small,False,11/29/2022 9:07,BBB
306,704,1000037819,Superior Wealth Management Group LLC,605 Waterford Park,,Plymouth,MN,55441,USA,9528855605,info@superiorwealth.net,http://www.superiorwealth.net/,20012-000,Financial Planning Consultants,4/11/2006 0:00,,False,A+,100.0,1.0,0.0,False,Micro-small,False,7/16/2022 8:36,BBB
307,704,1000005543,Intech Inc,680 Hale Ave N Ste 240,,Oakdale,MN,55128,USA,6517567306,pat@intechgroup.us,https://www.facebook.com/InTech-Inc-1083274765049108/,10155-100,"Cable TV, Internet & Telephone Installation Service",1/30/2012 0:00,,False,A+,100.0,1.0,,False,Micro-small,False,12/29/2022 9:05,BBB
308,704,96102344,Gustavus Adolphus College,800 W College Ave,,Saint Peter,MN,56082,USA,5079338000,jander11@gustavus.edu,http://www.gustavus.edu,60779-000,Schools - Academic - Colleges & Universities,1862-09-01 00:00:00,,False,A+,100.0,650.0,,False,Small,False,8/20/2021 4:25,BBB
309,704,1000014605,"Smooth Riders, LLC",12 63 1/2 Way NE,,Minneapolis,MN,55432,USA,6513270815,sales@smoothridersllc.com,http://www.smoothridersllc.com,70562-000,Limousine Service,9/3/2010 0:00,,False,A+,100.0,,0.0,False,Micro-small,False,2/14/2020 3:56,BBB
310,704,2001096,"ROR Tax Professionals, LLC",4500 Park Glen Rd Ste 100,,Minneapolis,MN,55416,USA,6128227177,mikec@rortax.com,http://rortax.com,60857-000,Tax Return Preparation,1/1/1990 0:00,,False,A+,100.0,8.0,,False,Small,False,2/18/2022 9:11,BBB
311,704,96536124,Woodlyn Heights Health Care Center,2060 Upper 55th St E,,Inver Grove,MN,55077,USA,6514511881,emily.jenkins@twsl.com,https://www.twsl.com/,60971-000,Health & Medical - General,,,False,B-,80.0,1.0,,False,Small,False,1/19/2023 8:51,Email
312,704,1000011846,Pillar Insurance Advisors,7865 Hwy 55,P O Box 550,Rockford,MN,55373,USA,7632056666,,https://www.aibme.com/locations/mn/rockford/pillar-insurance-advisors/,20019-200,Insurance Agents,1/1/2010 0:00,,False,A+,100.0,1.0,0.0,False,Micro-small,False,12/4/2021 4:11,BBB
313,704,96012921,NAPA Auto Parts,1423 Broadway St,,Alexandria,MN,56308,USA,3207635138,napaadam@hotmail.com,https://www.napaonline.com/,50043-000,Auto Parts & Supplies - New,1/1/1989 0:00,,False,A+,100.0,13.0,,False,Small,False,4/10/2021 4:12,BBB
314,704,96177265,"Exosite, LLC",227 Colfax Ave N # 150,,Minneapolis,MN,55405,USA,6123532161,marykaylowe@exosite.com,http://www.exosite.com,80229-000,Data Communications Equipment & Systems,5/4/2009 0:00,,False,A+,100.0,30.0,,False,Small,False,7/23/2022 8:43,BBB
315,704,96089896,"Help U-Pack-N-Move MN, LLC",4445 W 77th St Ste 240P,,Edina,MN,55435,USA,9524311269,info@help-u-pack-n-move.com,http://www.help-u-pack-n-move.com,70572-000,Moving Services - Labor & Materials,1/1/2006 0:00,,True,A+,100.0,16.0,,False,Micro-small,False,1/31/2023 8:45,BBB
316,704,1000045924,Thomas Tool & Supply Inc,300 14th Ave SE,,Sartell,MN,56304,USA,3202534526,,http://www.thomas-tool.com,55592-000,Tools,3/5/1985 0:00,,False,A+,100.0,8.0,,False,Micro-small,False,9/11/2021 4:05,BBB
317,704,96162383,Bennett's Chop and Railhouse,1305 7th St W,,Saint Paul,MN,55102,USA,6512281408,jbennett@bennettschopandrailhouse.com,http://www.bennettschopandrailhouse.com,50544-000,Restaurants,1/1/2004 0:00,,False,A+,100.0,15.0,,False,Small,False,4/28/2021 4:48,BBB
318,704,96488979,"American Veterans Logistics, LLC",16347 230th Ave NW,,Elk River,MN,55330,USA,8664754601,rsracchi@amvetlogistics.com,http://www.amvetlogistics.com,70640-000,Trucking,4/6/2010 0:00,,True,A+,100.0,9.0,,False,Micro-small,False,6/3/2022 9:03,BBB
319,704,96007436,Comstock Construction Inc,PO Box 1145,280 S 11th St,Wahpeton,ND,58074,USA,7016423207,bcomstock@comstockconst.com,http://www.comstockconst.com,10035-000,Contractors - General,1/1/1924 0:00,,False,A+,100.0,150.0,0.0,False,Micro-small,False,11/29/2022 9:07,BBB
320,704,96182845,Lebens Floral & Garden Ctr,16155 Forest Blvd N,,Hugo,MN,55038,USA,6514886707,,http://www.lebensfloral.net,50275-000,Florists - Retail,1/1/1984 0:00,,False,A+,100.0,3.0,,False,Micro-small,False,1/12/2023 8:54,BBB
321,704,96215410,Express Pressure Washers Inc.,15880 74th Ave Se,,Blooming Prairie,MN,55917,USA,5075832703,jim@expresspressurewashers.com,https://www.expresspressurewashers.com/,10035-000,Contractors - General,8/30/2010 0:00,,False,A+,100.0,5.0,,False,Micro-small,False,12/8/2022 9:13,BBB
322,704,96202146,Zeus Jones Ltd,2429 Nicollet Ave,,Minneapolis,MN,55404,USA,6122791400,,http://Zeusjones.com,60533-000,Management Consultants,1/1/2008 0:00,,False,A+,100.0,38.0,0.0,False,Small,False,5/12/2022 8:37,BBB
323,704,8000444,Bethany Retirement Living,2877 45th St S STE 201,,Fargo,ND,58104,USA,7012393544,sstuhaug@bethanynd.org,http://www.bethanynd.org,60441-000,Home Health Services,1/1/1987 0:00,,False,B-,80.0,35.0,,False,Micro-small,False,1/21/2023 8:55,BBB
324,704,1000007072,Tony&#39;s Flooring,206 Mineral Springs Rd,,Owatonna,MN,55060,USA,5074512285,tony@tonysflooringmn.com,http://www.tonysflooringmn.com,85366-000,Contractors - Flooring,1/13/2009 0:00,,False,A+,100.0,1.0,0.0,False,Micro-small,False,1/18/2023 9:32,BBB
325,704,96384936,Rum River Barn and Vineyard,42618 78th St,,Hillman,MN,56338,USA,6128010546,buzzellgroup@hotmail.com,http://www.rumriverbarn.com,30749-000,Wineries,8/1/2005 0:00,,False,A+,100.0,1.0,,False,Micro-small,False,9/30/2020 4:26,BBB
326,704,96346751,Infinite Eyecare,210 2nd Ave. N,,Sauk Rapids,MN,56379,USA,3202574990,drtom@infiniteeyecare.com,http://www.infiniteeyecare.com,50624-100,Eyeglass Suppliers,5/1/2009 0:00,,False,A+,100.0,5.0,,False,Small,False,7/8/2022 12:26,BBB
327,704,34000008,Great Health Nutrition,PO Box 159,,Newport,MN,55055,USA,8004581613,joereiners@aol.com,http://www.greathealthnutrition.com,50336-000,Health & Diet Products - Retail,1/1/1987 0:00,,False,A+,100.0,12.0,,False,Small,False,6/14/2022 8:18,BBB
328,704,96139036,Aspasia,11617 Highway 14,,Saint Charles,MN,55972,USA,5079323966,,http://www.aspasiasalon.com,60134-000,Beauty Salons,1/1/1997 0:00,,False,A+,100.0,6.0,0.0,False,Micro-small,False,10/7/2022 8:31,BBB
329,704,1000045992,Western Edge Home Services ,1393 15TH STREET WEST,,Dickinson,ND,58601,USA,7012607341,westernedge.hs@gmail.com,https://www.facebook.com/Westernedgehomeservices,15035-000,Handyman Services,5/12/2021 0:00,,False,A,94.0,1.0,,False,Micro-small,False,12/17/2022 9:01,BBB
330,704,96166462,CN&#39;R Lawn Care Inc,7901 Fuller Rd,,Eden Prairie,MN,55344,USA,9529425296,ryan@cnrlawncare.com,https://cnrlawncare.com/,00155-000,Landscape Contractors,1/1/1992 0:00,,False,A+,100.0,35.0,,False,Small,False,10/25/2022 8:10,BBB
331,704,96052453,Maplewood Community Center,2100 White Bear Ave N,,Saint Paul,MN,55109,USA,6512492100,,http://www.maplewoodcommunitycenter.com,30771-000,"Government - City, Village & Township",10/1/1994 0:00,,False,NR,0.0,1.0,,False,Medium,False,1/28/2022 9:32,BBB
332,704,96296237,"Northeast Sheet Metal, Inc.",3055 Columbia Ave NE,,Minneapolis,MN,55418,USA,6128053538,nesheetmetal@gmail.com,https://www.facebook.com/nesheetmetal/,30604-000,Sheet Metal Work,1/1/2004 0:00,,True,A+,100.0,2.0,,False,Micro-small,False,11/1/2022 8:12,BBB
333,704,96013691,"Best Enterprises, LLC",6989 55th St N Ste D,,Oakdale,MN,55128,USA,6517791022,tbest@best-ent.com,http://www.best-ent.com,80272-000,Electronic Equipment & Supplies - Wholesale & Manufacturers,11/1/1990 0:00,,False,A+,100.0,7.0,0.0,False,Small,False,7/7/2021 4:58,BBB
334,704,13000163,Bob&#39;s Lawn & Landscape Inc,406 1st Ave W,,Shakopee,MN,55379,USA,9524452326,bobs406@usfamily.com,https://www.bobslawnandlandscaping.net,00154-000,Landscape Architects,1/1/1975 0:00,,False,A+,100.0,15.0,0.0,False,Small,False,10/25/2022 8:09,BBB
335,704,1000035111,Duluth Trading Company,252 57th Ave NE,,Fridley,MN,55432,USA,6122555201,,https://www.duluthtrading.com/,55093-000,Clothing - Retail,10/29/1986 0:00,,False,NR,0.0,1.0,0.0,False,Micro-small,False,11/11/2022 9:30,BBB
336,704,9000819,Jones Lang LaSalle - Rosedale Center,10 Rosedale Ctr,,Roseville,MN,55113,USA,6516383553,scott.michaelis@am.jll.com,http://www.myrosedale.com,60729-000,Real Estate,1/1/1969 0:00,,False,A+,100.0,15.0,0.0,False,Small,False,11/9/2021 3:55,BBB
337,704,96119505,Cool Threads,206 3rd St NW,,Bemidji,MN,56601,USA,2184444552,,https://www.coolthreadsstore.com/,30198-000,Embroidery,1/1/1986 0:00,,False,A+,100.0,35.0,0.0,False,Micro-small,False,1/31/2023 8:45,BBB
338,704,23002300,Advanced Wireless Communications,20809 Kensington Blvd,,Lakeville,MN,55044,USA,9524695400,bsand@advancedwireless.com,http://advancedwireless.com,50523-000,Radio Communication Equipment & Systems,1/1/1992 0:00,,False,A+,100.0,80.0,,False,Small,False,10/7/2022 8:30,BBB
339,704,96553248,Total Systems Integration Inc.,1255 Meadow Pkwy,,Mayer,MN,55360,USA,9522397628,,http://www.totalsystemsintegration.net,50344-000,Home Theater,9/25/2014 0:00,,False,NR,0.0,1.0,0.0,False,Micro-small,False,8/18/2021 5:26,BBB
340,704,1000009870,"TMT Integrity Flooring, LLC",13127 County Road 160,,Saint Joseph,MN,56374,USA,3203637926,,http://www.floorguy.net,10022-000,Carpet Layers,12/26/2001 0:00,,False,A+,100.0,2.0,0.0,False,Micro-small,False,1/25/2023 9:01,BBB
341,704,96378896,Danberry Building Corp,5413 Manitou Rd,,Excelsior,MN,55331,USA,6122507100,jeffdanberry@gmail.com,http://www.facebook.com/pages/Danberry-Building-Corp/125554772940?ref=ts,10035-200,Contractor - Remodel & Repair,2/16/2010 0:00,,False,A+,100.0,4.0,0.0,False,Small,False,1/13/2023 9:01,BBB
342,704,8051,Reed&#39;s Family Outdoor Outfitters,522 Minnesota Ave,,Walker,MN,56484,USA,2185471505,cs@reedssports.com,http://www.reedssports.com,50608-000,Sporting Goods - Retail,8/13/1971 0:00,,True,A+,100.0,100.0,,False,Small,False,2/8/2023 9:27,BBB
343,704,96021174,Knight Inspection Services,2840 Laurel St S,,Cambridge,MN,55008,USA,7636890324,steve@knightinspectionservice.net,http://www.knightinspectionservice.net,60469-000,Home Inspection Service,1/1/1997 0:00,,False,A+,100.0,1.0,,False,Micro-small,False,9/24/2021 3:47,BBB
344,704,25001534,Conzemius Property Management,2028 Montreal Ave,,Saint Paul,MN,55116,USA,6514377805,martyconzemius@gmail.com,http://www.cpm-homes.com,60732-000,Property Management,8/5/2002 0:00,,True,A+,100.0,10.0,0.0,False,Micro-small,False,2/3/2023 9:11,BBB
345,704,96090048,"Orca Machine Tools, Inc",6551 Jansen Ave NE STE 203,,Albertville,MN,55301,USA,7634949825,office@orca-inc.com,http://www.orca-inc.com,80452-000,Machinery - Used,11/1/2001 0:00,,False,A+,100.0,5.0,,False,Small,False,2/3/2021 4:46,BBB
346,704,96082929,Shred Right,6301 W Old Shakopee Rd,,Minneapolis,MN,55438,USA,6516473484,matt@shredrightnow.com,http://www.shredrightnow.com,30463-000,Paper & Document Shredding,2/7/1983 0:00,,False,A+,100.0,75.0,0.0,False,Small,False,9/28/2022 10:19,BBB
347,704,96184387,Kristi's,301 N Cedar Ave,,Owatonna,MN,55060,USA,5074440400,kristisclothes@smig.net,http://Kristisclothing.com,50740-000,Womens Apparel - Retail,11/1/1996 0:00,,False,A+,100.0,4.0,,False,Small,False,3/26/2022 8:28,BBB
348,704,96112421,Farmington Senior Center,325 Oak St,,Farmington,MN,55024,USA,6512806970,mkohlbeck@farmingtonmn.gov,http://www.farmingtonmn.gov,60792-000,Senior Citizens Service Organization,1/1/1982 0:00,,False,A+,100.0,2.0,0.0,False,Micro-small,False,6/15/2022 9:01,BBB
349,704,8005238,"Weather Modification, Inc.",3802 20th St N,,Fargo,ND,58102,USA,7012355500,rjenson@weathermod.com,http://www.weathermod.com,60323-000,Electronic Equipment & Suppliers - Service & Repair,2/14/1961 0:00,,False,A+,100.0,3.0,,False,Micro-small,False,10/28/2021 4:09,BBB
350,704,1000052425,Compensation Consultants Ltd,807 Cloquet Ave,,Cloquet,MN,55720,USA,2188796725,,https://ccflex.com/,60172-107,Consultant - Employee Benefit Plans,10/28/1987 0:00,,False,A+,100.0,1.0,0.0,False,Micro-small,False,11/30/2022 9:27,BBB
351,704,96157317,"Prairie Capital, Inc.",881 Lincoln Ave,,Saint Paul,MN,55105,USA,6513873026,,http://www.prairiecapitalmn.com/,20045-000,Investment Advisory Service,3/23/2010 0:00,,False,NR,0.0,2.0,0.0,False,Micro-small,False,2/1/2023 8:57,BBB
352,704,96274807,Buffalo Builders,3620 80th Ave Se,,Jamestown,ND,58401,USA,7012523200,BuffaloBuilders@daktel.com,https://www.buffalobuildersjamestown.com,10035-000,Contractors - General,1/1/1997 0:00,,False,A+,100.0,1.0,,False,Micro-small,False,1/4/2023 9:05,BBB
353,704,96176591,"Istonish, Inc.",333 Washington Ave N Ste 300,,Minneapolis,MN,55401,USA,6123737041,info@istonish.com,http://www.istonish.com,60346-100,Environmental Consulting & Contracting,8/10/2010 0:00,,False,NR,0.0,1.0,,False,Micro-small,False,12/10/2022 9:02,BBB
354,704,96089012,"Schneider, Baudler & Abbott, PC",13616 N Coral Gables Dr,,Phoenix,AZ,85023,USA,7633151100,myles@maschneider.com,http://www.maschneider.com,60075-000,Attorneys & Lawyers,1/1/2002 0:00,,False,A+,100.0,,0.0,False,Micro-small,False,8/7/2021 4:10,BBB
355,704,96084859,Knudsen Electric Inc,2447 Stewart Ave,,Saint Paul,MN,55116,USA,6513352756,,http://www.knudsenelectric.com,10049-000,Electricians,1/1/2006 0:00,4/28/2016 0:00,False,NR,0.0,1.0,,False,Micro-small,False,4/29/2019 4:00,BBB
356,704,41001401,"Bismarck Heating & Air Conditioning, Inc",913 S 18th St,,Bismarck,ND,58504,USA,7012232338,bisheating@hotmail.com,http://www.facebook.com/bismarckheating,10182-000,Heating & Air Conditioning,1/1/1971 0:00,,False,A+,100.0,25.0,,False,Small,False,12/17/2022 9:00,BBB
357,704,96385054,"Stone Arch Landscapes, Inc.",PO Box 18186,1600 18th Ave NE,Minneapolis,MN,55418,USA,6128500253,Alex@stonearchlandscapes.com,http://www.stonearchlandscapes.com,00155-000,Landscape Contractors,3/29/2013 0:00,,False,A+,100.0,4.0,0.0,False,Small,False,1/21/2023 8:55,BBB
358,704,1000018947,Metropolitan Companies,9112 Davenport St NE,,Minneapolis,MN,55449,USA,6122215888,cole@plumbermn.com,http://www.plumbermn.com,10113-100,Plumbers - Commercial,12/15/2017 0:00,,True,A+,100.0,5.0,0.0,False,Micro-small,False,6/17/2022 8:36,BBB
359,704,96071837,A-All Occasion Bus & Limo Inc,18530 NE Ulysses St,,Cedar,MN,55011,USA,6512485507,info@partybuses.com,http://www.partybuses.com,70562-000,Limousine Service,1/1/2001 0:00,,False,A+,100.0,3.0,0.0,False,Micro-small,False,11/6/2021 4:01,BBB
360,704,1000038396,Arrowhead Engineered Products,3705 95th avenue n.e.,,Blaine,MN,55014,USA,7632552550,,https://arrowheadepinc.com/,44040-000,Engineering,6/29/2020 0:00,,False,A,96.53,1.0,,False,Micro-small,False,2/8/2023 9:28,BBB
361,704,1000003479,Mainstreet Designs,860 Downs Road,,Champlin,MN,55316,USA,7634339120,information@mainstdesigns.com,http://www.mainstreetdesigns.com/,50269-000,Flags & Banners,1/15/1992 0:00,,False,A+,100.0,1.0,0.0,False,Micro-small,False,12/22/2022 9:08,BBB
362,704,96149415,Balboa Capital Corporation,2010 Main St,11th Fl,Irvine,CA,92614,USA,9497560800,,http://www.balboacapital.com,60504-000,Leasing Service,1/1/2007 0:00,,False,NR,0.0,150.0,,False,Medium,False,5/9/2017 3:59,BBB
363,704,43000948,"Curb Masters, Inc.",496 Farwell Ave STE A,,South Saint Paul,MN,55075,USA,6514555251,cody@curbmasters.info,http://www.curbmasters.info,10032-000,Concrete Contractors,2/16/1988 0:00,,False,A+,100.0,100.0,,False,Micro-small,False,1/13/2023 9:01,BBB
364,704,1000011435,Regina Finkelstein - RE/MAX Results,11200 W 78th St,,Eden Prairie,MN,55344,USA,9528292911,reginaremax@comcast.net,https://reginafinkelstein.results.net/,60729-000,Real Estate,8/9/1991 0:00,,False,A+,100.0,1.0,0.0,False,Micro-small,False,7/20/2021 4:05,BBB
365,704,96057606,Eagle Ridge Apartments,7020 Magda Dr,,Osseo,MN,55369,USA,7635337303,eagleridge@condormgt.com,http://www.condormgt.com,60042-000,Apartments,1/1/1982 0:00,,False,A+,100.0,14.0,,False,Micro-small,False,4/6/2021 4:17,BBB
366,704,1000025470,Thepassiontee.com,349 3rd St,,Claremont,MN,55924,USA,,,https://www.facebook.com/Passion-Tee-1582016678781113/,62100-000,Online Retailer,,9/19/2019 0:00,False,NR,0.0,1.0,,False,Micro-small,False,9/26/2022 8:37,BBB
367,704,96038561,Pedersen Auto Shop,101 3rd St,,Farmington,MN,55024,USA,6514632111,service@pedersenautoshop.com,http://www.pedersenautoshop.com,60997-000,Auto Services,5/3/1989 0:00,,False,A+,100.0,6.0,,False,Micro-small,False,3/10/2021 4:42,BBB
368,704,96006021,Radisson Plaza Hotel,35 S 7th St,,Minneapolis,MN,55402,USA,6123394900,kathryn.laulainen@radisson.com,http://www.radisson.com,60447-000,Hotels,1/1/1986 0:00,,False,A+,100.0,171.0,,False,Medium,False,7/8/2022 12:21,BBB
369,704,1000016544,All Pets Hospital Inc,5030 Gateway Dr Unit A,,Grand Forks,ND,58203,USA,7017469707,,http://allpetshospitalinc.com,00222-000,Veterinarians,5/30/2008 0:00,,False,C+,77.0,1.0,0.0,False,Micro-small,False,3/26/2022 8:28,BBB
370,704,1000010630,Vibeto Orthodontics,2615 Elk Dr Ste 2,,Minot,ND,58701,USA,7018396010,vibetoorthodontics@srt.com,http://www.vibetoorthodontics.com/,60289-000,Dentists,3/17/2008 0:00,,False,A+,100.0,1.0,0.0,False,Micro-small,False,11/8/2020 3:54,BBB
371,704,1000009652,Mike Ives Realty LLC,973 NE 4th St,,Grand Rapids,MN,55744,USA,2183266098,office@mikeivesrealty.com,http://Paradiseparkneighborhood.com,60729-000,Real Estate,1/1/1988 0:00,,False,A+,100.0,3.0,0.0,False,Micro-small,False,1/27/2023 9:09,BBB
372,704,21004887,E-Z Loader Boat Trailers,125 W Belvedere Rd,,Elkhart,IN,46514,USA,5742660092,,http://www.ezloader.com,50074-000,Bicycle - Dealers,1/1/1996 0:00,,False,NR,0.0,22.0,,False,Small,False,8/27/2021 4:03,BBB
373,704,1000045162,Thumb Tac Security ,333 Washington Ave N Ste 300 PMB 300-1,,Minneapolis,MN,55401,USA,8883375228,Security@thumbtacsecurity.com,https://www.thumbtacsecurity.com,60789-000,Security Guard & Patrol Service,9/14/2020 0:00,,False,A,95.55,21.0,,False,Micro-small,False,12/3/2022 9:06,BBB
374,704,1000022391,"MN Plumbing Pro, LLC",10793 256th Ave NW,,Zimmerman,MN,55398,USA,7632276172,joe@mnplumbingpro.com,https://mnplumbingpro.com/,10113-000,Plumbers,11/6/2018 0:00,,True,A+,98.58,5.0,0.0,False,Micro-small,False,4/14/2022 8:46,BBB
375,704,96297592,The UPS Store,1210 Broadway St # 240,,Alexandria,MN,56308,USA,3207633040,theupsstore3206@gmail.com,http://www.ups.com,60634-000,Packaging Service,1/1/1995 0:00,,False,A+,100.0,4.0,,False,Small,False,11/15/2022 9:11,BBB
376,704,96159621,"Strategic Horizons, Inc.",13 High Point Rd,,Saint Paul,MN,55110,USA,6516536850,bjp2@aol.com,http://www.StrategicHorizons.com,60961-000,Writers - Business,1/1/1993 0:00,,False,A+,100.0,4.0,0.0,False,Micro-small,False,3/18/2022 8:14,BBB
377,704,1000021933,Sports Cars MN,PO Box 430,,Nya,MN,55368,USA,9524673800,,https://www.sportcarsmn.com/,50040-000,Auto Dealers - Used Cars,8/30/2010 0:00,,False,A+,97.0,,0.0,False,Micro-small,False,3/11/2020 5:21,BBB
378,704,1000006640,"Fireside Orchard and Gardens, Inc.",2225 Lonsdale Blvd E,,Northfield,MN,55057,USA,5076631376,apples@firesideorchard.com,http://www.firesideorchard.com,00190-000,Orchards,8/1/1986 0:00,,False,A+,100.0,1.0,0.0,False,Micro-small,False,12/1/2020 4:03,BBB
379,704,96350418,"Hanson Building and Remodeling, LLC",4210 East 34th,,Minneapolis,MN,55406,USA,6126554961,info@hansonremodeling.com,http://www.hansonremodeling.com/,10177-000,Construction & Remodeling Services,12/19/2008 0:00,,False,A+,100.0,7.0,,False,Micro-small,False,1/14/2023 8:57,BBB
380,704,1000017525,J&C Luxury Motor LLC,4000 Main Ave,,Fargo,ND,58103,USA,7634000946,,http://jc-luxury-motor-llc.business.site/,50040-000,Auto Dealers - Used Cars,,,False,A+,98.89,1.0,0.0,False,Micro-small,False,11/2/2021 3:51,BBB
381,704,44000222,Glacier Machinery Sales Corp,PO Box 130486,,Saint Paul,MN,55113,USA,6517869700,sales@glaciermachinery.com,http://www.glaciermachinery.com,80452-000,Machinery - Used,3/3/1985 0:00,,False,A+,100.0,1.0,,False,Small,False,3/25/2022 8:39,BBB
382,704,96356343,Canvas Craft Inc,5781 Queens Ave NE STE A,,Elk River,MN,55330,USA,7634284325,info@canvascraftinc.com,http://www.canvascraftinc.com,80136-000,Canvas Goods,2/1/1988 0:00,,False,A+,100.0,20.0,,False,Micro-small,False,4/20/2022 8:35,BBB
383,704,96342086,Chili's,4000 Vinewood Ln N,,Minneapolis,MN,55442,USA,7635577000,,http://www.chilis.com,50544-000,Restaurants,7/5/2007 0:00,,False,NR,0.0,50.0,0.0,False,Medium,False,3/2/2022 10:31,BBB
384,704,96569273,Mary Kay Cosmetics - Independent Sales Director,1125 N 40th Ave E,,Duluth,MN,55804,USA,2185252063,,http://www.marykay.com/jseliga,61036-000,Door-to-Door Sales - Cosmetics,5/27/2015 0:00,,False,NR,0.0,,0.0,False,Micro-small,False,7/7/2019 4:05,BBB
385,704,96137583,Stepan Agency Inc,407 Vermillion St,,Hastings,MN,55033,USA,6514801000,,http://www.stepaninsurance.com,20019-200,Insurance Agents,1/1/2008 0:00,,False,A+,100.0,3.0,,False,Micro-small,False,4/22/2021 4:11,BBB
386,704,96380282,Ricker & Associates CPA,12800 Industrial Park Blvd Ste 100,,Plymouth,MN,55441,USA,7635539800,pam@rickercpa.com,http://www.rickercpa.com,60004-000,Accountants - Certified Public,6/22/2006 0:00,,False,A+,100.0,1.0,,False,Micro-small,False,10/24/2020 4:08,BBB
387,704,1000054127,S&L Recreational Landscapes,854 Washington St Nw,,Anoka,MN,55303,USA,7639991548,,https://slrecreationallandscapes.com/,00155-000,Landscape Contractors,5/24/2020 0:00,,False,A,95.94,1.0,0.0,False,Micro-small,False,10/8/2022 8:10,BBB
388,704,1000017766,Thirteen Main,13 Main Ave E,,Deer River,MN,56636,USA,2182468622,nicole@thirteenmain.com,http://www.thirteenmain.com,50291-000,Furniture - Retail,,,False,A+,100.0,1.0,0.0,False,Micro-small,False,8/12/2022 8:33,BBB
389,704,96025619,CareMate Home Health Care Inc,2236 Marshall Ave,,Saint Paul,MN,55104,USA,6516590208,raarules86@gmail.com,http://www.carematehomehealthcare.com,60441-000,Home Health Services,1/1/2002 0:00,,False,A+,100.0,15.0,,False,Micro-small,False,5/27/2022 8:35,BBB
390,704,96014654,"Enchanted Forests, Inc.",22846 Baseline Blvd,,Jordan,MN,55352,USA,6127470031,enchantedforestsinc@gmail.com,http://www.enchantedforests.net,00219-000,Tree Service,1/1/1994 0:00,,True,A+,100.0,1.0,,False,Micro-small,False,9/28/2022 10:19,BBB
391,704,96083493,Studio 71 Salon,201 Main St S Ste 2,,Sauk Centre,MN,56378,USA,3203526139,,http://www.studio71salon.net,60134-000,Beauty Salons,1/1/1984 0:00,,False,A+,100.0,6.0,,False,Micro-small,False,12/11/2021 4:04,BBB
392,704,96344433,One Source Insurance LLC,1300 Godward St NE Ste 1300,,Minneapolis,MN,55413,USA,6124446277,,https://www.onesourceib.com/,20021-000,Insurance - Auto,8/11/2008 0:00,,False,A+,100.0,3.0,,False,Micro-small,False,11/1/2022 19:50,BBB
393,704,1000020673,Knudson Chiropractic PLLC,21897 S Diamond Lk Rd Suite 700,,Rogers,MN,55374,USA,7632084424,,http://www.knudsonchiropractic.com/,60205-000,Chiropractors D.C.,11/3/2016 0:00,,False,A+,100.0,1.0,0.0,False,Micro-small,False,11/24/2021 4:23,BBB
394,704,1000008380,"Redwood Falls Nursery, Inc",1216 S Mill St,,Redwood Falls,MN,56283,USA,5076378615,nursery@newulmtel.net,http://redwoodfallsnursery.com/,50460-000,"Nurseries - Plants, Trees",12/21/1976 0:00,,False,A+,100.0,1.0,0.0,False,Micro-small,False,1/28/2020 4:21,BBB
395,704,1000051818,Midwest Custom Decks and Remodeling,28275 670th Ave,,Dexter,MN,55926,USA,5072728361,MWCustomDecks@gmail.com,https://www.facebook.com/MWCustomDecks?ref=py_c,10035-000,Contractors - General,7/15/2021 0:00,,False,A-,93.45,1.0,0.0,False,Micro-small,False,12/1/2022 9:22,BBB
396,704,1000011666,Rison Design,1015 8th St SE Apt 307,,Minneapolis,MN,55414,USA,6512467378,risondesign@gmail.com,http://www.risondesign.com/,50275-000,Florists - Retail,2/15/2012 0:00,,False,A+,100.0,,0.0,False,Micro-small,False,1/23/2020 4:20,BBB
397,704,96095669,Dale Carnegie Training,4938 Lincoln Dr,,Edina,MN,55436,USA,9525485600,holly.connolly@dalecarnegie.com,http://minnesota.dalecarnegie.com,60319-000,Educational Consultants,1/1/2011 0:00,,False,A+,100.0,10.0,,False,Micro-small,False,6/18/2022 8:22,BBB
398,704,96007923,Animal Medical Clinic of St Paul,234 Snelling Ave S,,Saint Paul,MN,55105,USA,6516901564,dr.whitman@animalmedical.org,http://www.animalmedical.org,00222-000,Veterinarians,9/1/1973 0:00,,False,A+,100.0,13.0,0.0,False,Small,False,4/1/2020 4:42,BBB
399,704,96297745,Fiedler&#39;s Your Pumping Specialists Inc,18627 Nature Rd,,Royalton,MN,56373,USA,3202529916,office@fiedlerpumping.com,http://www.fiedlerpumping.com,60793-000,Septic Tanks & Systems Cleaning,4/1/2010 0:00,,False,A+,100.0,8.0,,False,Small,False,1/18/2023 9:32,BBB
