BBBID,BusinessID,BusinessName,StreetAddress,StreetAddress2,City,StateProvince,PostalCode,Country,Phone,Email,Website,TOBID,DateBusinessStarted,DateBusinessClosed,IsBBBAccredited,BBBRatingGrade,BBBRatingScore,NumberOfEmployees,NumberOfPartTimeEmployees,IsHQ,SizeOfBusiness,IsCharity,CDWLastUpdate
704,10,Able Movers LLC,12285 Rush Cir NW,,Elk River,MN,55330.0,USA,8007052906.0,info@AbleMovingCorp.com,https://www.ablemovingcorp.com/,70571-000,1969-01-01 00:00:00,2005-04-14 00:00:00,False,NR,0.0,10.0,0.0,False,Micro-small,False,2022-06-22 11:32:00
704,100,Bob & Carl&#39;s Auto Body,107 Central Ave,,Osseo,MN,55369.0,USA,7634252177.0,info@bobandcarls.com,http://www.bobandcarls.com,60094-000,1969-01-05 00:00:00,,False,A+,100.0,8.0,0.0,False,Small,False,2022-07-29 08:29:00
704,10000,Little Co Inc The,17766 Langford Blvd,,Prior Lake,MN,55372.0,USA,9524475922.0,,,10078-000,1973-01-01 00:00:00,2018-10-22 00:00:00,False,NR,0.0,5.0,0.0,False,Micro-small,False,2022-12-13 09:02:00
704,1000000000,The File Depot,2110 W 98th St,,Bloomington,MN,55431.0,USA,6124446345.0,chuckpittman@thefiledepot.com,http://thefiledepot.com,60632-200,2015-06-18 00:00:00,,False,A+,100.0,1.0,0.0,False,Micro-small,False,2022-12-02 09:29:00
704,1000000001,Tree Trust Landscape Services,1419 Energy Park Dr,,Saint Paul,MN,55108.0,USA,9527673880.0,jareds@treetrust.org,https://treetrust.org/,60330-000,1976-03-16 00:00:00,,True,A+,100.0,20.0,0.0,False,Micro-small,False,2023-01-13 09:01:00
704,1000000002,Domino's Pizza,1058 Enterprise Dr E,,Belle Plaine,MN,56011.0,USA,9528732020.0,,Twitter › dominos,50544-000,,,False,NR,0.0,,0.0,False,Micro-small,False,2020-02-01 04:31:00
704,1000000003,Vetter Homes Inc,Po Box 7142,,Bismarck,ND,58507.0,USA,7012233236.0,,,10035-000,2016-03-29 00:00:00,,False,NR,0.0,1.0,0.0,False,Micro-small,False,2022-04-13 08:06:00
704,1000000004,Leimer Construction,106 N 6th Ave E,,Truman,MN,56088.0,USA,5077762350.0,,,10035-000,2010-01-01 00:00:00,,False,NR,0.0,4.0,0.0,False,Micro-small,False,2023-01-07 09:07:00
704,1000000005,Karja Construction,2781 62nd St Nw,,Maple Lake,MN,55358.0,USA,6129681882.0,,,10177-000,2001-01-01 00:00:00,,False,A+,100.0,3.0,0.0,False,Micro-small,False,2022-09-29 08:50:00
704,1000000007,Verndale Custom Builders,302 E Mason Ave,,Verndale,MN,56481.0,USA,2184456006.0,info@verndalecustombuilders.com,http://www.verndalecustombuilders.com/,10078-000,2013-01-14 00:00:00,,False,A+,100.0,6.0,0.0,False,Small,False,2022-12-02 09:29:00
704,1000000009,"Larry Brooks Builders, Inc.",185 High Point Pl NE Ste 101,,Byron,MN,55920.0,USA,5077756244.0,,,10035-000,2003-03-04 00:00:00,,False,NR,0.0,1.0,0.0,False,Micro-small,False,2022-10-04 08:07:00
704,1000000010,Kottkes&#39; Bus Service,13625 Jay St NW,,Andover,MN,55304.0,USA,7637558506.0,,http://kottkesbus.com/,70529-000,1961-12-19 00:00:00,,False,NR,0.0,1.0,0.0,False,Micro-small,False,2022-11-15 09:11:00
704,1000000011,Metrowide Legal Services,15050 Cedar Ave Ste 116-259,,Apple Valley,MN,55124.0,USA,6129784454.0,baker@metrowidelegal.com,http://www.metrowidelegal.com/,60075-000,2010-12-09 00:00:00,,False,A+,100.0,1.0,0.0,False,Micro-small,False,2020-03-14 04:18:00
704,1000000012,Midwest Canine,775 40th Ave,,Beaver Creek,MN,56116.0,USA,5076732571.0,midwestcanine@earthlink.net,http://www.midwestcanine.com/,05195-000,,,False,NR,0.0,1.0,0.0,False,Micro-small,False,2022-11-01 08:13:00
704,1000000013,Holysmokerpits,5689 Hermantown rd,,Hermantown ,MN,55810.0,USA,2184612791.0,,,80467-200,,,False,NR,0.0,1.0,0.0,False,Micro-small,False,2022-11-13 09:01:00
704,1000000014,Lewk,945 Broadway ST NE #160,,Minneapolis,MN,55413.0,USA,6122008647.0,hr@lewk.com,,55093-000,2015-04-01 00:00:00,,False,A+,100.0,1.0,0.0,False,Micro-small,False,2022-12-07 09:09:00
704,1000000015,Longleaf Reclaimed Timber,416 35th Ave NE,,Minneapolis,MN,55418.0,USA,6124904315.0,longleafreclaimedtimber@gmail.com,,50291-000,,,False,A+,100.0,1.0,0.0,False,Micro-small,False,2022-07-08 12:27:00
704,1000000016,Live Tree Nursery,146 Wilderness Way,,Good Thunder,MN,56037.0,USA,5072783414.0,,,00155-000,1984-01-01 00:00:00,,False,NR,0.0,1.0,0.0,False,Micro-small,False,2022-04-13 08:06:00
704,1000000017,"AAA Construction, LLC",8849 Branson Dr,,Inver Grove,MN,55076.0,USA,6127200881.0,lorchgreg@yahoo.com,,10177-000,2008-12-30 00:00:00,,False,A+,100.0,1.0,0.0,False,Micro-small,False,2021-05-04 04:06:00
704,1000000018,Favorfloat Corporation,4111 Central Ave NE Ste 203,,Columbia Hts,MN,55421.0,USA,7637880221.0,pjegede@aol.com,http://www.favorfloat.com,90027-200,2014-11-26 00:00:00,,False,A+,100.0,2.0,0.0,False,Micro-small,False,2022-12-02 09:29:00
704,1000000019,Discount Plumbing and Drain Cleaning ,4318 Upton Ave S Ste 210,,Minneapolis,MN,55410.0,USA,6124443540.0,dispatch@asapmn.com,https://www.discountplumbers.com,10113-000,2012-04-03 00:00:00,,True,A+,100.0,20.0,0.0,False,Small,False,2023-01-10 08:49:00
704,1000000020,"Ron&#39;s Auto Repair of Mankato, LLC",22695 589th Ave,,Mankato,MN,56001.0,USA,5073860660.0,ronsautorepairmankato@gmail.com,http://www.ronsautorepairmankato.com,60103-000,2002-04-01 00:00:00,,False,A+,100.0,3.0,0.0,False,Micro-small,False,2022-11-30 09:27:00
704,1000000021,Black Jack Seal Coating,3520 84th Cir N,,Brooklyn Park,MN,55443.0,USA,6129103032.0,,,85295-000,2015-04-13 00:00:00,2017-01-30 00:00:00,False,NR,0.0,1.0,0.0,False,Micro-small,False,2019-02-16 04:06:00
704,1000000022,Klein Lawn Care,14268 Underclift St NW,,Andover,MN,55304.0,USA,7635670493.0,,,00157-000,2009-08-12 00:00:00,2019-10-14 00:00:00,False,NR,0.0,1.0,0.0,False,Micro-small,False,2020-12-11 04:12:00
704,1000000023,"Schaper Engineering, LLC",PO Box 26,,Mound,MN,55364.0,USA,7635673035.0,craig@schaperengineering.com,https://schaperengineering.com/,60339-000,2013-10-01 00:00:00,,True,A+,100.0,1.0,0.0,False,Micro-small,False,2022-07-08 12:27:00
704,1000000024,new 2 you,501 Broadway W,,Little Falls,MN,56345.0,USA,3206392232.0,,,50655-000,,,False,NR,0.0,,0.0,False,Micro-small,False,2020-02-01 04:31:00
704,1000000025,River and Son,79 Wendy Ct,,Shoreview,MN,55126.0,USA,6517282144.0,,,10177-000,2016-03-31 00:00:00,,False,NR,0.0,1.0,0.0,False,Micro-small,False,2022-07-09 08:20:00
704,1000000026,Insurance Specialists Team,530 Jefferson Blvd,,Big Lake,MN,55309.0,USA,7632443735.0,tim@istmn.com,http://www.insurancespecialiststeam.com,20080-000,2001-03-02 00:00:00,,False,A+,100.0,11.0,0.0,False,Micro-small,False,2022-12-02 09:29:00
704,1000000027,Blackduck Auto Parts Inc,25730 Highway 71 Ne,,Blackduck,MN,56630.0,USA,2188354278.0,,,50342-000,1984-01-01 00:00:00,,False,NR,0.0,1.0,0.0,False,Micro-small,False,2022-04-10 08:12:00
704,1000000028,"Justice Lawn Care & Landscaping, LLC",23255 128th St NW,,Elk River,MN,55330.0,USA,6122503893.0,tim@justicelandscaping.com,http://www.justicelawncare.com/,00157-000,2009-07-06 00:00:00,,False,A+,100.0,2.0,0.0,False,Micro-small,False,2022-12-07 09:09:00
704,1000000029,Code 3 Construction LLC,3233 Greenbrier St,,Vadnais Heights,MN,55127.0,USA,6512602892.0,,,10177-000,,,False,A+,100.0,1.0,0.0,False,Micro-small,False,2022-12-21 09:22:00
704,1000000030,Northland Water Service Inc,27067 661st Ave,,Gibbon,MN,55335.0,USA,5078346496.0,bdscherer08@yahoo.com,,30370-000,1984-01-01 00:00:00,,False,A+,100.0,2.0,0.0,False,Micro-small,False,2022-12-02 09:29:00
704,1000000031,D W Sampson Center & Services,23245 Sunset Rd NE,,Bethel,MN,55005.0,USA,6122215884.0,dwsampsonconst@gmail.com,,10035-000,2001-08-01 00:00:00,,False,A+,100.0,1.0,0.0,False,Micro-small,False,2022-12-02 09:29:00
704,1000000032,A Clean Home,9116 Portland Ave S,,Bloomington,MN,55420.0,USA,9524869666.0,acleanhomemn@gmail.com,,66002-000,2010-04-06 00:00:00,,False,A+,100.0,1.0,0.0,False,Micro-small,False,2022-12-22 09:08:00
704,1000000033,"ABC BookWerks, LLC",2420 E 117th St Ste 100,,Burnsville,MN,55337.0,USA,6122422120.0,amy@bookwerks.com,http://www.abcbookwerks.com,60155-000,2013-04-03 00:00:00,,False,A+,100.0,1.0,0.0,False,Micro-small,False,2022-12-02 09:29:00
704,1000000034,Dawn Farrington - Re/Max Results,604 Bielenberg Dr Ste 100,,Saint Paul,MN,55125.0,USA,6519837166.0,dawn.farrington@results.net,,60729-000,2016-03-31 00:00:00,,False,A+,100.0,1.0,0.0,False,Micro-small,False,2022-12-02 09:29:00
704,1000000035,"Klein Lawn and Landscape,LLC",198 Griggs Street South,,Saint Paul,MN,55105.0,USA,6518955895.0,kleinlawnlandscape@gmail.com,https://www.facebook.com/kleinlawnandlandscape/,00157-000,2013-02-21 00:00:00,,False,NR,0.0,1.0,0.0,False,Micro-small,False,2020-12-05 04:10:00
704,1000000036,Ang's Consignment Center,127 Main St,,Clinton,MN,56225.0,USA,3203439054.0,angsconsignmentcenter@hotmail.com,https://www.facebook.com/angocc/,50159-000,,2016-08-14 00:00:00,False,NR,0.0,,,False,Micro-small,False,2019-08-19 04:05:00
704,1000000037,Peltier Plumbing,1023 Dwane St,,South Saint Paul,MN,55075.0,USA,6514556574.0,,,10003-000,2010-08-30 00:00:00,,False,NR,0.0,3.0,0.0,False,Micro-small,False,2022-04-13 08:06:00
704,1000000038,Lakeside Lawn & Landscape,9166 Schaller Rd,,Pequot Lakes,MN,56472.0,USA,2185436726.0,,,00155-000,1988-01-01 00:00:00,,False,NR,0.0,15.0,0.0,False,Micro-small,False,2022-08-23 08:27:00
704,1000000039,Lakeside Lawn Service,17856 County Road 145,,South Haven,MN,55382.0,USA,3205586902.0,,,00157-000,2010-01-01 00:00:00,2021-04-01 00:00:00,False,NR,0.0,2.0,0.0,False,Micro-small,False,2021-04-03 04:03:00
704,1000000040,Robbinsdale Wine & Spirits,3501 Bottineau Blvd,,Robbinsdale,MN,55422.0,USA,7635379012.0,,http://www.robbinsdalemn.com/services/municipal-liquor-store,50399-000,2016-04-01 00:00:00,,False,NR,0.0,1.0,0.0,False,Micro-small,False,2022-10-14 08:13:00
704,1000000041,Sky Visions,PO Box 311,,Elgin,ND,58533.0,USA,,,,70623-000,,,False,NR,0.0,1.0,0.0,False,Micro-small,False,2020-02-01 04:31:00
704,1000000042,Heritage Xteriors,570 Braund St #5,,Onalaska,WI,54650.0,USA,8663829230.0,avanwinkle@heritageexteriors.us,http://www.heritagexteriors.com,10126-000,2015-01-13 00:00:00,,False,NR,0.0,1.0,0.0,False,Micro-small,False,2022-06-11 08:14:00
704,1000000043,"Alternative Landscaping, LLC",1395 White Bear Ave N,,Saint Paul,MN,55106.0,,6123251523.0,jc@everlastingturfs.com,http://www.diyturfguru.com,30020-000,2002-05-20 00:00:00,,False,A+,100.0,1.0,0.0,False,Micro-small,False,2023-01-19 08:51:00
704,1000000044,Albin Remodeling,1029 36th Ave W,,West Fargo,ND,58078.0,USA,7017300038.0,,,10177-000,,2021-06-22 00:00:00,False,NR,0.0,1.0,0.0,False,Micro-small,False,2021-07-21 05:18:00
704,1000000045,Commercial Millwork Solutions,15051 Biscayne Ave W,,Rosemount,MN,55068.0,USA,6513227968.0,,,30401-000,,,False,A+,99.59,20.0,0.0,False,Small,False,2020-02-01 04:31:00
704,1000000046,Caliber Products Inc.,12500 W. Frontage Road,,Burnsville,MN,55337.0,USA,9529859999.0,pauld@caliberproductsinc.com,http://www.caliberproductsinc.com,80680-000,1996-05-09 00:00:00,,False,A+,100.0,1.0,0.0,False,Micro-small,False,2022-12-02 09:29:00
704,1000000047,Contract Textiles & Furnishing,17189 Hannibal Ct,,Lakeville,MN,55044.0,USA,9529977990.0,,,80496-000,,,False,A+,100.0,1.0,0.0,False,Micro-small,False,2021-10-16 04:13:00
704,1000000048,Shack's Law PLLC,2355 Highway 36 W Ste 413,,Saint Paul,MN,55113.0,USA,6513334840.0,evan@shackslaw.com,http://www.shackslaw.com/,60075-000,2012-06-04 00:00:00,,False,NR,0.0,1.0,0.0,False,Micro-small,False,2022-04-03 08:23:00
704,1000000049,Beloved Laser Tattoo Removal,1563 Como Ave,,Falcon Hgts,MN,55108.0,USA,6517973738.0,belovedlasertattooremoval@gmail.com,http://www.belovedlasertattooremoval.com,60855-000,2016-04-01 00:00:00,,False,A+,100.0,1.0,0.0,False,Micro-small,False,2022-12-02 09:29:00
704,1000000050,Pinkham Tax & Accounting,1325 County Road D Cir E,,Saint Paul,MN,55109.0,USA,6518884050.0,lindsay@np-cpa.com,http://www.np-cpa.com,60005-000,2016-04-01 00:00:00,,False,A+,100.0,1.0,0.0,False,Micro-small,False,2022-12-02 09:29:00
704,1000000051,"Stamp-n-Storage, Inc.",25 Michigan St SE Ste B,,Hutchinson,MN,55350.0,USA,8442390227.0,contact@stampnstorage.com,http://www.stampnstorage.com/,50194-000,,,False,A+,100.0,1.0,0.0,False,Micro-small,False,2022-04-22 08:18:00
704,1000000052,Personalized Insurance Consulting Agency LLC,3021 E Minnehaha Pkwy,,Minneapolis,MN,55417.0,USA,6128400785.0,ekatajamaki@comcast.net,http://personalizedinsuranceconsulting.com/,20027-000,2016-04-04 00:00:00,,False,A+,100.0,1.0,0.0,False,Micro-small,False,2022-12-03 09:06:00
704,1000000053,Uniform Advantage,8366 Highway 7,,Minneapolis,MN,55426.0,USA,9529333277.0,bheider@usstores.com,,60294-000,2016-04-04 00:00:00,,False,A+,100.0,1.0,0.0,False,Micro-small,False,2022-12-02 09:29:00
704,1000000054,Herzl Camp,4330 Cedar Lake Rd S,,Minneapolis,MN,55416.0,USA,9529274002.0,,,60179-000,2008-02-08 00:00:00,,False,NR,0.0,1.0,0.0,False,Micro-small,False,2022-10-04 08:07:00
704,1000000055,For Pet&#39;s Sake,11724 Ulysses St NE,,Blaine,MN,55434.0,USA,7633166827.0,info@4petssake.biz,,88300-000,2015-04-07 00:00:00,,False,A+,100.0,3.0,0.0,False,Small,False,2023-01-11 09:00:00
704,1000000056,Traverse Counseling & Consulting,9800 Shelard Pkwy Ste 215,,Minneapolis,MN,55441.0,USA,9525955967.0,cb@traversecc.org,http://www.traversecc.org/,60540-000,2015-07-15 00:00:00,,False,A+,100.0,1.0,0.0,False,Micro-small,False,2021-11-23 06:33:00
704,1000000057,American Orthodontists,9800 Shelard Parkway #113,,Minneapolis,MN,55441.0,USA,6125983330.0,,,60291-000,2016-04-04 00:00:00,,False,NR,0.0,1.0,0.0,False,Micro-small,False,2022-04-10 08:12:00
704,1000000058,Bomberg Chiropractior,9800 Shelard Parkway #207,,Minneapolis,MN,55441.0,USA,7634501955.0,drbobberg@bombergchiropractic.com,https://www.bombergchiropractic.com,60205-000,2016-04-04 00:00:00,,False,NR,0.0,1.0,0.0,False,Micro-small,False,2022-04-10 08:12:00
704,1000000059,Synergy CafÃ©-Event Planner ,12401 Wayzata Blvd,,Hopkins,MN,55305.0,USA,6122426468.0,info@magicbrad.com,,65259-000,2007-03-15 00:00:00,,False,A+,100.0,1.0,0.0,False,Micro-small,False,2022-12-02 09:29:00
704,1000000060,"Guardian Counsel, LLC",3800 American Blvd. W. #1500,,Bloomington,MN,55431.0,USA,9528309913.0,emichaelis@guardiancounsel.com,,60075-000,2004-12-09 00:00:00,,False,A+,100.0,1.0,0.0,False,Micro-small,False,2022-12-02 09:29:00
704,1000000061,Olivers Restaurant,12401 Wayzata Blvd,,Hopkins,MN,55305.0,USA,9528769410.0,,,50544-000,2016-04-04 00:00:00,,False,NR,0.0,1.0,0.0,False,Micro-small,False,2022-04-13 08:07:00
704,1000000063,"AdrenaCard, Inc.",PO Box 141191,,Minneapolis,MN,55414.0,USA,7153704855.0,,,55336-000,2015-04-14 00:00:00,,False,NR,0.0,1.0,0.0,False,Micro-small,False,2022-10-14 08:13:00
704,1000000064,Hair Studio 763,5816 Brookdale Dr N,,Minneapolis,MN,55443.0,USA,6512788328.0,,http://www.hairstudio763.com,60134-000,2013-04-23 00:00:00,,False,NR,0.0,1.0,0.0,False,Micro-small,False,2022-04-16 08:14:00
704,1000000065,"FurnitureDealer.net, Inc.",4639 Pinetree Curve,,Eagan,MN,55122.0,USA,9523457171.0,clientrelations@furnituredealer.net,http://www.furnituredealer.net,60974-000,2006-08-02 00:00:00,,False,A+,100.0,1.0,0.0,False,Micro-small,False,2022-12-02 09:29:00
704,1000000066,Med City Fence LLC,2546 Northern Hills Ct NE,,Rochester,MN,55906.0,USA,5079518137.0,medcityfence@gmail.com,,50252-000,2008-05-12 00:00:00,,False,A+,100.0,1.0,0.0,False,Micro-small,False,2022-12-02 09:29:00
704,1000000067,C P R Sales LLC,7600 W 27th St Ste 208,,Minneapolis,MN,55426.0,USA,9522294467.0,,,60772-100,2011-03-09 00:00:00,,False,NR,0.0,1.0,0.0,False,Micro-small,False,2022-10-04 08:07:00
704,1000000068,Clockwise Transit,2003 10th Ave S,,Minneapolis,MN,55404.0,USA,6122080312.0,,,70631-000,2015-12-20 00:00:00,,False,NR,0.0,1.0,0.0,False,Micro-small,False,2021-11-13 03:59:00
704,1000000069,Digi Labs,294 Grove Ln E,,Wayzata,MN,55391.0,USA,,,,30567-000,2016-04-05 00:00:00,,False,NR,0.0,1.0,0.0,False,Micro-small,False,2022-02-12 09:24:00
704,1000000072,I Love Photography LLC,1208 Mainstreet,,Hopkins,MN,55343.0,USA,9526588185.0,elaine@ilovephotography.us,https://www.ilovephotography.us/,61044-000,2015-06-05 00:00:00,,False,NR,0.0,1.0,0.0,False,Micro-small,False,2022-04-10 08:12:00
704,1000000073,KLM Construction Inc,1255 Wildflower Ln,,Chaska,MN,55318.0,USA,9525565530.0,klm.construction@comcast.net,,10177-000,2004-02-01 00:00:00,,False,A+,100.0,1.0,0.0,False,Micro-small,False,2022-12-02 09:29:00
704,1000000074,Gloria Russell Owner Resources LLC ,527 Lovell Ave,,Saint Paul,MN,55113.0,USA,6514858826.0,gloria@russellresourcesllc.com,,60263-100,2013-10-30 00:00:00,,False,A+,100.0,1.0,0.0,False,Micro-small,False,2022-12-02 09:29:00
704,1000000075,Stephen Rudnicki-designer,31 31st Ave S,,Saint Cloud,MN,56301.0,USA,3202550128.0,steverudnicki@hotmail.com,,60057-000,2007-01-01 00:00:00,,False,A+,100.0,1.0,0.0,False,Micro-small,False,2022-12-02 09:29:00
704,1000000076,"Creative Ape Studios, LLC",100 S 5th St. Suite 1900,,Minneapolis,MN,55402.0,USA,9527974319.0,joe.ryan@creativeapestudios.com,http://creativeapestudios.com,60980-000,2015-12-15 00:00:00,,False,A+,100.0,1.0,0.0,False,Micro-small,False,2022-12-02 09:29:00
704,1000000077,West Funeral Homes,321 Sheyenne Street,,West Fargo,ND,58078.0,USA,7012826699.0,,,62000-000,2013-05-22 00:00:00,,False,NR,0.0,1.0,0.0,False,Micro-small,False,2022-10-04 08:07:00
704,1000000078,Jeff Mohr Siding,820 11th St Sw,,Pine City,MN,55063.0,USA,3202791365.0,,,10126-000,2016-04-06 00:00:00,,False,NR,0.0,1.0,0.0,False,Micro-small,False,2022-04-13 08:07:00
704,1000000079,"McGrath Automotive, Inc.",7501 Brooklyn Blvd,,Minneapolis,MN,55443.0,USA,7635608880.0,cmcgrath@mcgrathautocenter.com,,50610-000,2014-08-05 00:00:00,2018-04-17 00:00:00,False,NR,0.0,2.0,0.0,False,Micro-small,False,2021-04-20 04:01:00
704,1000000080,B & V Tree & Yard Service,904 W Turnpike Ave,,Bismarck,ND,58501.0,USA,7012551035.0,,Twitter › iamcardib,00219-000,2016-04-06 00:00:00,,False,NR,0.0,1.0,0.0,False,Micro-small,False,2022-10-05 08:45:00
704,1000000081,Z&#39;s Trees,104 12th Street SE,,Cooperstown,ND,58425.0,USA,7017973653.0,rodd.zorn@yahoo.com,http://www.zstrees.com,00219-000,2007-01-01 00:00:00,,False,A+,100.0,3.0,0.0,False,Micro-small,False,2022-12-02 09:29:00
704,1000000082,"Larkin Bros Plumbing, Heating & AC, LLC",PO Box 178,,Maple Lake,MN,55358.0,USA,7634022143.0,,https://www.facebook.com/Larkinbrosplumbing2015/timeline,10182-200,2015-05-01 00:00:00,2020-01-01 00:00:00,False,NR,0.0,1.0,0.0,False,Micro-small,False,2023-01-02 08:49:00
704,1000000083,First Pitch Inc,"1799 County Road 90, Suite #5",,Maple Plain,MN,55359.0,USA,7634796245.0,sales@firstpitch.com,http://www.firstpitch.com,80680-000,,,False,F,54.0,,0.0,False,Micro-small,False,2021-07-15 04:16:00
704,1000000084,"Red Wing Plumbing & Heating, LLC",1615 Old West Main St,,Red Wing,MN,55066.0,USA,6513889692.0,garrett@rwplumb.com,http://www.rwplumb.com/,10113-000,2015-07-27 00:00:00,,False,A+,100.0,1.0,0.0,False,Micro-small,False,2022-12-02 09:29:00
704,1000000087,Allure Skincare and Electrolysis,1675 Greeley St. S.,,Stillwater,MN,55082.0,USA,6513009155.0,annieob@comcast.net,,60322-000,2015-03-31 00:00:00,,False,A+,100.0,1.0,0.0,False,Micro-small,False,2022-12-02 09:29:00
704,1000000088,"Giese&#39;s Plumbing & Services, LLC",17380 62nd St,,New Germany,MN,55367.0,USA,6124836203.0,gpsplumbing3@gmail.com,,10113-000,2010-02-01 00:00:00,,True,A+,100.0,2.0,0.0,False,Micro-small,False,2022-07-08 12:28:00
704,1000000089,Mr. Roberts,28179 E Shore Dr,,Pengilly,MN,55775.0,USA,2188851093.0,Dan@mrrobertsresort.com,,50544-000,1984-01-01 00:00:00,,False,NR,0.0,2.0,0.0,False,Micro-small,False,2022-04-13 08:07:00
704,1000000090,Joshua Ahlquist Construction,740 Madisoan St,,Anoka,MN,55303.0,USA,6122019637.0,,,10177-000,2005-01-13 00:00:00,,False,NR,0.0,1.0,0.0,False,Micro-small,False,2022-04-16 08:14:00
704,1000000091,KMH Erectors Inc,5295 Highway 12,,Maple Plain,MN,55359.0,USA,7634792022.0,office@kmhsteel.com,,10145-000,1985-01-01 00:00:00,,False,A+,100.0,45.0,0.0,False,Micro-small,False,2022-12-02 09:29:00
704,1000000092,The Lock Up ,6250 Olson Memorial Hyw,,Golden Valley,MN,55444.0,USA,6123140151.0,,,70610-000,,,False,NR,0.0,1.0,0.0,False,Micro-small,False,2022-10-25 08:10:00
704,1000000093,Jessica Wilson Photography,7299 Terra Court,,Lino Lakes,MN,55014.0,USA,9524576410.0,,,60655-100,2012-10-16 00:00:00,,False,NR,0.0,1.0,0.0,False,Micro-small,False,2022-10-04 08:07:00
704,1000000094,MN heat Basketball,3227 Pecks Woods Turn,,New Brighton,MN,55112.0,USA,,,,60073-000,,,False,NR,0.0,1.0,0.0,False,Micro-small,False,2022-10-14 08:13:00
704,1000000095,85mm Photography,3735 Lakeland Ave N Ste 317,,Robbinsdale,MN,55422.0,USA,6128347676.0,office@photographermn.net,http://www.photographermn.net,85281-000,2008-04-06 00:00:00,,False,A+,100.0,2.0,0.0,False,Micro-small,False,2022-12-27 08:49:00
704,1000000096,MOKE Properties LLC,1220 Sumac Circle,,Fergus Falls,MN,56537.0,USA,,,,60732-000,,,False,NR,0.0,1.0,0.0,False,Micro-small,False,2022-06-03 09:03:00
704,1000000099,White Rhinos Marketing,3317 Kyle Ave N,,Minneapolis,MN,55422.0,USA,6124193950.0,synergyscott@yahoo.com,http://www.MinnesotaRoofingCo.com,60772-100,2016-04-01 00:00:00,2017-03-20 00:00:00,False,NR,0.0,10.0,,False,Small,False,2021-10-16 04:13:00
704,1000000100,Central Dakota Frontier Cooperative,94 Broadway ,PO Box 300,Napoleon,ND,58561.0,USA,7017542252.0,tobyknagel@gmail.com,http://www.dakotafrontier.com,60255-000,2016-04-06 00:00:00,,False,A+,100.0,1.0,0.0,False,Micro-small,False,2022-12-02 09:29:00
704,1000000101,Hillside Sewer and Drain LLC,2225 W Arrowhead Rd,,Hermantown,MN,55811.0,USA,2182135063.0,Hillsideseweranddrain@gmail.com,http://www.plumbercontractorsduluth.com,10043-000,2015-04-13 00:00:00,,False,A+,100.0,1.0,0.0,False,Micro-small,False,2022-12-19 08:51:00
704,1000000102,Lake Dental Group,2200 London Rd Suite 100,,Duluth,MN,55812.0,USA,2187284272.0,,,60289-000,,,False,NR,0.0,1.0,0.0,False,Micro-small,False,2021-10-21 03:59:00
704,1000000103,Martinizing Dry Cleaning,5559 Xerxes Ave S,,Minneapolis,MN,55410.0,USA,6129222449.0,tmarkwold@aol.com,http://martinizing.com/xerxes/default.aspx,60214-000,,,False,A+,100.0,1.0,0.0,False,Micro-small,False,2020-09-10 04:03:00
704,1000000105,Foss Spine and Wellness,"2921 s frontage road, suite 3",,Moorhead,MN,56560.0,USA,2182338544.0,jmfoss26@gmail.com,http://www.fswchiro.com,60205-000,2015-03-31 00:00:00,,False,A+,100.0,1.0,0.0,False,Micro-small,False,2023-01-14 08:57:00
704,1000000106,"Mike North Construction, LLC",800 N Brown Rd,,Long Lake,MN,55356.0,USA,6122460027.0,mikenorth50@gmail.com,,10177-000,2009-11-06 00:00:00,,False,A+,100.0,1.0,0.0,False,Micro-small,False,2022-12-02 09:29:00
704,1000000107,"Prime Attachments, LLC",2452 Lois Ln SE,,Alexandria,MN,56308.0,USA,3208155905.0,info@primeattach.com,http://primeattach.com/,10050-000,,,False,A+,100.0,1.0,0.0,False,Micro-small,False,2022-09-16 08:15:00
704,1000000108,Mike Kosak Construction,614 East Fairview Ave,,Olivia,MN,56277.0,USA,3205235906.0,,,10177-000,2009-03-02 00:00:00,,False,NR,0.0,1.0,0.0,False,Micro-small,False,2022-04-16 08:14:00
704,1000000109,Mike Scheveck Painting LLC,5908 Halifax Pl,,Minneapolis,MN,55429.0,USA,7635049768.0,,,10095-000,2009-06-19 00:00:00,,False,NR,0.0,2.0,0.0,False,Micro-small,False,2022-12-06 09:13:00
704,1000000110,North Central Construction LLC,33837 Helium St NW,,Cambridge,MN,55008.0,USA,7636914240.0,,,10035-000,2015-05-21 00:00:00,,False,NR,0.0,1.0,0.0,False,Micro-small,False,2022-04-16 08:14:00
704,1000000111,America's Best Contacts & Eyeglasses,12940 Riverdale Dr NW,,Coon Rapids,MN,55448.0,USA,9526561005.0,,,50467-000,,,False,A+,100.0,1.0,0.0,False,Micro-small,False,2022-06-01 21:26:00
704,1000000112,Miller Greenscapes LLC,13730 Kinsel Rd,,Minnetonka,MN,55345.0,USA,6122203926.0,,,00155-000,2010-01-20 00:00:00,,False,NR,0.0,1.0,0.0,False,Micro-small,False,2022-10-04 08:07:00
704,1000000113,Mike Buysse Construction,1101 S 4th St # 4,,Marshall,MN,56258.0,USA,5075324543.0,,,10035-000,1994-01-01 00:00:00,,False,NR,0.0,3.0,0.0,False,Micro-small,False,2022-11-02 08:36:00
704,1000000115,LCG,8421 Wayzata Blvd #300,,Minneapolis,MN,55426.0,USA,7632835410.0,mgrahek@linkconsultinggroup.com,http://www.linkconsultinggroup.com/,60172-105,2013-12-13 00:00:00,,False,A+,100.0,1.0,0.0,False,Micro-small,False,2022-12-02 09:29:00
704,1000000116,McGough Construction Warehouse,1826 1/2 Buerkle Rd,,Saint Paul,MN,55110.0,USA,6517733808.0,,,70644-000,2010-01-01 00:00:00,,False,NR,0.0,4.0,0.0,False,Micro-small,False,2022-04-13 08:07:00
704,1000000117,McCallum Construction Inc,10078 Flanders Ct NE Ste 140,,Blaine,MN,55449.0,USA,7637838244.0,McCallumconst@aol.com,http://www.mccallumconstruction.com/,10177-000,1985-01-02 00:00:00,,False,A+,100.0,1.0,0.0,False,Micro-small,False,2022-12-02 09:29:00
704,1000000118,"LaLonde Companies, LLC",4734 Xerxes Ave S,,Minneapolis,MN,55410.0,USA,6127159632.0,jared@lalondecompanies.com,,10035-000,2015-06-19 00:00:00,,False,A+,100.0,1.0,0.0,False,Micro-small,False,2022-05-09 21:30:00
704,1000000119,IGT National Inc,11782 99th Pl N,,Maple Grove,MN,55369.0,USA,6123232560.0,bob@igtnational.com,https://www.igtrestore.com/,60367-000,2014-06-16 00:00:00,,False,A+,100.0,1.0,0.0,False,Micro-small,False,2022-07-20 09:11:00
704,1000000120,Ciel Loft & Home,4416 Excelsior Blvd,,Minneapolis,MN,55416.0,USA,9529222747.0,contact@cielloftandhome.com,http://www.cielloftandhome.com/,50291-000,2012-03-30 00:00:00,,False,NR,0.0,1.0,0.0,False,Micro-small,False,2022-04-10 08:12:00
704,1000000121,Tri-County Tree Service,15936 35th Ave,,South Haven,MN,55382.0,USA,3202242494.0,,https://mntreecare.com/,00219-000,2003-01-01 00:00:00,,False,A+,100.0,3.0,,False,Micro-small,False,2022-05-19 08:39:00
704,1000000122,Dan Kroehler,8016 190th St W,,Lakeville,MN,55044.0,USA,9524693168.0,,,10035-000,2016-04-08 00:00:00,,False,NR,0.0,1.0,0.0,False,Micro-small,False,2022-06-17 08:36:00
704,1000000123,Dog-Gone Cute Puppies,57649 State Highway 55,,Eden Valley,MN,55329.0,USA,3202243179.0,kyle@doggoncutepuppies.com,http://doggonecutepuppies.com/,05195-000,2016-04-08 00:00:00,2020-11-16 00:00:00,False,NR,0.0,1.0,0.0,False,Micro-small,False,2021-06-22 04:12:00
704,1000000124,"Kerker, Inc.",7709 Pillsbury Ave S,,Minneapolis,MN,55423.0,USA,6128693232.0,,,00155-000,1991-04-22 00:00:00,,False,NR,0.0,10.0,0.0,False,Micro-small,False,2022-11-15 09:12:00
704,1000000125,"TAS Heating & Air Conditioning, LLC",450 Oak Ln,,Young America,MN,55397.0,USA,6128597627.0,tasmopar@hotmail.com,,10182-200,2013-10-24 00:00:00,,False,A+,100.0,1.0,0.0,False,Micro-small,False,2023-01-04 09:05:00
704,1000000126,Padden & McCollister PLLC,8687 Eagle Point Blvd Ste B,,Lake Elmo,MN,55042.0,USA,6517896545.0,,,60075-000,2016-04-08 00:00:00,,False,NR,0.0,1.0,0.0,False,Micro-small,False,2022-04-10 08:12:00
704,1000000127,"Mark's Aerial Services, LLC",9255 Courthouse Blvd,,Inver Grove,MN,55077.0,USA,6512478591.0,marksaerialservice@gmail.com,https://www.facebook.com/Marks-Aerial-Service-1709065676041039/,00219-000,2009-05-18 00:00:00,,False,A+,100.0,1.0,0.0,False,Micro-small,False,2022-04-27 08:41:00
704,1000000129,"Bob LeMieur Rolloffs, Refuse and Recycling, Inc.",14827 Pine Ave,,Little Falls,MN,56345.0,USA,3206329141.0,,,10177-000,2003-11-24 00:00:00,,False,NR,0.0,1.0,0.0,False,Micro-small,False,2022-10-27 08:14:00
704,1000000130,JTU Construction LLC,20849 Atlantic Puffin Dr,,Grand Rapids,MN,55744.0,USA,2189108729.0,,,10177-000,,2019-10-14 00:00:00,False,NR,0.0,,,False,Micro-small,False,2019-10-15 04:06:00
704,1000000131,"Executive Landscaping, LLC",901 7th St N,Apt 201,Sartell,MN,56377.0,USA,3204922275.0,executivelandscaping15@gmail.com,http://www.executivelandscapingmn.com/,00155-000,2015-07-27 00:00:00,,False,A+,100.0,1.0,0.0,False,Micro-small,False,2022-12-02 09:29:00
704,1000000132,Northern Tree & Landscape,5298 132nd St Sw,,Pillager,MN,56473.0,USA,2187463551.0,,,00155-000,1997-01-01 00:00:00,,False,NR,0.0,2.0,0.0,False,Micro-small,False,2022-04-13 08:06:00
704,1000000133,YMG Home Care,5811 Cedar Lake Rd S,,Minneapolis,MN,55416.0,USA,9523036025.0,,,60441-000,2007-08-17 00:00:00,,False,NR,0.0,1.0,0.0,False,Micro-small,False,2022-07-30 08:29:00
704,1000000134,Romslo Fiduciary Services,7013 Heatherton Trl,,Edina,MN,55435.0,USA,9529207502.0,jim_romslo@yahoo.com,,20085-200,,,False,A+,99.52,1.0,0.0,False,Micro-small,False,2020-02-01 04:31:00
704,1000000135,"Smarter Health Group, Inc.",4925 3rd Ave S,,Minneapolis,MN,55419.0,USA,8009755611.0,support@wartrin.com,http://www.wartrin.com/,85346-000,2012-01-13 00:00:00,,False,A+,100.0,1.0,0.0,False,Micro-small,False,2022-12-03 09:06:00
704,1000000136,CCS Concrete,1501 Main St,,Tewksbury,MA,1876.0,USA,9788582220.0,,http://www.ccsconcrete.com/index.html,10032-000,2016-04-12 00:00:00,,False,NR,0.0,,0.0,False,Micro-small,False,2021-07-23 03:59:00
704,1000000137,Concrete Doctor,904 S 17th St,,Bismarck,ND,58504.0,USA,3606433499.0,massagemomma35@gmail.com,,10032-000,2014-09-04 00:00:00,2020-11-19 00:00:00,False,NR,0.0,,0.0,False,Micro-small,False,2020-11-20 04:00:00
704,1000000138,"BeanCounters Tax & Accounting, Inc.",12017 Lindstrom Ln,,Lindstrom,MN,55045.0,USA,6512579700.0,beancounters@frontiernet.net,http://beancounterstax.com/,60857-000,2007-11-26 00:00:00,,False,A+,100.0,1.0,0.0,False,Micro-small,False,2022-12-22 09:08:00
704,1000000139,Badlands Do It Best Hardware,140 Main St South,,Watford City,ND,58854.0,USA,7018423321.0,badlandshardware@gmail.com,https://www.badlandsdoitbesthardware.com,50333-000,2004-01-12 00:00:00,,False,A+,100.0,9.0,0.0,False,Small,False,2022-02-10 09:45:00
704,1000000140,InterState Delivery,395 John Ireland Blvd,,Saint Paul,MN,55155.0,USA,3344527730.0,Info@Interstatedelivery.Us,,70542-000,2016-04-12 00:00:00,,False,A+,100.0,1.0,0.0,False,Micro-small,False,2022-12-03 09:06:00
704,1000000141,"Top Direct Services, LLC",801 W 106th St,Ste 200,Bloomington,MN,55420.0,USA,8772205506.0,info@topdirectservices.com,http://www.topdirectservices.com/,60231-000,2011-03-18 00:00:00,,True,A+,100.0,1.0,0.0,False,Small,False,2023-01-13 09:01:00
704,1000000142,Cosentino Minneapolis,14105 13th Ave N,,Minneapolis,MN,55441.0,USA,7635468456.0,,http://www.silestoneusa.com/showroom/kitchens/,85328-000,,,False,A+,99.51,1.0,0.0,False,Micro-small,False,2020-02-01 04:31:00
704,1000000143,Lake Country Lawn & Landscape LLC,4475 Forest Lake Lndg,,Mound,MN,55364.0,USA,9523808953.0,lakecountrylawn@gmail.com,http://lakecountrylawnandlandscape.com,00155-000,2007-01-01 00:00:00,,False,A+,100.0,2.0,0.0,False,Micro-small,False,2022-12-03 09:06:00
704,1000000144,Kevin Festler Land Surveying,16096 173rd St,,Little Falls,MN,56345.0,USA,3206324396.0,festlerls@gmail.com,http://festlerlandsurveying.com/,60845-000,1996-01-01 00:00:00,,False,A+,100.0,3.0,0.0,False,Micro-small,False,2022-12-03 09:06:00
704,1000000145,3-D Lawn Care LLC,35628 710th St,,Round Lake,MN,56167.0,USA,5073606084.0,,,50388-000,2014-11-20 00:00:00,,False,NR,0.0,1.0,0.0,False,Micro-small,False,2022-10-04 08:07:00
704,1000000146,Jlf Homes,5145 Industrial St # 1,,Maple Plain,MN,55359.0,USA,7634790795.0,,,10035-000,2005-05-03 00:00:00,,False,NR,0.0,3.0,0.0,False,Micro-small,False,2022-04-16 08:14:00
704,1000000147,"Aspen Garage Doors, LLC",1409 Pennsylvania Ave N,,Golden Valley,MN,55427.0,USA,6129000054.0,info@aspengarage.com,http://www.AspenGarage.com,85361-000,2015-11-19 00:00:00,,False,A+,100.0,2.0,0.0,False,Micro-small,False,2022-10-18 08:16:00
704,1000000148,"Absolute Lawn Care, Inc.",14618 Whitebirch Ln,,Crosslake,MN,56442.0,USA,2188203444.0,chase@crosslake.net,,00157-000,2013-05-24 00:00:00,,False,A+,100.0,3.0,0.0,False,Micro-small,False,2022-12-03 09:06:00
704,1000000149,Zumbro House Inc,525 Commons Dr,,Woodbury,MN,55125.0,USA,6512641000.0,,http://www.zumbrohouse.com,61018-000,2001-01-30 00:00:00,,False,A+,100.0,1.0,0.0,False,Micro-small,False,2023-01-11 09:00:00
704,1000000150,American Independent Remodelers LLC,13055 Riverdale Dr NW Ste 500,,Minneapolis,MN,55448.0,USA,7637530732.0,americanindependentremodelers@comcast.net,http://americanindependentremodelers.com/,10177-000,2009-07-29 00:00:00,,False,A+,100.0,1.0,0.0,False,Micro-small,False,2022-12-03 09:06:00
704,1000000151,Brustuen Construction Llc,280 180th Ave NW,,Holloway,MN,56249.0,USA,3202970736.0,,,30760-000,2007-01-01 00:00:00,,False,NR,0.0,1.0,0.0,False,Micro-small,False,2022-10-30 08:34:00
704,1000000152,Brian Fox Construction,14324 191st Ave Nw,,Elk River,MN,55330.0,USA,7634414739.0,,,10035-000,2010-08-30 00:00:00,,False,A-,92.0,2.0,0.0,False,Micro-small,False,2022-08-17 08:56:00
704,1000000154,Aspen Dental,2860 W Division St Ste 102,,Saint Cloud,MN,56301.0,USA,3203161089.0,BBBComplaints@aspendental.com,https://www.aspendental.com,60289-000,,,False,A-,91.0,1.0,0.0,False,Micro-small,False,2022-10-26 08:42:00
704,1000000155,National Institute for Social Media,5500 Nicollet Avenue,P.O. Box 19620,Minneapolis,MN,55419.0,USA,7632006476.0,support@nismonline.org,https://nismonline.org/,85364-100,2011-07-25 00:00:00,,False,A+,100.0,1.0,0.0,False,Micro-small,False,2022-12-13 09:03:00
704,1000000156,Knudsen Landscaping,1276 County Rd 8,,Holyoke,MN,55749.0,USA,2183913088.0,Bob@Knudsenlandscapingandexcavating.com,http://www.knudsenlandscapingandexcavating.com/,10050-000,2009-05-08 00:00:00,,False,A+,100.0,1.0,0.0,False,Micro-small,False,2022-12-03 09:06:00
704,1000000157,"Integrity Home Exteriors Plus, LLC",9177 Jefferson St NE,,Minneapolis,MN,55434.0,USA,7632800839.0,irvengloft@yahoo.com,,10035-000,2016-03-05 00:00:00,,False,A+,100.0,1.0,0.0,False,Micro-small,False,2022-12-03 09:06:00
704,1000000159,Landmark Landscape Designs Inc,19455 Elkridge Trl,,Farmington,MN,55024.0,USA,6514606098.0,mark@landmarklandscapedesigns.com,http://www.landmarklandscapedesigns.com/,00155-000,2009-12-16 00:00:00,,False,A+,100.0,1.0,0.0,False,Micro-small,False,2021-03-16 03:59:00
704,1000000160,Eye of the Tiger Defense LLC,PO Box 617,,Greenwood,MN,55331.0,USA,9522394242.0,taylor@eyeofthetigerdefense.com,http://www.eyeofthetigerdefense.com/,60791-000,2015-08-14 00:00:00,,False,A+,100.0,1.0,0.0,False,Micro-small,False,2022-12-03 09:06:00
704,1000000161,Illume ,10501 Elm Creek Blvd N,,Maple Grove,MN,55369.0,USA,9528859675.0,customerservice@illumecandles.com,https://www.illumecandles.com/,50128-000,2010-11-05 00:00:00,,False,A+,97.0,1.0,0.0,False,Micro-small,False,2021-11-23 06:33:00
704,1000000162,Winter Wilson Siding Inc,819 Woodbridge Cir,,Dilworth,MN,56529.0,USA,7013718146.0,,,10126-000,2006-06-09 00:00:00,,False,NR,0.0,2.0,0.0,False,Micro-small,False,2022-08-30 08:18:00
704,1000000163,A & J Roofing,3916 2nd St E,,West Fargo,ND,58078.0,USA,7018668266.0,,,10126-000,2016-04-13 00:00:00,,False,NR,0.0,1.0,0.0,False,Micro-small,False,2022-08-16 08:20:00
704,1000000164,Precision Home Construction,2761 180th St E,,Prior Lake,MN,55372.0,USA,6123693610.0,,http://www.precisionhomeconstruction.com/,10126-000,1993-01-08 00:00:00,,False,NR,0.0,3.0,0.0,False,Micro-small,False,2022-12-25 08:50:00
704,1000000165,Mixson Siding & Windows,136 E Belle Vue Rd,,Fairmont,MN,56031.0,USA,5072361072.0,cmixson@frontier.net,,10126-000,2008-02-05 00:00:00,,False,A+,100.0,2.0,0.0,False,Micro-small,False,2022-12-03 09:06:00
704,1000000166,New Creations Construction,PO Box 10592,,Fargo,ND,58106.0,USA,7012812531.0,,,10126-000,1995-11-29 00:00:00,,False,NR,0.0,1.0,0.0,False,Micro-small,False,2022-04-16 08:14:00
704,1000000167,"Olson & Sons Construction, INC",5231 Parker Ave,,White Bear Lake,MN,55110.0,USA,6512336896.0,olson.roofing@gmail.com,,10126-000,2009-04-21 00:00:00,2020-11-19 00:00:00,False,NR,0.0,2.0,0.0,False,Micro-small,False,2022-02-26 09:35:00
704,1000000169,"Luv Me Again Animal Rescue, Inc",PO Box 20382,,Minneapolis,MN,55420.0,USA,7636457590.0,info@luvmeagain.org,,00110-000,2012-07-24 00:00:00,,False,NR,0.0,1.0,0.0,False,Micro-small,False,2022-05-18 19:44:00
704,1000000170,Officenters Minnetonka,5775 Wayzata Blvd Ste 700,,Minneapolis,MN,55416.0,USA,9529433900.0,sales@officenters.com,http://officenters.com/,60624-000,1985-06-26 00:00:00,,False,A+,100.0,1.0,0.0,False,Micro-small,False,2022-12-03 09:06:00
704,1000000171,Parlor7 LLC,1597 Highway 7,,Hopkins,MN,55305.0,USA,9529333594.0,info@parlorseven.com,,60420-000,2015-09-28 00:00:00,,False,A+,100.0,1.0,0.0,False,Micro-small,False,2022-12-03 09:06:00
704,1000000172,Perfect Surface Tile,11221 7th St NE,,Minneapolis,MN,55434.0,USA,6122455779.0,,,85366-000,,,False,A+,100.0,1.0,0.0,False,Micro-small,False,2021-11-13 03:59:00
704,1000000173,"B & D Utilities, Inc",18245 568th ave,,Mankato,MN,56001.0,USA,5072784066.0,,Twitter › iamcardib,10050-000,,2017-09-20 00:00:00,False,NR,0.0,1.0,,False,Micro-small,False,2020-09-21 04:02:00
704,1000000174,"Tix Construction, Inc.",1735 60th St E,,Inver Grove Heights,MN,55077.0,USA,6512465756.0,JTIX@TIXCONSTRUCTION.COM,http://www.TixConstruction.com,10126-000,2008-02-01 00:00:00,,True,A+,100.0,1.0,0.0,False,Micro-small,False,2022-07-26 08:43:00
704,1000000175,Mill City Builders LLP,2624 E 22nd ST,,Minneapolis,MN,55406.0,USA,6123599505.0,info@millcitybuilders.com,http://www.millcitybuilders.com/,10177-000,1996-07-24 00:00:00,,False,A+,100.0,1.0,0.0,False,Micro-small,False,2022-12-03 09:06:00
704,1000000176,Lakeland Electric Inc.,1312 Mckay Dr NE,,Ham Lake,MN,55304.0,USA,7632454346.0,,,10049-000,2014-05-06 00:00:00,,False,NR,0.0,1.0,0.0,False,Micro-small,False,2022-04-16 08:14:00
704,1000000177,Mimm&#39;s Painting Service LLC,3887 Newtown Ct,,Eagan,MN,55123.0,USA,6212075659.0,,https://www.facebook.com/Mimms-Painting-Service-267067629976380/,10095-000,2009-06-19 00:00:00,,False,NR,0.0,1.0,0.0,False,Micro-small,False,2022-10-04 08:07:00
704,1000000178,Minn Dak Insulation Inc,1005 Pacific Ave,,Benson,MN,56215.0,USA,3208434868.0,,https://www.facebook.com/MinndakInsulation/timeline,10112-000,1986-05-23 00:00:00,,False,NR,0.0,1.0,0.0,False,Micro-small,False,2022-04-16 08:14:00
704,1000000179,Liston General Contracting,38002 State Highway 6,,Deer River,MN,56636.0,USA,2182468648.0,,,10035-000,1998-02-20 00:00:00,,False,NR,0.0,3.0,0.0,False,Micro-small,False,2022-04-16 08:14:00
704,1000000180,Retirement Asset Management Group,3800 American Blvd. W. #1500,,Bloomington,MN,55431.0,USA,9529215855.0,stoltman@theramg.com,http://theramg.com/,20063-000,2016-04-13 00:00:00,,False,A+,100.0,1.0,0.0,False,Micro-small,False,2022-12-03 09:06:00
704,1000000181,Lonesome Creek LLC,4129 N Stony Dr NW,,Hackensack,MN,56452.0,USA,2186755026.0,,,10035-000,2003-03-06 00:00:00,,False,NR,0.0,9.0,0.0,False,Micro-small,False,2022-10-04 08:07:00
704,1000000182,"Norvanta, LLC",705 18th Ave N,,Moorhead,MN,56560.0,USA,2184777368.0,,,60733-000,,2017-09-20 00:00:00,False,NR,0.0,1.0,,False,Micro-small,False,2020-09-21 04:02:00
704,1000000185,Fresh Thyme Farmers Market,2100 W 80 1/2 St,,Bloomington,MN,55431.0,USA,7633213555.0,gbeckers@freshthyme.com,http://www.freshthyme.com,50322-000,2014-02-19 00:00:00,,False,A+,100.0,1.0,0.0,False,Micro-small,False,2022-12-03 09:06:00
704,1000000186,Parrott Contracting,30090 State Highway 93,,Henderson,MN,56044.0,USA,5072489697.0,,,10035-000,1994-04-29 00:00:00,,False,NR,0.0,4.0,0.0,False,Micro-small,False,2022-04-16 08:14:00
704,1000000188,H&S Door Systems,305 Giles Pl,,Albert Lea,MN,56007.0,USA,5076763100.0,jsevertson29@gmail.com,https://www.hsdoorsystems.com/,85360-000,2015-07-17 00:00:00,,False,A+,100.0,1.0,0.0,False,Micro-small,False,2022-12-03 09:06:00
704,1000000189,Blast Pro Contracting Inc,1016 17th St Ne,,Mandan,ND,58554.0,USA,7016631112.0,,,10035-000,2006-01-01 00:00:00,,False,NR,0.0,2.0,0.0,False,Micro-small,False,2022-05-11 13:48:00
704,1000000190,"Lemme Construction, LLC",21987 169th St NW,,Big Lake,MN,55309.0,USA,7632331441.0,mlemme8879@gmail.com,,10035-000,2009-07-09 00:00:00,,False,NR,0.0,1.0,0.0,False,Micro-small,False,2022-04-16 08:14:00
704,1000000192,Red River Home Care,PO Box 6528,,Fargo,ND,58109.0,USA,7013535777.0,,,60441-100,,,False,A+,100.0,1.0,0.0,False,Micro-small,False,2022-07-30 08:29:00
704,1000000193,Bridge Credit Repair,2908 Humboldt Ave S Ste 1,,Minneapolis,MN,55408.0,USA,8007500167.0,info@bridgecr.com,http://bridgecr.com/,90027-000,,,False,F,37.13,1.0,0.0,False,Micro-small,False,2022-06-18 08:22:00
704,1000000194,"Jespersen Excavating, Inc.",7911 County Road 15 W,,Minot,ND,58703.0,USA,7018336063.0,,,10035-000,2004-03-31 00:00:00,,False,NR,0.0,2.0,0.0,False,Micro-small,False,2022-08-11 08:30:00
704,1000000195,Deck Builders Inc,3120 25th St S Ste 102,,Fargo,ND,58103.0,USA,7017295590.0,deckbuildersinc@msn.com,http://deckbuildersinc.net,10099-600,2000-04-12 00:00:00,,False,A+,100.0,4.0,0.0,False,Micro-small,False,2022-12-03 09:06:00
704,1000000196,Kuck Construction,13917 56th St SE,,Sheldon,ND,58068.0,USA,7017998915.0,jkuck1@yahoo.com,,10035-000,2007-01-01 00:00:00,,False,A+,100.0,1.0,0.0,False,Micro-small,False,2022-12-03 09:06:00
704,1000000197,Builders Association of Minnesota,525 Park Streeet #150,,Saint Paul,MN,55103.0,USA,6516467959.0,remi@bamn.org,http://www.bamn.org,60071-000,1974-01-01 00:00:00,,False,A+,100.0,1.0,0.0,False,Micro-small,False,2022-12-03 09:06:00
704,1000000198,"Americlean Minneapolis, LLC",976 Robert Str #204,,Mendota Hts,MN,55118.0,USA,6125457576.0,cs@americleanminneapolis.com,http://americleanminneapolis.com/,66002-000,2015-10-19 00:00:00,,False,A+,100.0,1.0,0.0,False,Micro-small,False,2022-12-22 09:08:00
704,1000000199,"TheLearningSmith, Inc",4999 384th Trl,,North Branch,MN,55056.0,USA,6512521676.0,dustin@thelearningsmith.com,http://www.thelearningsmith.com/,60538-000,2009-11-23 00:00:00,,False,A+,100.0,1.0,0.0,False,Micro-small,False,2022-12-03 09:06:00
704,1000000200,Rita's Ice & Custard ,10700 France Ave #104,,Bloomington,MN,55437.0,USA,6512075727.0,,,50544-000,2016-03-03 00:00:00,,False,NR,0.0,1.0,0.0,False,Micro-small,False,2022-04-16 08:14:00
704,1000000201,Rookie Work,1148 128th Ave. NE,,Minneapolis,MN,55434.0,USA,2184103214.0,,,60981-000,2016-04-14 00:00:00,,False,NR,0.0,1.0,0.0,False,Micro-small,False,2022-04-24 08:09:00
704,1000000202,Majestic Exteriors LLC,15359 Iodine St NW,,Anoka,MN,55303.0,USA,7634276004.0,,,10126-000,2015-06-12 00:00:00,,False,NR,0.0,1.0,0.0,False,Micro-small,False,2022-11-29 09:07:00
704,1000000203,Lifestyle Lift,3440 Oleary Ln,,Saint Paul,MN,55123.0,USA,8773337354.0,,,60684-000,,2019-10-16 00:00:00,False,NR,0.0,1.0,,False,Micro-small,False,2022-10-17 07:54:00
704,1000000204,Atlas Insurance Brokers - James Lunneborg,2420 E 117th Street Suite I00,,Burnsville,MN,55337.0,USA,9528818866.0,jim@jimlunneborg.com,https://www.aibme.com/locations/mn/burnsville/james-d-lunneborg-agency-inc/,20080-000,2016-04-15 00:00:00,,False,A+,100.0,1.0,0.0,False,Micro-small,False,2022-12-03 09:06:00
704,1000000205,Harper Exteriors LLC,8108 Aldrich Ave S,,Minneapolis,MN,55420.0,USA,6122703619.0,,,10126-000,2012-03-22 00:00:00,,False,NR,0.0,1.0,0.0,False,Micro-small,False,2022-11-01 08:12:00
704,1000000206,"Price Law Firm, LLC","1960 Cliff Lake Road, Suite 129 267",,Eagan,MN,55122.0,USA,6512309888.0,kim@kpricelaw.com,http://www.kpricelaw.com,60075-000,2009-12-28 00:00:00,,False,A+,100.0,1.0,0.0,False,Micro-small,False,2022-12-03 09:06:00
704,1000000207,Jerry&#39;s Optical,830 Washington Ave,,Detroit Lakes,MN,56501.0,USA,3202525777.0,wlutz@midwestvisioncenters.com,,60629-000,2000-12-20 00:00:00,,False,A+,100.0,1.0,0.0,False,Micro-small,False,2022-12-03 09:06:00
704,1000000208,The Whimsy Factory,445 Bear Ave S,,Saint Paul,MN,55127.0,USA,6125841073.0,heather@thewhimsyfactory.com,http://www.thewhimsyfactory.com,50479-000,2014-09-05 00:00:00,,False,NR,0.0,1.0,0.0,False,Micro-small,False,2022-04-17 08:05:00
704,1000000209,Xin Wong,4749 Nicollet Ave,,Minneapolis,MN,55419.0,USA,6128224888.0,,http://www.xinwongminneapolis.com/,50544-000,2014-01-22 00:00:00,,False,NR,0.0,1.0,0.0,False,Micro-small,False,2022-04-17 08:05:00
704,1000000211,Diamond Built LLC,2823 29th St SW,,Pine River,MN,56474.0,USA,2188397033.0,diamondbuilt@yahoo.com,,10035-000,2015-05-03 00:00:00,,False,A+,100.0,2.0,0.0,False,Micro-small,False,2022-12-03 09:06:00
704,1000000212,Scott Schultz - Remax Results,15451 Founders Ln,,Apple Valley,MN,55124.0,USA,9522217419.0,scott.schultz@results.net,,60729-000,2011-04-25 00:00:00,,False,NR,0.0,1.0,0.0,False,Micro-small,False,2022-01-16 09:13:00
704,1000000214,Lakewinds Food Co-op ,6321 Bury Dr Suite 21,,Eden Prairie,MN,55346.0,USA,9522398497.0,,,80320-000,2014-05-07 00:00:00,,False,NR,0.0,1.0,0.0,False,Micro-small,False,2022-04-24 08:09:00
704,1000000215,"Wild Women Too, Inc.",2020A Ford Pkwy,,Saint Paul,MN,55116.0,USA,6516909525.0,wbustp@msn.com,http://saintpaul.wbu.com/,50786-000,1997-08-19 00:00:00,,False,A+,100.0,9.0,0.0,False,Micro-small,False,2022-12-03 09:06:00
704,1000000216,Dougherty Financial Group LLC,"90 south seventh street, Suite 4300",,Minneapolis,MN,55402.0,USA,6123764033.0,,http://www.doughertywealth.com/,20012-000,1998-05-13 00:00:00,,False,A+,100.0,1.0,0.0,False,Micro-small,False,2021-10-21 03:59:00
704,1000000217,DJC Construction LLC,130 Westside Ln,,Fountain,MN,55935.0,USA,5072723624.0,duane.gilbertson.mn@gmail.com,https://www.facebook.com/DJC-Construction-Llc-765617193472049/timeline,10035-000,2014-03-21 00:00:00,,False,NR,0.0,1.0,0.0,False,Micro-small,False,2022-07-08 12:28:00
704,1000000218,Savant Editing and Coaching,6244 Irving Ave S,,Edina,MN,55423.0,USA,6128124310.0,nakitasavant@gmail.com,,85260-000,2016-01-30 00:00:00,,False,A+,100.0,3.0,0.0,False,Micro-small,False,2022-12-03 09:06:00
704,1000000219,GreBar Enterprises LCC,2046 129th Court NE,,Blaine,MN,55449.0,USA,6124197398.0,grebar368@msn.com,,60732-000,2016-04-15 00:00:00,,False,A+,100.0,1.0,0.0,False,Micro-small,False,2022-12-03 09:06:00
704,1000000220,King Milan Barber Shop,511 University Ave. West,,St. Paul,MN,55103.0,USA,2199809055.0,,https://www.facebook.com/search/top/?q=king%20milan%20barber%20shop,60125-000,2016-04-19 00:00:00,,False,NR,0.0,,0.0,False,Micro-small,False,2021-03-21 03:53:00
704,1000000221,"Greenwood Nursery, Inc",611 S 4th St,,Tracy,MN,56175.0,USA,5076293485.0,,https://greenwoodnurserymn.com/,50460-000,2005-12-28 00:00:00,,False,NR,0.0,1.0,0.0,False,Micro-small,False,2022-11-27 09:00:00
704,1000000222,Twig The Fairy Store,2601 Fremont Ave S Apt 103,,Minneapolis,MN,55408.0,USA,,fans@twigthefairy.com,http://twigthefairy.myshopify.com/,10148-100,2014-07-08 00:00:00,,False,A+,100.0,1.0,0.0,False,Micro-small,False,2022-12-03 09:06:00
704,1000000223,All Towing & Recovery,3854 Lexington Ave ,,Shoreview,MN,55126.0,USA,6517171977.0,,http://www.alltowingandrecovery.com/,60891-000,,,False,NR,0.0,1.0,0.0,False,Micro-small,False,2022-02-22 09:34:00
704,1000000224,Salo Iot Solutions,322 Warwick St,,Saint Paul,MN,55105.0,USA,6516989110.0,,,60235-000,2016-04-19 00:00:00,,False,NR,0.0,1.0,0.0,False,Micro-small,False,2022-11-21 08:39:00
704,1000000225,Absolute Outdoor Services LLC,350 93rd Ave NE,,Blaine,MN,55434.0,USA,7635608907.0,,,00219-000,2012-04-06 00:00:00,2020-02-11 00:00:00,False,NR,0.0,,0.0,False,Micro-small,False,2020-02-13 04:52:00
704,1000000226,Gomez Concrete & Paving Stones,606 Copeland Avenue,,Manvel,ND,58256.0,USA,2182309135.0,concretejt@yahoo.com,,10032-000,,,False,A+,100.0,1.0,0.0,False,Micro-small,False,2021-05-05 04:26:00
704,1000000227,Allied Art Works LLC,11009 Glen Wilding Ln,,Bloomington,MN,55431.0,USA,6122074044.0,jimk@alliedartworks.com,http://www.alliedartworks.com/home.html,60712-000,2001-04-05 00:00:00,,False,A+,100.0,1.0,0.0,False,Micro-small,False,2022-12-03 09:06:00
704,1000000228,Allied Bfi,2795 117th St E,,Inver Grove Heights,MN,55077.0,USA,6514378101.0,,,80269-000,1992-01-01 00:00:00,,False,A+,100.0,20.0,0.0,False,Micro-small,False,2021-10-16 04:13:00
704,1000000229,Allied Chiropractic,1011 2nd St N,Ste 202,Saint Cloud,MN,56303.0,USA,3202516422.0,,http://Alliedchiropractic.com,60205-000,1984-01-01 00:00:00,,False,A+,100.0,4.0,0.0,False,Micro-small,False,2022-06-10 08:25:00
704,1000000231,Allied Drive Away Service,5310 Pleasant Ct E,,Saint Paul,MN,55110.0,USA,6127491511.0,,,70637-000,2006-01-01 00:00:00,,False,A+,100.0,3.0,0.0,False,Micro-small,False,2021-10-16 04:13:00
704,1000000232,Commercial Lawn - Acculawn Minneapolis,15 S 1st St Ste 1608A,,Minneapolis,MN,55401.0,USA,6129992670.0,commlawnsvcmpls@gmail.com,https://acculawnmpls.com/,70605-100,2015-01-10 00:00:00,,False,A+,100.0,12.0,0.0,False,Micro-small,False,2022-12-03 09:06:00
704,1000000234,The Louver Shop of Minneapolis L. L. C.,7006 S Park Dr,,Savage,MN,55378.0,USA,6122780400.0,,,72000-000,2014-02-25 00:00:00,,False,NR,0.0,1.0,0.0,False,Micro-small,False,2022-04-24 08:09:00
704,1000000235,Across Country Tours LLC,2125 Division St N,,Saint Paul,MN,55109.0,USA,6514729228.0,acttours@aol.com,http://www.acrosscountrytours.com,70603-000,2013-11-10 00:00:00,,False,A+,100.0,1.0,0.0,False,Micro-small,False,2023-01-06 09:13:00
704,1000000236,Spanier Metalworks,502 Minnie St,,Paynesville,MN,56362.0,USA,3202437552.0,,http://www.spanierwelding.com,10145-000,1987-01-01 00:00:00,,False,A+,100.0,8.0,0.0,False,Micro-small,False,2022-11-15 09:12:00
704,1000000237,Mark&#39;s Welding & Fabricating LLC,1491 105th Ave NE,,Minneapolis,MN,55449.0,USA,7632735337.0,mark@marksweldingfabllc.com,http://www.marksweldingfabllc.com,60948-000,2011-06-19 00:00:00,,False,A+,100.0,22.0,0.0,False,Small,False,2022-08-17 08:56:00
704,1000000238,Isanti Garage Doors,27089 Nassau St Ne,,Isanti,MN,55040.0,USA,7634448602.0,,http://www.isantigaragedoors.com,50403-000,2006-01-01 00:00:00,,False,NR,0.0,1.0,0.0,False,Micro-small,False,2022-06-07 08:10:00
704,1000000240,I-Care Home Healthcare LLC,1112 E Lake St,,Minneapolis,MN,55407.0,USA,6128597109.0,mohamoud@i-carehhc.com,http://www.i-carehhc.com,60441-000,2014-03-27 00:00:00,,False,A+,100.0,15.0,0.0,False,Micro-small,False,2022-12-07 09:09:00
704,1000000241,Metz-Weld,5005 Country Club Rd SW,,Rochester,MN,55902.0,USA,5073580410.0,,,60948-000,2007-01-01 00:00:00,,False,NR,0.0,1.0,0.0,False,Micro-small,False,2022-04-24 08:09:00
704,1000000242,Arc Force Welding Inc,19219 Soder Rd,,Brainerd,MN,56401.0,USA,2188246028.0,arcforce.brian@gmail.com,http://arcforcewelding.energy/,60948-000,2009-01-01 00:00:00,,False,A+,100.0,4.0,0.0,False,Micro-small,False,2022-12-03 09:06:00
704,1000000243,Deutsch Furniture Gallery,"3551 Commerical Drive SW, Suite #400",,Rochester,MN,55902.0,USA,5072808000.0,michelle@deutschfurniturehaus.com,http://www.deutschfurniturehaus.com,50291-000,2014-05-22 00:00:00,,False,A+,100.0,4.0,,False,Micro-small,False,2021-08-10 04:19:00
704,1000000244,"Garage Enforcers, LLC",,,,,,,,,,85360-000,,2021-11-17 00:00:00,False,NR,0.0,1.0,0.0,False,Micro-small,False,2022-01-13 09:32:00
704,1000000245,"McKenzie County Healthcare System, Inc.",709 4th Ave NE,,Watford City,ND,58854.0,USA,8558966862.0,,https://mckenziehealth.webview.com,60971-000,,,False,NR,0.0,1.0,0.0,False,Micro-small,False,2022-10-14 08:13:00
704,1000000246,"MJM Custom Motorcycles and Fabrications, LLC",6202 Concord Blvd,,Inver Grove,MN,55076.0,USA,6518558979.0,,,50441-100,,,False,NR,0.0,1.0,0.0,False,Micro-small,False,2021-09-05 04:01:00
704,1000000247,"Prairie Vista Paints, LLC",1720 2nd St SW,,Rochester,MN,55902.0,USA,,desiree.pasko@prairievistapaints.com,,10095-000,2015-05-21 00:00:00,2021-04-27 00:00:00,False,NR,0.0,,0.0,False,Micro-small,False,2021-04-29 04:07:00
704,1000000248,WeatheredWoodMn.com LLC,8614 Lincoln St NE,,Blaine,MN,55434.0,USA,6519005131.0,gotwoodmn@gmail.com,http://www.weatheredwoodmn.com/,30756-000,2015-12-15 00:00:00,,False,A+,100.0,1.0,0.0,False,Micro-small,False,2022-12-07 09:09:00
704,1000000249,C P & The Farm Boys Truck-auto,3198 Highway 16,,Beach,ND,58621.0,USA,7018723632.0,,,50039-000,2016-04-21 00:00:00,,False,NR,0.0,1.0,0.0,False,Micro-small,False,2022-04-24 08:09:00
704,1000000250,"Infinity Gardens and Landscape Design, Inc",3737 2 1/2 Str NE,,Columbia Hts,MN,55421.0,USA,7636398519.0,,https://www.facebook.com/Infinity-Gardens-and-Landscape-Design-1650975568555016/,00155-000,2015-07-15 00:00:00,,False,NR,0.0,1.0,0.0,False,Micro-small,False,2022-06-07 08:10:00
704,1000000252,"Tracy Chiropractic,P.A.",271 3rd St,,Tracy,MN,56175.0,USA,5076293630.0,tracychiro@gmail.com,,60205-000,1998-10-05 00:00:00,,False,NR,0.0,2.0,0.0,False,Micro-small,False,2022-04-24 08:09:00
704,1000000253,"Signature Woods, LLC",210 County Road 1 E,,Dundas,MN,55019.0,USA,6512149611.0,info@signaturewoods.co,https://signaturewoods.co/,50111-000,2015-03-11 00:00:00,,False,A+,100.0,3.0,0.0,False,Small,False,2023-01-06 09:13:00
704,1000000254,"Stucco Repair Experts, LLC",2026 Brewster St,,Saint Paul,MN,55108.0,USA,6129786760.0,stuccorepairexperts@yahoo.com,http://stuccorepairexperts.biz,10149-000,2014-06-16 00:00:00,,False,A+,100.0,1.0,0.0,False,Micro-small,False,2022-11-22 08:45:00
704,1000000255,"Gypsum Plus, LLC",1020 8th Ave S,,South St Paul,MN,55075.0,USA,6127415548.0,gypsumplus16@gmail.com,https://www.facebook.com/gypsumplus16,10046-000,2016-02-19 00:00:00,,False,A+,100.0,2.0,0.0,False,Micro-small,False,2021-02-11 04:05:00
704,1000000256,Mosquito Squad of Eastern North Dakota,PO Box 847,,Jamestown,ND,58402.0,USA,7019529735.0,,http://www.mosquitosquad.com,60650-000,2005-01-01 00:00:00,,False,A+,100.0,1.0,0.0,False,Micro-small,False,2022-03-22 08:37:00
704,1000000257,Northland Native American Products LLC,1113 E Franklin Ave,,Minneapolis,MN,55404.0,USA,6128720390.0,marilynn@northlandvisions.com,http://www.northlandvisions.com,50310-000,2009-12-31 00:00:00,,False,A+,100.0,2.0,0.0,False,Small,False,2022-12-03 09:06:00
704,1000000258,Rare Form Properties,3506 Nicollet Ave,,Minneapolis,MN,55408.0,USA,6512383216.0,becky@rareformproperties.com,http://rareformproperties.com/,60729-102,,,False,A+,100.0,1.0,0.0,False,Micro-small,False,2021-11-13 03:59:00
704,1000000259,REVL,"527 Marquette Ave, Suite 100",,Minneapolis,MN,55402.0,USA,6128887385.0,info@revelcar.com,http://www.revlcar.com,70562-100,2015-07-06 00:00:00,,False,A+,100.0,1.0,0.0,False,Micro-small,False,2022-12-03 09:06:00
704,1000000260,"Amigos Quality Environmental, LLC",13013 Court Pl,,Burnsville,MN,55337.0,USA,9525674865.0,info@amigosenvironmental.com,http://amigosenvironmental.com,10005-000,2015-12-11 00:00:00,,False,A+,100.0,4.0,0.0,False,Micro-small,False,2022-04-30 08:10:00
704,1000001260,Travel O View LLC,12795 Collegeview Dr Apt 105,,Eden Prairie,MN,55347.0,USA,8006708719.0,support@traveloview.com,http://www.traveloview.com/,70632-000,2016-02-02 00:00:00,2018-10-02 00:00:00,False,NR,0.0,1.0,0.0,False,Micro-small,False,2021-11-13 03:59:00
704,1000001261,"Synergy Software Solutions, Inc",12795 Collegeview Dr Apt 105,,Eden Prairie,MN,55347.0,USA,6514725744.0,srenukunta@hotmail.com,http://www.synergysoftwaresolutions.com/,60236-000,2011-02-03 00:00:00,,False,NR,0.0,1.0,0.0,False,Micro-small,False,2022-11-10 09:22:00
704,1000001262,Crossfit Credence,3020 Highway 63 North,,Rochester,MN,55906.0,USA,5072617692.0,,http://www.crossfitcredence.com/,60430-000,,,False,NR,0.0,1.0,0.0,False,Micro-small,False,2022-06-18 08:22:00
704,1000001264,Tesch Service Center,321 W. Elm Ave,,Waseca,MN,56093.0,USA,5078354610.0,teschservice@qwestoffice.net,http://www.teschservice.net/,60107-700,1971-01-05 00:00:00,,False,NR,0.0,1.0,0.0,False,Micro-small,False,2022-04-27 08:42:00
704,1000001265,Huerta Auto Sales,124 Benson Ave SW,,Willmar,MN,56201.0,USA,3202351178.0,,,50040-000,2013-09-25 00:00:00,,False,NR,0.0,2.0,0.0,False,Micro-small,False,2022-06-10 08:25:00
704,1000001266,Xtreme Yards,14834 werner rd nw,,Bemidji,MN,56601.0,USA,2187667368.0,xtremeyards99@gmail.com,,00155-000,2004-01-01 00:00:00,,False,A+,100.0,1.0,0.0,False,Micro-small,False,2022-12-03 09:06:00
704,1000001267,Exsalonce,1411 College way,,Fergus Falls,MN,56537.0,USA,2187362434.0,kneuleib@gmail.com,,60420-000,2016-04-25 00:00:00,,False,NR,0.0,1.0,0.0,False,Micro-small,False,2022-10-05 08:45:00
704,1000001268,Midwest Transport,18468 Amber Ln,,Pine City,MN,55063.0,USA,6126079878.0,mwcsolutions26@gmail.com,http://www.mwmover.com/,70630-000,,,False,A+,100.0,1.0,0.0,False,Micro-small,False,2021-11-13 03:59:00
704,1000001269,Fox & Fox LLC,715 Florida Ave S Ste 402,,Golden Valley,MN,55426.0,USA,7635453777.0,admin@foxandfoxcpa.com,http://foxandfoxcpa.com,60005-000,1991-04-01 00:00:00,,False,A+,100.0,3.0,0.0,False,Micro-small,False,2023-01-14 08:57:00
704,1000001270,Dodge Dental Clinic,406 W Highway St,,Dodge Center,MN,55927.0,USA,5073746635.0,pauljdonnay@frontiernet.net,,60289-000,1992-01-01 00:00:00,,False,A+,100.0,4.0,0.0,False,Micro-small,False,2023-01-17 08:46:00
704,1000001271,Stich Angell Kreidler & Dodge,250 2nd Ave S Ste 120,,Minneapolis,MN,55401.0,USA,6123336251.0,,http://Stichlaw.com,60075-000,2001-01-01 00:00:00,,False,NR,0.0,20.0,0.0,False,Micro-small,False,2022-10-04 08:07:00
704,1000001272,Country Inn & Suites - Duluth South,9330 W Skyline Pkwy,,Duluth,MN,55810.0,USA,2186280668.0,deanna.gregorich@gmail.com,,60573-000,2016-04-25 00:00:00,,False,NR,0.0,1.0,0.0,False,Micro-small,False,2022-05-03 08:15:00
704,1000001273,Downtown Dental Care of Duluth,324 W Superior St Ste 828,,Duluth,MN,55802.0,USA,2187223679.0,,http://www.dentalcareduluth.com,60289-000,2007-01-01 00:00:00,,False,A+,100.0,4.0,0.0,False,Micro-small,False,2022-10-28 08:24:00
704,1000001275,North Star Concrete and Stone,5975 Wedgewood Ln N Unit 21,,Plymouth,MN,55446.0,USA,3202920042.0,northstarconcretestone@gmail.com,http://www.facebook.com/northstarconcretestone,10032-000,2016-02-04 00:00:00,,False,NR,0.0,1.0,0.0,False,Micro-small,False,2021-05-13 04:07:00
704,1000001276,Bengtson Painting Mike,6500 Highway 9 Nw,,Sunburg,MN,56289.0,USA,3203549098.0,,,10095-000,2016-04-25 00:00:00,2019-10-14 00:00:00,False,NR,0.0,,0.0,False,Micro-small,False,2019-10-15 04:06:00
704,1000001277,Big Mikes Bbq Pit Stop Inc,Po Box 398,,Ironton,MN,56455.0,USA,2185466153.0,,,50544-000,2016-04-25 00:00:00,,False,NR,0.0,,0.0,False,Micro-small,False,2019-07-30 03:56:00
704,1000001278,Big Mikes Stump Removal,9608 Vincent Ave N,,Brooklyn Park,MN,55444.0,USA,7632273489.0,,,00219-000,2003-04-28 00:00:00,,False,NR,0.0,1.0,0.0,False,Micro-small,False,2022-11-29 09:07:00
704,1000001279,Mike Clark Livestock & Auction Service,PO Box 148,,Little Falls,MN,56345.0,USA,,,,60088-000,2010-08-30 00:00:00,2019-10-16 00:00:00,False,NR,0.0,2.0,0.0,False,Micro-small,False,2019-10-17 04:27:00
704,1000001280,Dyna-Mike&#39;s Automotive,308 Howe St N,,Clarissa,MN,56440.0,USA,2187562145.0,,,60103-000,1999-01-01 00:00:00,,False,NR,0.0,3.0,0.0,False,Micro-small,False,2022-11-30 09:27:00
704,1000001281,Mike Arnold Construction Inc,38824 532nd Ave,,Paynesville,MN,56362.0,USA,3202437545.0,,,10035-000,2003-02-21 00:00:00,,False,A+,100.0,2.0,0.0,False,Micro-small,False,2021-10-21 03:59:00
704,1000001282,Ness Sealcoat Service,24137 498th Street,,Bemidji ,MN,56601.0,USA,2183330606.0,,,85295-000,,,False,NR,0.0,1.0,0.0,False,Micro-small,False,2022-09-01 08:30:00
704,1000001283,Rainbow International of Fargo,102 W Beaton Dr,,West Fargo,ND,58078.0,USA,7014124776.0,ned@rainbowfargo.com,https://rainbowintl.com/fargo,60184-000,2007-01-01 00:00:00,,False,A+,100.0,3.0,0.0,False,Micro-small,False,2022-12-03 09:06:00
704,1000001284,"WAHU (MPLS Huron Properties, LLC)","1016 Washington Ave. SE, ",,Minneapolis,MN,55414.0,USA,9527772083.0,,http://liveatwahu.com/,60042-000,2016-04-25 00:00:00,,False,NR,0.0,1.0,0.0,False,Micro-small,False,2022-05-03 08:15:00
704,1000001285,Vasek Construction Inc,37486 Us Highway 2 SW,,Fisher,MN,56723.0,USA,2188912430.0,vasek@rrv.net,,10035-000,1999-01-01 00:00:00,,False,A+,100.0,1.0,0.0,False,Micro-small,False,2022-12-03 09:06:00
704,1000001286,Ultra Industries,26467 Fallbrook Ave,,Wyoming,MN,55092.0,USA,6514088861.0,,,10145-000,2016-04-25 00:00:00,,False,NR,0.0,5.0,0.0,False,Micro-small,False,2022-05-03 08:15:00
704,1000001287,Vermilion Range Construction Inc,10101 Allavus Rd,,Mountain Iron,MN,55768.0,USA,2182634552.0,gundy@wildblue.net,,10177-000,1993-05-06 00:00:00,,False,A+,100.0,1.0,0.0,False,Micro-small,False,2022-12-03 09:06:00
704,1000001288,"Enviro-Air Cleaning, Inc.",2939 Enterprise Ave Ste A,,Hastings,MN,55033.0,USA,6513190842.0,office@enviroaircleaning.com,http://enviroaircleaning.com/,80013-000,2015-10-15 00:00:00,,True,A+,100.0,5.0,0.0,False,Small,False,2022-11-30 09:26:00
704,1000001289,"Real Estate Liquidators, LLC",1920 Central Ave NE Ste 201,,Minneapolis,MN,55418.0,USA,8557777355.0,contact@realestateliquidators.com,http://www.realestateliquidators.com,60729-102,2011-02-18 00:00:00,,True,A+,100.0,5.0,,False,Micro-small,False,2022-10-19 08:28:00
704,1000001291,Club Z In-Home Tutoring,307 Praire Way S,,Bayport,MN,55033.0,USA,6514016777.0,shill@clubztutoring.com,http://www.clubztutoring.com/woodbury,60912-000,2011-02-24 00:00:00,,False,A+,100.0,1.0,0.0,False,Micro-small,False,2023-01-14 08:57:00
704,1000001292,Think Significant,2613 Longacres Drive,,Chanhassen,MN,55317.0,USA,9529346316.0,amy@thinksignificant.com,,60712-000,2013-08-28 00:00:00,,False,NR,0.0,1.0,0.0,False,Micro-small,False,2022-10-04 08:07:00
704,1000001294,"Agassiz Concrete Pumping, LLC",2111 3rd St SE,PO Box 1082,Mandan,ND,58554.0,USA,7018800172.0,wags2009@icloud.com,https://northdakotaconcretepumping.com/,10032-000,2013-12-06 00:00:00,,False,A+,100.0,1.0,0.0,False,Micro-small,False,2023-01-14 08:57:00
704,1000001295,Velocity Technology Solutions,1200 Washington Ave S,,Minneapolis,MN,55415.0,USA,6123373526.0,claire.florin@workoutloud.com,,60539-000,,,False,NR,0.0,1.0,0.0,True,Micro-small,False,2022-06-01 21:27:00
704,1000001296,"Transformation House, Inc.",1410 S Ferry St,,Anoka,MN,55303.0,USA,7634277155.0,b.mathews@transformationhouse.com,http://transformationhouse.com/,60744-000,1991-02-13 00:00:00,,False,A+,100.0,47.0,0.0,False,Small,False,2022-12-03 09:06:00
704,1000001297,Enterprise Sales Co,1213 E Main St,,Valley City,ND,58072.0,USA,7018451272.0,,https://www.escnd.com/,50440-000,1959-05-20 00:00:00,,False,NR,0.0,1.0,0.0,False,Micro-small,False,2022-05-05 08:23:00
704,1000001298,Virgil Hesse Construction Inc,15422 County Road 21,,Watkins,MN,55389.0,USA,3206857007.0,,,10035-000,1992-01-01 00:00:00,,False,NR,0.0,2.0,0.0,False,Micro-small,False,2022-10-04 08:07:00
704,1000001299,"Redline Architectural Sheet Metal, LLC",45 Ivy Ave W,,Saint Paul,MN,55117.0,USA,6124812299.0,jessie@redlineasm.com,http://www.redlineasm.com/,10126-300,2012-02-16 00:00:00,,False,A+,100.0,11.0,0.0,False,Small,False,2022-12-03 09:06:00
704,1000001300,"Ivan&#39;s Tree Service, LLC",506 5th Ave S,,South St Paul,MN,55075.0,USA,6514856870.0,Ivanstreeservice@yahoo.com,http://www.ivanstreeservice.com,00219-000,2015-12-16 00:00:00,,False,A+,100.0,2.0,0.0,False,Micro-small,False,2023-01-07 09:07:00
704,1000001301,"AIGC Group, LLC",2800 Freeway Blvd Ste 110,,Minneapolis,MN,55430.0,USA,8777827006.0,service.us@aigc-techsolutions.com,https://www.aigc-techsolutions.com,65243-100,2014-03-15 00:00:00,,False,A+,100.0,10.0,0.0,False,Micro-small,False,2022-11-01 08:13:00
704,1000001302,Kingdom Pathways,11825 Bittersweet Str NW,,Coon Rapids,MN,55433.0,USA,6513878393.0,,http://www.kingdompathways.org,61090-000,2006-07-27 00:00:00,,False,NR,0.0,1.0,0.0,False,Micro-small,False,2020-05-15 04:06:00
704,1000001303,West Central Abstracting,202 W Junious,,Fergus Falls,MN,56537.0,USA,2187365685.0,,http://www.fergusfalls.com/list/member/west-central-abstracting-co-464,20072-000,1988-07-15 00:00:00,,False,NR,0.0,1.0,0.0,False,Micro-small,False,2022-10-04 08:07:00
704,1000001304,All Cremation Urns,3300 County Road 10 Ste 512N,,Crystal,MN,55429.0,USA,8778601259.0,,,61013-000,2016-10-12 00:00:00,2019-10-29 00:00:00,False,NR,0.0,1.0,0.0,False,Micro-small,False,2021-10-16 04:13:00
704,1000001305,Bismarck Animal Clinic & Hospital,1414 E Calgary Ave,,Bismarck,ND,58503.0,USA,7012228255.0,bismarckanimalclinic@gmail.com,http://www.bismarckanimalclinic.com,00222-000,1984-01-01 00:00:00,,False,A+,100.0,3.0,0.0,False,Micro-small,False,2022-12-07 09:09:00
704,1000001306,"LifeShift Services, LLC",1899 Fairmount Ave,,Saint Paul,MN,55105.0,USA,6513078513.0,alice.lifeshift@gmail.com,http://www.lifeshiftservices.com/,60349-000,2010-10-06 00:00:00,,False,A+,100.0,1.0,0.0,False,Micro-small,False,2022-12-07 09:09:00
704,1000001307,WH Finance Company,6744 33rd street n. ,,Oakdale,MN,55128.0,USA,7273171626.0,hineswilliam45@gmail.com,http://www.hardmoneywebsite.com/whfinancecompany,20049-000,2012-01-01 00:00:00,,False,A+,100.0,1.0,0.0,False,Micro-small,False,2022-12-03 09:06:00
704,1000001308,Nathan & Associates,PO Box 211284,,Saint Paul,MN,55121.0,USA,6514540505.0,DaleCNathan@nathanandassociatesinc.com,,60075-000,,,False,A+,99.4,1.0,0.0,False,Micro-small,False,2020-02-01 04:31:00
704,1000001309,Nathan Corder Construction LLC,381 Three Havens Dr NE,,Alexandria,MN,56308.0,USA,3208153692.0,nathan@nccmn.com,http://nccmn.com/,10035-000,2009-04-21 00:00:00,,False,A+,100.0,1.0,0.0,False,Micro-small,False,2021-03-24 04:31:00
704,1000001310,Nathan L. Egge Painting LLC,1009 9th Ave N,,Princeton,MN,55371.0,USA,7633895160.0,,,10095-000,2009-04-10 00:00:00,,False,NR,0.0,1.0,0.0,False,Micro-small,False,2022-11-20 08:59:00
704,1000001311,"Nathan Leach, LLC",11909 Us 71,,Sauk Centre,MN,56378.0,USA,,,,60172-100,2009-04-10 00:00:00,,False,NR,0.0,1.0,0.0,False,Micro-small,False,2019-06-23 04:01:00
704,1000001312,Nathan M Hansen Law Office,2440 Charles St N # 242,,Saint Paul,MN,55109.0,USA,6517049600.0,,http://midwestbankruptcy.com/,60075-000,2004-01-01 00:00:00,,False,NR,0.0,1.0,0.0,False,Micro-small,False,2022-11-21 08:39:00
704,1000001313,Kyoto,1250 Town Centre Dr,,Eagan,MN,55123.0,USA,6519948880.0,,http://www.kyotomn.com/,50544-000,2009-01-29 00:00:00,,False,NR,0.0,1.0,0.0,False,Micro-small,False,2022-10-18 08:16:00
704,1000001314,"Vee Plumbing & Heating, Inc.",317 Benzel Ave NW,,Madelia,MN,56062.0,USA,5076428700.0,veeplumbingandheating@gmail.com,,10113-300,2004-11-30 00:00:00,,False,A+,100.0,1.0,0.0,False,Micro-small,False,2022-12-03 09:06:00
704,1000001315,Voigt Plumbing & Heating,201 4th Ave NW,,Grand Meadow,MN,55936.0,USA,5077547403.0,,,10003-000,1995-01-01 00:00:00,,False,NR,0.0,3.0,0.0,False,Micro-small,False,2022-10-04 08:07:00
704,1000001316,"L.A.O. North, LLC",7354 Nelson Rd,,Crane Lake,MN,55725.0,USA,2189932314.0,rosehiplodge@frontiernet.net,,60370-000,2012-12-28 00:00:00,,False,NR,0.0,1.0,0.0,False,Micro-small,False,2021-10-21 03:59:00
704,1000001317,"Voss Plumbing & Heating of Paynesville, Inc",Po Box 77,,Paynesville,MN,56362.0,USA,3202433644.0,,http://Vossplumbing.com,10113-010,1961-01-01 00:00:00,,False,A+,100.0,38.0,0.0,False,Small,False,2022-11-17 09:21:00
704,1000001318,Voss Utility & Plumbing,885 Katydid Ln NE,,Saint Michael,MN,55376.0,USA,7634974577.0,,,10113-100,2005-01-01 00:00:00,,False,NR,0.0,15.0,0.0,False,Small,False,2022-11-29 09:07:00
704,1000001319,Swanville Cooperative Creamery,107 Rhoda,,Swanville,MN,56382.0,USA,3205472455.0,marlene@swanvillecreamery.com,,50322-000,1907-01-01 00:00:00,,False,A+,100.0,7.0,0.0,False,Micro-small,False,2022-12-03 09:06:00
704,1000001320,Wellness Transitions LLC,1111 7th St NW,,Rochester,MN,55901.0,USA,5072585052.0,medcityvapor@gmail.com,,81000-800,2015-10-02 00:00:00,,False,NR,0.0,2.0,0.0,False,Small,False,2022-06-14 08:20:00
704,1000001321,Waage Appliance Repair,609 6th Ave NE,,Pencer,MN,56751.0,USA,2184693269.0,brennenwaage@yahoo.com,,60043-000,2014-12-05 00:00:00,,False,A+,100.0,1.0,0.0,False,Micro-small,False,2022-12-10 09:02:00
704,1000001322,"Build Up Construction, LLC",1381 Felix St,,Mendota Heights,MN,55118.0,USA,6126007711.0,BuildUpConstructionServices@gmail.com,http://buildupconstructionservices.com/,10177-000,2001-03-09 00:00:00,,True,A+,100.0,1.0,0.0,False,Micro-small,False,2022-07-26 08:43:00
704,1000001323,Magnolia and Vine Inc,11520 K Tel Dr,,Hopkins,MN,55343.0,USA,9522833123.0,customersupport@magnoliaandvine.com,http://www.magnoliaandvine.com,50367-000,2014-08-25 00:00:00,,False,A+,100.0,1.0,0.0,False,Micro-small,False,2022-12-03 09:06:00
704,1000001324,Simply Ceramics ,1209 Lakeside Dr ,,Alexandria,MN,56308.0,USA,3203042949.0,okapi_98@yahoo.com,https://www.facebook.com/Simply-Ceramics-125245870839427/timeline,50192-000,2016-04-29 00:00:00,,False,NR,0.0,1.0,0.0,False,Micro-small,False,2022-05-05 08:23:00
704,1000001325,National Credit Restorations LLC,900 American Blvd E Ste 102B,,Bloomington,MN,55420.0,USA,8558003426.0,Andrew@nationalcrs.com,https://national-credit-restorations-llc.business.site/,90027-000,2015-08-18 00:00:00,,False,C,74.0,9.0,,False,Micro-small,False,2022-01-20 09:53:00
704,1000001326,"Inspections Plus, Inc.",4135 Washburn Ave N,,Minneapolis,MN,55412.0,USA,6122836477.0,steve@inspectionsplusguru.com,http://inspectionsplusguru.com,60469-000,2012-06-28 00:00:00,,True,A+,100.0,1.0,,False,Micro-small,False,2022-12-10 09:02:00
704,1000001327,My Legacy Photography LLC,190 S River Ridge Cir,,Burnsville,MN,55337.0,USA,2294443353.0,calinn@mylegacymn.com,http://www.mylegacymn.com,60658-000,2015-11-16 00:00:00,,False,A+,100.0,1.0,0.0,False,Micro-small,False,2022-12-03 09:06:00
704,1000001328,Dan&#39;s Consulting Inc,3310 River Bluff Dr,,Eagan,MN,55121.0,USA,6125785544.0,dbur@dansconsulting.com,http://www.dansconsulting.com,85320-000,2002-01-04 00:00:00,,False,NR,0.0,1.0,0.0,False,Micro-small,False,2022-11-15 09:12:00
704,1000001329,"Solarized, LLC",618 2nd Ave SE,,Minneapolis,MN,55414.0,USA,6123146782.0,bmaki@solarizedmn.com,,80668-000,2014-01-20 00:00:00,,False,F,59.0,3.0,0.0,False,Micro-small,False,2022-05-12 20:49:00
704,1000001330,STMA IT Solutions,5450 Quam Ave NE Ste 190,,Saint Michael,MN,55376.0,USA,7634970919.0,support@stmaitsolutions.com,http://www.stmaitsolutions.com,60245-000,2009-01-01 00:00:00,2021-06-11 00:00:00,False,NR,0.0,7.0,0.0,False,Micro-small,False,2021-06-30 05:47:00
704,1000001331,Blue Moon Appliance LLC,101 E Howard St,,Hibbing,MN,55746.0,USA,2189291400.0,bluemoonappliance1@gmail.com,http://bluemoonappliance.com,50016-000,2015-04-16 00:00:00,,False,F,54.0,1.0,0.0,False,Micro-small,False,2022-10-08 08:10:00
704,1000001332,Ely Area Credit Union,2 E Chapman St,,Ely,MN,55731.0,USA,2183653131.0,,http://www.elyareacu.org,20009-000,2000-01-01 00:00:00,,False,NR,0.0,6.0,0.0,False,Micro-small,False,2022-11-29 09:07:00
704,1000001333,"Autowerks, Inc.",3718 Cedar Ave S,,Minneapolis,MN,55407.0,USA,6129878933.0,ironmanmortal@yahoo.com,http://www.usaircompressor.com/,60103-000,1997-09-29 00:00:00,,False,NR,0.0,,0.0,False,Micro-small,False,2021-03-27 04:08:00
704,1000001334,Ming's Garden ,4190 Vinewood Ln N Ste 113,,Plymouth,MN,55442.0,USA,7635593131.0,,http://www.plymouthmingsgarden.com/,50544-000,1999-07-22 00:00:00,,False,NR,0.0,1.0,0.0,False,Micro-small,False,2022-05-05 08:23:00
704,1000001335,MRT Massage,3004 27th Ave S,,Minneapolis,MN,55406.0,USA,6512399667.0,mrtmassage1@gmail.com,http://www.mrtmassage1.com/home.html,60543-000,2015-12-18 00:00:00,2016-10-13 00:00:00,False,NR,0.0,,0.0,False,Micro-small,False,2019-10-14 04:11:00
704,1000001336,DKK Accounting LLC,530 S 66th Ave W,,Duluth,MN,55807.0,USA,2184914002.0,contact@dkkaccounting.com,http://www.dkkaccounting.com,60005-000,2015-01-16 00:00:00,,False,A+,100.0,1.0,,False,Micro-small,False,2022-12-22 09:08:00
704,1000001337,Upper Midwest Athletic Construction Inc,3017 161st Ave NW,,Andover,MN,55304.0,USA,7637531127.0,Eric@umathleticconstruction.com,http://www.umathleticconstruction.com/,41000-000,2009-05-14 00:00:00,,False,A+,100.0,2.0,0.0,False,Micro-small,False,2022-12-03 09:06:00
704,1000001338,John's Heating & Air,730 Broadway Ave S,,Cokato,MN,55321.0,USA,3202862387.0,,,10003-000,1993-01-01 00:00:00,,False,NR,0.0,1.0,0.0,False,Micro-small,False,2022-05-05 08:23:00
704,1000001339,"Friendly Electric, LLC",11022 Quebec Ave N,,Champlin,MN,55316.0,USA,7635164160.0,justin@friendlyelectricllc.com,,10049-000,2014-07-13 00:00:00,,False,A+,100.0,1.0,0.0,False,Small,False,2022-12-02 09:29:00
704,1000001340,3rd Hand Repair Services,1715 Whitetail Run,,Buffalo,MN,55313.0,USA,7632296758.0,3rdhandrepair@gmail.com,http://www.3rdhandrepair.com,15035-000,2015-05-15 00:00:00,,False,A+,100.0,1.0,0.0,False,Micro-small,False,2021-08-17 04:06:00
704,1000001341,Water Damage Minneapolis,30780 108th St,,Princeton,MN,55371.0,USA,7632422103.0,help@waterdamageminneapolis.us,http://www.waterdamageminneapolis.us,60367-000,2008-01-22 00:00:00,,False,A+,100.0,1.0,0.0,False,Small,False,2022-09-14 08:40:00
704,1000001342,"A. Bettin Enterprises, Inc.",7711 Lake Elmo Ave N,,Stillwater,MN,55082.0,USA,6517072316.0,adam.bettin@gmail.com,,60772-100,2006-12-07 00:00:00,,False,A+,100.0,1.0,0.0,False,Micro-small,False,2023-01-11 09:00:00
704,1000001343,K C Colors,2515 Us Highway 12 SW,,Montrose,MN,55363.0,USA,7636584608.0,,,80398-000,1988-01-01 00:00:00,,False,A+,100.0,7.0,0.0,False,Micro-small,False,2020-02-01 04:31:00
704,1000001344,Junction Plumbing & Heating Inc.,18872 95th St SE,,Becker,MN,55308.0,USA,6129197420.0,junctionpandh@yahoo.com,https://www.facebook.com/junction-plumbing-heating-inc-138552206318114/,10113-300,2012-10-18 00:00:00,,False,A+,100.0,1.0,0.0,False,Micro-small,False,2022-04-16 08:14:00
704,1000001345,"Winter Home Construction, LLC",113 7th Ave NW,,Saint Joseph,MN,56374.0,USA,3203331813.0,mwinterhc@gmail.com,https://www.facebook.com/winterhomeconstruction/,10035-000,2012-07-16 00:00:00,,False,A+,100.0,1.0,0.0,False,Micro-small,False,2021-11-18 04:10:00
704,1000001346,"Kokesh Landscape, LLC",3225 Shores Blvd,,Wayzata,MN,55391.0,USA,9524734157.0,kokeshlandscape@gmail.com,http://www.kokeshlandscape.com,00155-000,2011-04-11 00:00:00,,True,A+,100.0,1.0,0.0,False,Micro-small,False,2022-07-15 08:35:00
704,1000001347,Kaduce Plumbing & Heating Inc,1060 South Victory Dr,,Mankato,MN,56001.0,USA,5078934456.0,kimk@kaduceplumbing.net,https://www.kaduceplumbing.com/,10003-000,1997-01-01 00:00:00,,False,A+,100.0,12.0,0.0,False,Micro-small,False,2022-09-10 08:39:00
704,1000001348,"Kampsen Heating & Air Conditioning, Inc.",43736 County Road 183,,Sauk Centre,MN,56378.0,USA,3203514328.0,kampsenheating@gmail.com,,10182-000,2004-03-05 00:00:00,,False,A+,100.0,4.0,0.0,False,Micro-small,False,2022-12-09 09:20:00
704,1000001349,Kasper Plumbing,1735 Wood Duck Ln,,Owatonna,MN,55060.0,USA,5074752270.0,joshua.kasper@hotmail.com,,10003-000,2007-01-01 00:00:00,,False,A+,100.0,1.0,0.0,False,Micro-small,False,2022-04-20 08:36:00
704,1000001350,Riverstone Realty Llc,112 2nd St E,,Browerville,MN,56438.0,USA,6514800112.0,,,60729-000,,2016-06-08 00:00:00,False,NR,0.0,1.0,,False,Micro-small,False,2021-11-13 03:59:00
704,1000001351,Block Plumbing & Heating,614 Rice Lake St,,Owatonna,MN,55060.0,USA,5074519545.0,blockplbg@gofast.am,http://www.owatonnaplumbers.com,10113-000,1984-01-01 00:00:00,,False,A+,100.0,5.0,0.0,False,Micro-small,False,2022-12-03 09:06:00
704,1000001352,Koochiching Sportsman Assn,2045 Highway 11 E,,International Falls,MN,56649.0,USA,2182865553.0,,,70566-000,2003-01-01 00:00:00,,False,A+,100.0,1.0,0.0,False,Micro-small,False,2020-02-01 04:31:00
704,1000001353,Premiere Lawn & Snow LLC,30010 Lanesburgh Dr,,New Prague,MN,56071.0,USA,9522925370.0,premierelawn@gmail.com,,00157-000,2011-05-09 00:00:00,,False,A+,100.0,4.0,0.0,False,Micro-small,False,2022-12-03 09:06:00
704,1000001354,Northland Painting & Truck,5506 Thompson Hill Rd,,Duluth,MN,55810.0,USA,2186282438.0,jamie@northlandpainting.com,,10095-000,2004-01-01 00:00:00,,False,A+,100.0,7.0,0.0,False,Micro-small,False,2022-07-23 08:44:00
704,1000001355,J J Cash & Pawn,49o University,,Saint Paul,MN,55106.0,USA,6517718156.0,,,50626-000,,2016-06-08 00:00:00,False,NR,0.0,1.0,,False,Micro-small,False,2019-06-10 04:04:00
704,1000001356,Radiance Medspa Woodbury,7801 Afton Rd,,Woodbury,MN,55125.0,USA,6512049338.0,info@radiancewoodbury.com,http://www.radiancewoodbury.com,65134-100,2007-02-22 00:00:00,,False,B-,80.0,20.0,0.0,False,Small,False,2021-11-13 03:59:00
704,1000001357,Broadband Marketing Group,7445 99th St N,,Dellwood,MN,55110.0,USA,6513935974.0,paullandgraf@broadbandmarketing.com,http://www.broadbandmarketing.com/,60538-000,2016-01-12 00:00:00,,False,NR,0.0,1.0,0.0,False,Micro-small,False,2022-06-22 11:35:00
704,1000001358,Menorah West Apartments,3600 Phillips Pkwy,,Minneapolis,MN,55426.0,USA,9529270460.0,,,60042-000,1988-01-01 00:00:00,,False,A+,100.0,10.0,0.0,False,Small,False,2020-02-01 04:31:00
704,1000001359,Car Coverz,2321 Carver Ave,,Saint Paul,MN,55119.0,USA,6513002526.0,,,50810-000,,,False,A+,100.0,1.0,0.0,False,Micro-small,False,2022-02-25 09:44:00
704,1000001360,The Law Office of Iris Ramos LLC,"118 E. 26th Street, Suite 210B",,Minneapolis,MN,55404.0,USA,6128714477.0,iris@irisramoslaw.com,http://www.irisramoslegal.com/,60075-000,2012-11-08 00:00:00,,False,A+,100.0,1.0,0.0,False,Micro-small,False,2022-12-03 09:06:00
704,1000001361,Osborne Apartments,659 Osborne Rd Ne,,Minneapolis,MN,55432.0,USA,7637802169.0,kedrey1@fairview.org,,60617-000,1994-01-01 00:00:00,,False,A+,100.0,4.0,0.0,False,Micro-small,False,2021-11-13 03:59:00
704,1000001362,Marty Chiropractic,2424 E 117th St,,Burnsville,MN,55337.0,USA,9528945108.0,,http://martychiroclinic.com,60205-000,1993-01-20 00:00:00,,False,NR,0.0,1.0,0.0,False,Micro-small,False,2022-05-30 08:36:00
704,1000001363,Builders Institute,7420 Unity Ave W #201,,Brooklyn Park,MN,55443.0,USA,6124626239.0,justiceford2000@gmail.com,,10035-000,2012-08-08 00:00:00,,False,A+,100.0,1.0,0.0,False,Micro-small,False,2022-12-03 09:06:00
704,1000001364,Novy Media,6700 Elliot Ave S,,Edina,MN,55423.0,USA,9523562276.0,anthony.iverson@novymedia.com,http://www.novymedia.com,89000-000,2014-08-25 00:00:00,,False,A+,100.0,1.0,0.0,False,Micro-small,False,2022-12-07 09:09:00
704,1000001365,Find My Lake Lot,39398 Outback Trl,,Browerville,MN,56438.0,USA,3208284262.0,hniki4@yahoo.com,http://findmylakelot.com/,60729-000,2016-05-03 00:00:00,,False,NR,0.0,1.0,0.0,False,Micro-small,False,2022-11-22 08:45:00
704,1000001366,O&#39;Neall Electric,15118 64th St N,,Stillwater,MN,55082.0,USA,6512396026.0,info@oneillelectricmn.com,http://www.oneillelectric.com,60321-000,2016-05-03 00:00:00,,False,A+,100.0,1.0,0.0,False,Micro-small,False,2022-12-03 09:06:00
704,1000001367,Cornerstone Construction LLC,13501 Pleasant Ln,,Burnsville,MN,55337.0,USA,7133598675.0,,https://www.facebook.com/cstone777/timeline,10177-000,2014-02-20 00:00:00,,False,NR,0.0,2.0,0.0,False,Micro-small,False,2022-06-15 09:02:00
704,1000001368,Landreau Agency Inc.,2615 E Franklin Ave,,Minneapolis,MN,55406.0,USA,6122767035.0,carlos@ligmn.com,http://ligmn.com,20019-100,2008-02-22 00:00:00,,False,NR,0.0,1.0,0.0,False,Micro-small,False,2022-05-07 08:21:00
704,1000001369,A & B Welding & Construction,8021 199th Ave Nw,,Elk River,MN,55330.0,USA,7637577191.0,lynn@abweldinginc.com,http://www.abweldinginc.com,60257-000,1998-01-01 00:00:00,,False,A+,100.0,65.0,0.0,False,Micro-small,False,2022-12-03 09:06:00
704,1000001370,Trosen Construction,11211 33rd St Se,,Valley City,ND,58072.0,USA,7018454236.0,,,10126-000,2009-06-30 00:00:00,,False,NR,0.0,3.0,0.0,False,Micro-small,False,2022-05-11 08:37:00
704,1000001371,"Minnesota Concrete, LLC",16620 Murphy Lake Blvd,,Prior Lake,MN,55372.0,USA,6128868777.0,john@mnconcrete.com,http://www.mnconcrete.com,50178-100,2014-03-31 00:00:00,,False,B-,80.0,5.0,0.0,False,Micro-small,False,2022-11-06 09:03:00
704,1000001372,Rebound Sales Group,13497 Fenway Blvd Circle N STE 200,,Hugo,MN,55038.0,USA,6516334430.0,iviewhl@aol.com,http://ww.iview-headlamp.com,60558-000,2003-08-22 00:00:00,,False,A+,100.0,1.0,0.0,False,Small,False,2021-02-11 04:06:00
704,1000001373,Jeffrey Gray Construction,43560 232nd Ave,,Mazeppa,MN,55956.0,USA,5072544927.0,,,10177-000,,,False,A+,99.36,1.0,0.0,False,Micro-small,False,2020-02-01 04:31:00
704,1000001374,Mark Soschnik Remodeling,1027 Orchard Dr NE,,Sauk Rapids,MN,56379.0,USA,3202677792.0,,,10035-000,2000-01-01 00:00:00,2019-10-18 00:00:00,False,NR,0.0,1.0,,False,Micro-small,False,2020-11-25 04:56:00
704,1000001375,"Card Surge, LLC",PO Box 144,,Sauk Centre,MN,56378.0,USA,8009853586.0,support@cardsurge.com,https://www.cardsurge.com,75000-000,2016-04-29 00:00:00,,True,A+,100.0,1.0,0.0,False,Micro-small,False,2022-12-16 09:11:00
704,1000001376,Trynowski Construction Inc,1260 Frontage Rd,,Dakota,MN,55925.0,USA,5076436539.0,,,10032-000,1973-02-06 00:00:00,2019-11-25 00:00:00,False,NR,0.0,3.0,0.0,False,Micro-small,False,2022-11-28 08:54:00
704,1000001377,Turtle Creek Construction Inc,701 18th Ave NW Ste 300,,Austin,MN,55912.0,USA,5074381653.0,lancep@gppaustin.com,,10035-000,2003-09-12 00:00:00,,False,A+,100.0,5.0,0.0,False,Micro-small,False,2022-12-03 09:06:00
704,1000001378,Gilbert Alden PLLC,"2801 Cliff Rd. E., Suite 200",,Burnsville,MN,55337.0,USA,6125643622.0,info@gilbertalden.com,http://www.gilbertalden.com/,60075-000,2015-12-31 00:00:00,,False,A+,100.0,4.0,,False,Micro-small,False,2022-12-03 09:06:00
704,1000001379,Residential Pest Solutions LLC,16564 Farrago Trl,,Farmington,MN,55024.0,USA,6124831499.0,,,60650-000,2015-07-13 00:00:00,2021-07-28 00:00:00,False,NR,0.0,1.0,0.0,False,Micro-small,False,2022-03-08 09:29:00
704,1000001380,Great Residential Economical Environmental New Homes LLC ,9424 4TH AVE S,,Minneapolis,MN,55420.0,USA,6512455502.0,tomhandy123@gmail.com,,10078-000,2013-08-15 00:00:00,,False,A+,100.0,1.0,0.0,False,Micro-small,False,2022-12-03 09:06:00
704,1000001381,MDinnovations L. L. C.,7455 France Ave S Ste 318,,Bloomington,MN,55435.0,USA,8443228671.0,info@migrainefactorx.com,http://www.migrainefactorx.com/,50712-000,2013-03-23 00:00:00,,False,A+,100.0,1.0,0.0,False,Micro-small,False,2019-10-30 05:35:00
704,1000001382,Continental Hair Salon,4629 E Superior St,,Duluth,MN,55804.0,USA,2185255161.0,,,60134-000,1984-01-01 00:00:00,2016-05-18 00:00:00,False,NR,0.0,2.0,,False,Micro-small,False,2019-05-20 04:18:00
704,1000001384,Continental Investors Rl Est,430 2nd Ave S,,Waite Park,MN,56387.0,USA,3202533473.0,,,60729-000,,,False,A+,99.36,1.0,0.0,False,Micro-small,False,2020-02-01 04:31:00
704,1000001385,Continental Lift Truck Corp,16600 Johnson Memorial Dr,,Jordan,MN,55352.0,USA,9524923900.0,sales@continental-lift.com,http://Continental-Lift.com,80398-000,1984-01-01 00:00:00,,False,A+,100.0,13.0,0.0,False,Micro-small,False,2020-02-01 04:31:00
704,1000001386,Continental Press Inc,34 Riverside Dr NE,,Saint Cloud,MN,56304.0,USA,3202515875.0,,http://Cpionline.com,30531-000,1984-01-01 00:00:00,,False,NR,0.0,16.0,0.0,False,Micro-small,False,2021-07-25 04:13:00
704,1000001387,Continental Rehab Llc,10700 Old County Road 15 # 300,,Minneapolis,MN,55441.0,USA,9525460366.0,,,60205-000,2006-01-01 00:00:00,2016-05-18 00:00:00,False,NR,0.0,4.0,,False,Micro-small,False,2019-05-20 04:18:00
704,1000001388,Continental Safety Equipment Inc,7143 Shady Oak Rd,,Eden Prairie,MN,55344.0,USA,6514547233.0,sales@csesafety.com,http://www.csesafety.com,30402-000,1946-04-30 00:00:00,,False,A+,100.0,5.0,,False,Micro-small,False,2022-12-21 09:22:00
704,1000001390,Man Can Do,1336 Delaware Ave,,W Saint Paul,MN,55118.0,USA,6512711812.0,jcorniea@gmail.com,,15035-000,2010-03-31 00:00:00,,False,A+,100.0,1.0,0.0,False,Micro-small,False,2022-12-07 09:09:00
704,1000001391,"U-CAN-TAN, LLC",2964 N Chestnut St,,Chaska,MN,55318.0,USA,9524485556.0,deblarso_2002@yahoo.com,http://www.ucantan.net/,60853-000,2014-05-21 00:00:00,,False,A+,100.0,1.0,0.0,False,Micro-small,False,2022-12-03 09:06:00
704,1000001392,Universal AM-Can Ltd,656 Pelham Blvd Ste 1,,Saint Paul,MN,55114.0,USA,6519177771.0,,,70640-000,,2016-06-03 00:00:00,False,NR,0.0,50.0,,False,Medium,False,2021-11-13 03:59:00
704,1000001393,We Can Ride,14300 County Road 62,,Minnetonka,MN,55345.0,USA,9529340288.0,,http://Wecanride.org,85271-000,2010-08-30 00:00:00,,False,A+,100.0,15.0,0.0,False,Micro-small,False,2021-05-12 04:36:00
704,1000001394,"AHE Construction, LLC",16094 7th Ave NW,,Ham Lake,MN,55304.0,USA,6125987688.0,,,10035-000,2010-12-17 00:00:00,,False,NR,0.0,1.0,0.0,False,Micro-small,False,2022-06-03 09:04:00
704,1000001395,"Surge Cycling, LLC",801 Tyrol Trl,,Golden Valley,MN,55416.0,USA,6123856911.0,kanderson@surgecycling.com,http://www.surgecycling.com,60353-000,2013-01-24 00:00:00,,False,A+,100.0,1.0,0.0,False,Micro-small,False,2022-12-03 09:06:00
704,1000001396,Midwest Bus Parts Inc,15794 County Road 50 SE,,Big Lake,MN,55309.0,USA,7634949028.0,,http://www.midwestbusparts.com,70529-000,2007-01-01 00:00:00,,False,A+,100.0,4.0,0.0,False,Micro-small,False,2020-02-01 04:31:00
704,1000001401,American Mortgage,,,Lakeville,MN,55044.0,USA,6122001052.0,,,20053-200,,2019-10-16 00:00:00,False,NR,0.0,1.0,0.0,False,Micro-small,False,2021-07-10 04:23:00
704,1000001402,"Ryan Williams Home Services, LLC",2767 Highway 3,,Two Harbors,MN,55616.0,USA,2188345358.0,rjwilliams6_2008@yahoo.com,,10035-000,2013-06-25 00:00:00,,True,A+,100.0,1.0,0.0,False,Micro-small,False,2022-05-24 08:16:00
704,1000001406,Otis-Magie Insurance Agency,332 West Superior St. Suite #700,,Duluth,MN,55802.0,USA,2187227753.0,tstender@otismagie.com,,20037-000,1886-01-01 00:00:00,,False,NR,0.0,1.0,0.0,False,Micro-small,False,2022-12-14 09:35:00
704,1000001407,"Kiel Brothers Ventures, Inc.",108 Trim,,Willernie,MN,55090.0,USA,6517688389.0,abbottservice@qwestoffice.net,http://www.kielbrothers.com,50333-000,2006-06-20 00:00:00,,False,A+,100.0,27.0,0.0,False,Micro-small,False,2022-12-07 09:09:00
704,1000001408,Investment Contracting LLC,3375 Hunter Drv,,Medina,MN,55340.0,USA,,,,20085-200,2010-03-19 00:00:00,2018-05-31 00:00:00,False,NR,0.0,1.0,0.0,False,Micro-small,False,2021-06-01 04:03:00
704,1000001409,Ameritech Electric,601 S Garden St,,Lake City,MN,55041.0,USA,5079517813.0,,http://www.ameritech-electric.com,10049-000,2005-01-01 00:00:00,,False,A+,100.0,1.0,0.0,False,Micro-small,False,2021-03-30 03:56:00
704,1000001410,"Panel Power, LLC",10612 Oregon Ave S,,Minneapolis,MN,55438.0,USA,6125479752.0,sales@powerpanels.net,,80668-200,2013-12-18 00:00:00,,False,A+,100.0,1.0,0.0,False,Micro-small,False,2022-12-03 09:06:00
704,1000001412,"Employer Solutions, LLC",5775 Wayzata Blvd Ste 700,,St Louis Park,MN,55416.0,USA,9522616571.0,cgoldstein01@gmail.com,http://employersolutions.com,60172-101,2016-03-14 00:00:00,,False,A+,100.0,1.0,0.0,False,Micro-small,False,2023-01-10 08:49:00
704,1000001413,Todd Signs ,5147 Miller Truck Hwy,,Hermantown,MN,55811.0,USA,2187296800.0,info@toddsigns.com,http://toddsigns.com,30614-000,2008-12-31 00:00:00,,False,NR,0.0,1.0,0.0,False,Micro-small,False,2022-05-09 08:19:00
704,1000001414,TLC Coaching and Mediation Services,2202 Norton Rd,,Duluth,MN,55803.0,USA,2183907552.0,tlccoachingduluth@gmail.com,,60547-000,2015-03-25 00:00:00,,False,A+,100.0,1.0,0.0,False,Micro-small,False,2022-12-03 09:06:00
704,1000001415,"BOSS, The Salon, LLC",111 3rd St S,,Stillwater,MN,55082.0,USA,2184817900.0,lenacooper22@gmail.com,https://www.facebook.com/Boss-The-Salon-662909337183437/,60134-000,2014-11-11 00:00:00,,False,NR,0.0,1.0,0.0,False,Micro-small,False,2022-11-28 08:54:00
704,1000001418,Duane P Schroeder,10211 Cedar Lake Rd,,Hopkins,MN,55305.0,USA,9525455765.0,dps9@comcast.net,http://WWW.HomeSearch.Directory,60729-105,2001-02-14 00:00:00,,False,A+,100.0,1.0,0.0,False,Micro-small,False,2021-01-26 04:03:00
704,1000001419,"Green Valley Roofing, LLC",11640 110th St,,Menahga,MN,56464.0,USA,2182553425.0,tammygvr@gmail.com,http://gvroofing.com,10126-200,2015-01-01 00:00:00,,False,A+,100.0,7.0,0.0,False,Micro-small,False,2022-12-03 09:06:00
704,1000001420,Freeport Floral & Gifts,111 N 1st Ave,,Freeport,MN,56331.0,USA,3208367177.0,michele@freeportfloraldesign.com,http://www.freeportfloraldesign.com/,50275-000,2003-01-01 00:00:00,,False,A+,100.0,2.0,0.0,False,Micro-small,False,2020-02-02 04:20:00
704,1000001421,"Modern Design, LLC",209 Paul Ave S,,Cologne,MN,55322.0,USA,9524664766.0,info@moderndesigncabinetry.com,https://www.moderndesigncabinetry.com,50121-000,1991-09-01 00:00:00,,False,A+,100.0,50.0,0.0,False,Small,False,2022-07-12 08:33:00
704,1000001422,Feminist Eclectic Martial Arts,3743 Cedar Ave S,,Minneapolis,MN,55407.0,USA,6127297233.0,,,60037-000,1998-01-01 00:00:00,2016-05-11 00:00:00,False,NR,0.0,1.0,,False,Micro-small,False,2019-05-13 04:10:00
704,1000001423,Sally&#39;s Laundro-matic,944 Rice S,,Saint Paul,MN,55117.0,USA,6514871998.0,,,60497-000,2006-08-28 00:00:00,,False,NR,0.0,1.0,0.0,False,Micro-small,False,2022-11-15 09:11:00
704,1000001424,Acoustical Ceilings Inc,24078 Greenway Rd Ste 5,,Forest Lake,MN,55025.0,USA,6514624888.0,darrinaci@frontiernet.net,,10025-100,2007-04-01 00:00:00,,False,A+,100.0,6.0,0.0,False,Micro-small,False,2022-12-03 09:06:00
704,1000001425,Mill City Painting LLC,22128 Red Oak Dr,,Rogers,MN,55374.0,USA,6128161411.0,,,10095-000,2013-09-13 00:00:00,,False,NR,0.0,1.0,0.0,False,Micro-small,False,2022-11-23 09:43:00
704,1000001426,4MX LLC,21090 Prairie Hills Ln,,Prior Lake,MN,55372.0,USA,6124992793.0,,,50441-100,2009-02-26 00:00:00,2019-11-11 00:00:00,False,NR,0.0,,0.0,False,Micro-small,False,2019-11-12 04:10:00
704,1000001428,JK Build By Design Construction Company LLC,7301 Franklin Circle E,,Eden Prairie,MN,55346.0,USA,6125548829.0,,,10035-000,2008-03-13 00:00:00,,False,NR,0.0,1.0,0.0,False,Micro-small,False,2022-09-20 09:17:00
704,1000001429,Quicken Loans,,,,,,,,help@quickenloans.com,http://www.quickenloans.com,20049-000,2016-05-06 00:00:00,,False,NR,0.0,1.0,0.0,False,Micro-small,False,2022-08-16 08:21:00
704,1000001430,MCS Remodel LLC,675 Innsbruck Drive,,Chaska,MN,55318.0,USA,6128500060.0,mcsremodel@gmail.com,,10035-000,2015-04-29 00:00:00,,False,A+,100.0,1.0,,False,Micro-small,False,2021-07-17 04:10:00
704,1000001431,Holmstrom & Kvam PLLP Attorneys,685 Prentice St,,Granite Falls,MN,56241.0,USA,3207652263.0,,,60075-000,,,False,A+,99.35,1.0,0.0,False,Micro-small,False,2020-02-01 04:31:00
704,1000001432,"Darrin James, LLC",5105 Minnetonka road,,Crystal,MN,55429.0,USA,9529223100.0,info@darrinjamessalon.com,http://www.darrinjamessalon.com,60134-000,2006-12-06 00:00:00,,False,NR,0.0,1.0,0.0,False,Micro-small,False,2022-05-09 08:19:00
704,1000001433,Michael Lynne&#39;s Tennis Shop,5011 Excelsior Blvd,,Minneapolis,MN,55416.0,USA,9529261520.0,shop@mltennis.com,http://www.mltennis.com,50652-000,1990-07-17 00:00:00,,False,A+,100.0,1.0,0.0,False,Micro-small,False,2022-12-10 09:02:00
704,1000001434,"RNN Construction, LLC",PO Box 61,,Gilman,MN,56333.0,USA,3203872464.0,,,10177-000,2009-12-22 00:00:00,,False,NR,0.0,1.0,0.0,False,Micro-small,False,2022-11-29 09:07:00
704,1000001436,Nationwide Homes LLC,17013 Galleon Cir,,Rosemount,MN,55068.0,USA,6122724034.0,,,10035-000,2014-12-29 00:00:00,,False,NR,0.0,1.0,0.0,False,Micro-small,False,2022-06-22 11:35:00
704,1000001438,Value Home Exteriors LLC,1623 Brunswick Ave S,,St Louis Park,MN,55416.0,USA,9206290245.0,vhe.llc@outlook.com,https://www.facebook.com/Value-Home-Exteriors-719475281501433/,10035-200,2015-01-02 00:00:00,,False,A+,100.0,1.0,,False,Micro-small,False,2022-07-26 08:43:00
704,1000001442,Classic Coaches,209 N Black Eagle Dr,,Mankato,MN,56001.0,USA,5073441200.0,classicmn99@aol.com,,70529-000,2010-01-21 00:00:00,,False,A+,100.0,2.0,0.0,False,Micro-small,False,2022-12-03 09:06:00
704,1000001443,"Landscaping Plus, Inc.",439 E 9th St,,Fairmont,MN,56031.0,USA,5072385437.0,landscapingplusinc@gmail.com,https://www.facebook.com/LandscapingPlusInc/timeline,00155-000,1997-02-03 00:00:00,,False,A+,100.0,6.0,0.0,False,Micro-small,False,2022-10-02 08:16:00
704,1000001444,Decorative Concrete Designs,36435 615th Ave,,Gibbon,MN,55335.0,USA,5072171189.0,,,10032-000,2016-05-09 00:00:00,2019-07-01 00:00:00,False,NR,0.0,1.0,0.0,False,Micro-small,False,2022-07-08 12:28:00
704,1000001445,"By Your Side, LLC",1 Farmdale Rd E Ste 200,,Hopkins,MN,55343.0,USA,6122200790.0,Norma@BYSMN.com,,85296-500,2015-10-26 00:00:00,,False,A+,100.0,2.0,0.0,False,Micro-small,False,2022-12-22 09:08:00
704,1000001446,A + Home Services,3451 Interlachen Dr Ne,,Andover,MN,55304.0,USA,7634138809.0,,,50403-000,2005-01-01 00:00:00,,False,NR,0.0,1.0,,False,Micro-small,False,2022-06-07 08:10:00
704,1000001447,PMG Advertising,314 Harbor Ln N,,Minneapolis,MN,55447.0,USA,7637463589.0,,,60016-000,2016-05-09 00:00:00,2019-11-19 00:00:00,False,NR,0.0,1.0,0.0,False,Micro-small,False,2022-11-21 08:39:00
704,1000001448,Ram Janitorial,244 Broadway St W,,Rockville,MN,56369.0,USA,3202521888.0,,,60478-000,,,False,A+,100.0,1.0,0.0,False,Micro-small,False,2022-11-20 08:59:00
704,1000001449,"Mid Valley Electric, LLC",206 Elm St NE,,Fertile,MN,56540.0,USA,2189456060.0,craig@gvtel.com,,10049-000,1991-01-01 00:00:00,,True,A+,100.0,3.0,0.0,False,Micro-small,False,2022-07-08 12:29:00
704,1000001451,"Eagle Home Restorations, LLC",4057 Idaho Ave N,,New Hope,MN,55427.0,USA,9528552232.0,shalverson0101@gmail.com,,10177-000,2016-02-03 00:00:00,,False,B-,80.0,2.0,0.0,False,Micro-small,False,2022-08-05 08:38:00
704,1000001452,Bella Mechanical LLC,2557 Maplewood Dr,,Saint Paul,MN,55109.0,USA,6514422173.0,,http://www.thebluebook.com/iProView/1238382,10182-200,2009-10-13 00:00:00,2014-06-18 00:00:00,False,NR,0.0,1.0,0.0,False,Micro-small,False,2018-06-07 05:37:00
704,1000001453,The Exchange Nightclub,"#B100, 10 S 5th St",,Minneapolis,MN,55402.0,USA,6128862233.0,info@theexchangempls.com,http://theexchangempls.com/,50456-000,,,False,A+,99.32,,0.0,False,Micro-small,False,2020-02-01 04:31:00
704,1000001454,Guth Electric Inc,700 Weaver Ln,,Northfield,MN,55019.0,USA,5076459760.0,zulma.beniquez@guthelectric.com,,10049-000,1984-01-01 00:00:00,,False,A+,100.0,6.0,,False,Micro-small,False,2023-01-14 08:57:00
704,1000001455,Bueno Construction,515 78th Ave #4,,Minneapolis,MN,55432.0,USA,6122326871.0,,,10177-000,,,False,A+,100.0,1.0,0.0,False,Micro-small,False,2021-01-08 04:02:00
704,1000001456,Franklin City Shop,320 2nd Ave E,,Franklin,MN,55333.0,USA,5075572728.0,,,99998-000,2010-08-30 00:00:00,,False,NR,0.0,3.0,0.0,False,Micro-small,False,2020-02-01 04:31:00
704,1000001457,Balmoral Golf Course,28294 State Highway 78,,Battle Lake,MN,56515.0,USA,2183672055.0,balmoralproshop@arvig.net,http://www.golfbalmoral.com,60410-000,1995-01-01 00:00:00,,False,A+,100.0,10.0,0.0,False,Small,False,2021-11-18 04:09:00
704,1000001458,Meadowridge Assisted & Memory Care Living,7545 Country Club Dr,,Golden Valley,MN,55427.0,USA,7637627300.0,,,61002-100,2015-07-02 00:00:00,,False,NR,0.0,1.0,0.0,False,Micro-small,False,2022-12-04 09:03:00
704,1000001460,Southwest Insurance Service,205 Saint Olaf Ave N,,Canby,MN,56220.0,USA,5072237248.0,kari@swiscanby.com,http://www.swiscanby.com,20080-000,1984-01-01 00:00:00,,False,A+,100.0,3.0,0.0,False,Micro-small,False,2020-02-01 04:31:00
704,1000001461,Elan Construction LLC,610 1st St SE,,Wadena,MN,56482.0,USA,2186400789.0,paul@elanconstructionllc.com,,10035-000,2015-04-03 00:00:00,2021-01-12 00:00:00,False,NR,0.0,2.0,0.0,False,Micro-small,False,2022-05-13 19:57:00
704,1000001464,Dedicated Financial GBC,1970 Oakcrest Ave Ste 217,,Roseville,MN,55113.0,USA,8443513945.0,info@dedicatedcri.com,http://www.dedicatedcri.com/,60226-000,2015-01-10 00:00:00,,True,A+,100.0,34.0,0.0,False,Small,False,2023-01-10 08:49:00
704,1000001466,All Type's Construction,2700 O&#39;Henry Road,,Brooklyn Center,MN,55430.0,USA,7635616036.0,,,10177-000,,,False,A+,99.32,1.0,0.0,False,Micro-small,False,2020-02-01 04:31:00
704,1000001467,Ace Rent A Car,2143 77th St,,Minneapolis,MN,55450.0,USA,9523454017.0,legal@walser.com,https://www.acerentacar.com/LocationsUs.aspx#Minnesota,60102-000,2012-11-28 00:00:00,,True,A+,100.0,24.0,0.0,False,Medium,False,2023-01-10 08:49:00
704,1000001468,ATEK Companies Inc,"10025 Valley View Road, Suite 190",,Eden Prairie,MN,55344.0,USA,7635537700.0,,https://www.atekcompanies.com/,80706-000,2010-08-30 00:00:00,,False,A+,100.0,2.0,0.0,False,Micro-small,False,2022-12-22 09:08:00
704,1000001469,Downing Dittrich & Lawrence,2400 Crest Ln SW,,Rochester,MN,55902.0,USA,5072888432.0,,,60075-000,2000-01-01 00:00:00,,False,A+,100.0,5.0,0.0,False,Micro-small,False,2021-11-13 03:59:00
704,1000001470,"construction2style, LLC",14390 Ranch Rd NW,,Elk River,MN,55330.0,USA,7632584839.0,construction2style@gmail.com,http://www.construction2style.com,10035-101,2013-11-19 00:00:00,,False,A+,100.0,2.0,0.0,False,Micro-small,False,2023-01-13 09:01:00
704,1000001471,Evolution Appraisals L. L. C.,405 N 80th Avenue W,,Duluth,MN,55807.0,USA,2187212522.0,,,61100-000,2016-01-11 00:00:00,,False,NR,0.0,1.0,0.0,False,Micro-small,False,2022-11-23 09:43:00
704,1000001472,"Eagle Creek Contractors, LLC",5035 Eagle Creek Blvd,,Shakopee,MN,55379.0,USA,6128022199.0,tony@eaglecreekcontractors.com,http://www.eaglecreekcontractors.com,10126-000,2013-10-08 00:00:00,,True,A+,100.0,2.0,0.0,False,Micro-small,False,2022-08-05 08:39:00
704,1000001473,"Tony Simon Construction, LLC",13329 Lexington Rd,,Montgomery,MN,56069.0,USA,5077442636.0,tsimonconstruction@gmail.com,,10177-000,2010-02-19 00:00:00,,False,A+,100.0,1.0,0.0,False,Micro-small,False,2022-12-07 09:09:00
704,1000001474,"Eagle Construction Company, Inc.",515 9th Avenue NW,,Little Falls,MN,56345.0,USA,3206325429.0,,,10177-000,1973-01-10 00:00:00,,False,NR,0.0,1.0,0.0,False,Micro-small,False,2022-06-15 09:02:00
704,1000001475,Royal Care Car Wash,408 N Highway 10,,Royalton,MN,56373.0,USA,3205840191.0,,,60180-000,2009-07-02 00:00:00,,False,NR,0.0,1.0,0.0,False,Micro-small,False,2022-10-26 08:41:00
704,1000001476,"Kampmeyer Law, PLLC",310 4th Ave S,Ste 5010,Minneapolis,MN,55415.0,USA,7634585145.0,rkampmeyer@kampmeyerlaw.com,https://www.facebook.com/kampmeyerlaw/,60075-000,2014-03-18 00:00:00,,False,A+,100.0,1.0,0.0,False,Micro-small,False,2022-12-03 09:06:00
704,1000001477,"The Coachables, LLC",10001 Liatris Lane,,Eden Prairie,MN,55347.0,USA,6123512296.0,sanderson@thecoachables.com,http://thecoachables.com,85260-000,2014-01-21 00:00:00,,False,A+,100.0,1.0,0.0,False,Micro-small,False,2022-12-03 09:06:00
704,1000001478,Creative Incentives Inc,571 79th Way NE Ste 101,,Fridley,MN,55432.0,USA,7637802340.0,custserv@logohere.com,http://logohere.com,60539-000,1994-02-24 00:00:00,,False,A+,100.0,1.0,0.0,False,Micro-small,False,2022-12-23 09:05:00
704,1000001479,Prescott Sales Pilots,3660 Black Oaks Lane North,,Plymouth,MN,55446.0,USA,6124054402.0,cdprescott@prescottpilots.com,,60705-000,2015-12-18 00:00:00,,False,NR,0.0,1.0,0.0,False,Micro-small,False,2022-05-15 08:13:00
704,1000001480,Robtopia Creative LLC,4097 Pennsylvania Ave.,,Saint Paul,MN,55123.0,USA,6123842495.0,robtopiacreative@gmail.com,http://robtopiacreative.com,87200-000,2015-03-04 00:00:00,,False,A+,100.0,1.0,0.0,False,Micro-small,False,2022-12-07 09:09:00
704,1000001481,Midland Nursery Inc,3536 State Highway 55 SE,,Buffalo,MN,55313.0,USA,7634786122.0,info@midlandnursery.com,http://Midlandnursery.com,00155-000,1984-01-01 00:00:00,,False,A+,100.0,25.0,0.0,False,Micro-small,False,2022-12-17 09:00:00
704,1000001482,"Sell It Online MN, LLC",5263 Edina Industrial Blvd.,,Edina,MN,55439.0,USA,6128400130.0,marisa@sellitonlinemn.com,http://sellitonlinemn.com,62100-000,2015-03-11 00:00:00,,False,A+,100.0,2.0,0.0,False,Micro-small,False,2022-12-17 09:01:00
704,1000001483,"First Call Renovation, LLC",721 E 38th St,,Hibbing,MN,55746.0,USA,2189661470.0,tjsinc@yahoo.com,,10035-000,2013-06-21 00:00:00,,True,A+,100.0,3.0,0.0,False,Micro-small,False,2022-05-24 08:16:00
704,1000001484,Millards Creative Customs,14070 37th Place N.,,Minneapolis,MN,55447.0,USA,6125671622.0,millardscustoms@gmail.com,,30760-000,2013-11-07 00:00:00,,False,NR,0.0,1.0,0.0,False,Micro-small,False,2022-05-23 08:19:00
704,1000001485,A & L Painting,720 20th Ave N,,Sartell,MN,56377.0,USA,3204204113.0,alanlipp@yahoo.com,,10095-000,2005-04-14 00:00:00,,False,A+,100.0,2.0,0.0,False,Micro-small,False,2022-11-04 08:21:00
704,1000001486,Northwest Glass & Service,PO Box 505,,Pelican Rapids,MN,56572.0,USA,2188634442.0,,,50476-000,2005-01-01 00:00:00,,False,A+,100.0,1.0,0.0,False,Micro-small,False,2020-12-05 04:10:00
704,1000001487,"Northern Propane and Fuel, LLC",102B W Main Ave,,Fertile,MN,56540.0,USA,2189645020.0,,http://www.northernpropane.com,30479-000,2006-12-29 00:00:00,,False,NR,0.0,3.0,0.0,False,Micro-small,False,2022-11-27 09:00:00
704,1000001488,Lebsock Welding & Machine,PO Box 1260,,Watford City,ND,58854.0,USA,7018443378.0,nancy@guthelectric.com,,60948-000,2003-01-01 00:00:00,,False,A+,100.0,3.0,0.0,False,Micro-small,False,2020-02-01 04:31:00
704,1000001489,American Casing & Equipment,2721 Front St W,,Williston,ND,58801.0,USA,7015724573.0,,,00174-000,1992-01-01 00:00:00,,False,A+,100.0,110.0,0.0,False,Micro-small,False,2022-05-10 21:11:00
704,1000001491,Northland General LLC,58691 185th Ave,,Kellogg,MN,55945.0,USA,5072594676.0,ngdank1@gmail.com,,10035-000,,,False,A+,100.0,1.0,0.0,False,Micro-small,False,2020-11-24 04:02:00
704,1000001493,MSL Landscape and Fencing,1975 Diablo Dr SE,,Owatonna,MN,55060.0,USA,5074136315.0,wdmiller30@yahoo.com,http://msllandscapingandfencing.com/,00155-000,2012-04-13 00:00:00,,False,A+,100.0,1.0,0.0,False,Micro-small,False,2022-12-07 09:09:00
704,1000001494,"Staffing Partners, Inc.","5909 Baker Road, Suite 570",,Minnetonka,MN,55345.0,USA,9529264200.0,info@staffingpartnersinc.com,http://www.staffingpartnersinc.com/,60327-000,1987-09-14 00:00:00,,False,A+,100.0,1.0,0.0,False,Micro-small,False,2022-12-07 09:09:00
704,1000001495,Minnesota Native Landscapes,8740 77th St NE,,Otsego,MN,55362.0,USA,7632950010.0,Info@MNLcorp.com,http://mnnativelandscapes.com/,00155-000,2008-01-01 00:00:00,,False,A+,100.0,15.0,0.0,False,Micro-small,False,2022-04-13 08:06:00
704,1000001496,"Anvil Construction, LLC",10817 OPAL ST NE,,Circle Pines,MN,55014.0,USA,6519558632.0,anvilconstruction@icloud.com,,10035-000,2015-02-25 00:00:00,,False,A+,100.0,4.0,0.0,False,Micro-small,False,2022-12-07 09:09:00
704,1000001497,Maya Cuisine,1840 Central Ave NE,,Minneapolis,MN,55418.0,USA,6127890775.0,,http://www.mayacuisineusa.com/,50544-000,,,False,A+,100.0,1.0,0.0,False,Micro-small,False,2022-02-16 10:06:00
704,1000001498,Lenzen Roofing & Siding L. L. C.,2108 Parkside Cir,,Cologne,MN,55322.0,USA,6122268092.0,,,85318-300,2016-05-10 00:00:00,,False,A+,100.0,1.0,0.0,False,Micro-small,False,2021-06-12 06:08:00
704,1000001499,Cloud 9 Spa & Salon ,108  1st  Ave SW,,Rochester,MN,55902.0,USA,5072886689.0,massagecloud99@gmail.com,http://www.massagecloud9.com,60542-000,,,False,A+,99.31,1.0,0.0,False,Micro-small,False,2020-02-01 04:31:00
704,1000001500,YMCA--Bismarck,1608 N Washington St.,,Bismarck,ND,58501.0,USA,7012551525.0,,http://www.bismarckymca.org/,60430-100,,,False,NR,0.0,1.0,0.0,False,Micro-small,False,2022-06-15 09:02:00
704,1000001501,"Northern Rx Construction, LLP",5601 Smetana Dr,,Hopkins,MN,55343.0,USA,7632807654.0,mariah@northernrxconstruction.com,http://www.northernrxconstruction.com,10177-000,2016-03-14 00:00:00,,False,NR,0.0,2.0,0.0,False,Micro-small,False,2022-08-17 08:56:00
704,1000001502,"Space Crafting, Inc. ",2657 dupont ave s #100,,Minneapolis,MN,55408.0,USA,6123534073.0,info@spacecrafting.com,http://www.spacecrafting.com,61044-000,2004-04-28 00:00:00,,False,A+,100.0,1.0,0.0,False,Micro-small,False,2022-12-07 09:09:00
704,1000001503,Fix Design Haus,5301 Edina Industrial Blvd Ste 5,,Edina,MN,55439.0,USA,9525009796.0,info@fixdesignhaus.com,https://fixdesignhaus.com/,85269-000,2015-04-09 00:00:00,,False,A+,100.0,1.0,0.0,False,Micro-small,False,2023-01-13 09:01:00
704,1000001504,Countryside Service of Mankato LLC,901 Wettergren St,,Saint Peter,MN,56082.0,USA,5073444357.0,countrysideservice.pm@gmail.com,,10035-000,2015-05-28 00:00:00,,False,A+,100.0,1.0,0.0,False,Micro-small,False,2022-12-07 09:09:00
704,1000001505,Christian Dean Architecture LLC,4221 Beard Ave S,,Minneapolis,MN,55410.0,USA,6123822883.0,cdean@deanarch.com,http://www.deanarch.com,60057-000,2013-03-30 00:00:00,,False,A+,100.0,1.0,0.0,False,Micro-small,False,2022-12-07 09:09:00
704,1000001506,Lawn & Snow Express,3500 Vicksburg Ln N # 328,,Minneapolis,MN,55447.0,USA,8554669464.0,customerservice@lawncareexpress.com,http://www.lawnandsnowexpress.com,82300-000,2015-03-16 00:00:00,,False,A+,100.0,47.0,,False,Small,False,2022-12-28 09:14:00
704,1000001507,701 Customs Inc,1518 S Broadway,,Minot,ND,58701.0,USA,7018378934.0,seven01customs@srt.com,http://www.701customs.com,50045-000,2008-09-01 00:00:00,,False,A+,100.0,3.0,0.0,False,Micro-small,False,2022-12-07 09:09:00
704,1000001508,"HTraders.com, LLC",4828 Erickson Dr,,New Hope,MN,55428.0,USA,9164206122.0,customercare@htraders.com,http://www.htraders.com/,62100-000,2015-01-06 00:00:00,2019-07-01 00:00:00,False,NR,0.0,1.0,0.0,False,Micro-small,False,2022-07-08 12:28:00
704,1000001509,"Bee Line Towing, LLC",11724 Bittersweet St NW,,Coon Rapids,MN,55433.0,USA,5153317643.0,,,60891-000,2012-11-05 00:00:00,,False,B-,80.0,1.0,0.0,False,Micro-small,False,2022-10-24 07:58:00
704,1000001510,Gluten free Savonnerie ,11310 89th Street NW ,,Wildrose ,ND,58795.0,USA,7015392256.0,,http://www.gfsoap.com,30632-000,,,False,NR,0.0,1.0,0.0,False,Micro-small,False,2022-10-28 08:24:00
704,1000001511,Moving Up Enterprise,1100 Village St SE,,New Prague,MN,56071.0,USA,9527583810.0,,,60618-000,,,False,A+,99.31,,0.0,False,Micro-small,False,2020-02-01 04:31:00
704,1000001513,Rick's Car Cleaning & Detailing,163 4th St S,,Winsted,MN,55395.0,USA,3204854269.0,,,60180-000,1997-01-01 00:00:00,2016-05-12 00:00:00,False,NR,0.0,1.0,,False,Micro-small,False,2019-05-13 04:10:00
704,1000001514,Monticello Bait & Tackle,1213 Highway 25 S,,Monticello,MN,55362.0,USA,7632951187.0,,,50608-000,2009-01-01 00:00:00,2016-05-13 00:00:00,False,NR,0.0,6.0,,False,Micro-small,False,2019-05-20 04:18:00
704,1000001515,Mbd Merchant,25 Birch Ave S,,Maple Lake,MN,55358.0,USA,3209637345.0,,,50085-000,,,False,NR,0.0,1.0,,False,Micro-small,False,2022-05-24 08:16:00
704,1000001516,CHI St. Alexius Health Devils Lake Hospital,1031 7th St NE,,Devils Lake,ND,58301.0,USA,7016622131.0,AndrewLankowicz@catholichealth.net,https://www.chistalexiushealth.org/locations/devils-lake,60445-000,1884-01-01 00:00:00,,False,NR,0.0,150.0,0.0,False,Medium,False,2021-11-23 06:33:00
704,1000001517,Kearney Properties Cottage,Lake Washington,,Madison Lake,MN,56063.0,USA,5072433533.0,,,60729-000,,,False,A+,100.0,1.0,0.0,False,Micro-small,False,2022-11-01 08:13:00
704,1000001518,Legal Service-north Dakota,345 Main St,,New Town,ND,58763.0,USA,7016274719.0,,,60075-000,1989-01-01 00:00:00,,False,A+,100.0,3.0,0.0,False,Micro-small,False,2021-10-21 03:59:00
704,1000001519,Miller Trucking,PO Box 414,,Isle,MN,56342.0,USA,3206763421.0,,,70637-000,1984-01-01 00:00:00,,False,A+,100.0,1.0,0.0,False,Micro-small,False,2022-11-01 08:13:00
704,1000001520,Ry&#39;s Diesel Service,73925 242nd St,,Beardsley,MN,56211.0,USA,3207487629.0,,,80398-000,1993-01-01 00:00:00,,False,A+,100.0,1.0,0.0,False,Micro-small,False,2022-10-26 08:41:00
704,1000001521,"Two Men and Their Tools, LLC",4542 Nicollet Ave,,Minneapolis,MN,55419.0,USA,6123559785.0,korsmoben@gmail.com,,10035-000,2015-02-16 00:00:00,,False,A+,100.0,2.0,0.0,False,Micro-small,False,2022-08-16 08:20:00
704,1000001522,Matt Langland Construction LLC,202 E Woodman St,,Jeffers,MN,56145.0,USA,5073170157.0,mlangland1981@gmail.com,,10177-000,2010-01-12 00:00:00,,False,A+,100.0,1.0,0.0,False,Micro-small,False,2022-11-08 09:19:00
704,1000001523,Epic Auto And Sports Center,3256 Pine Tree St,,Jenkins,MN,56474.0,USA,2185685553.0,,http://www.epicautoandsports.com,50040-000,,,False,B-,80.0,1.0,0.0,False,Micro-small,False,2022-12-20 08:57:00
704,1000001524,The Cut Above,524 Washington St,,Brainerd,MN,56401.0,USA,2188291234.0,,,60134-000,1984-01-01 00:00:00,,False,NR,0.0,7.0,0.0,False,Micro-small,False,2021-08-15 04:22:00
704,1000001525,Chris Robichaud Painting,2081 Fairmount Ave,,Saint Paul,MN,55105.0,USA,6514504340.0,,,10095-300,1992-09-08 00:00:00,2021-07-28 00:00:00,False,NR,0.0,1.0,0.0,False,Micro-small,False,2021-07-30 04:16:00
704,1000001526,Basin Concrete Trucking & Rental,9 32nd Ave NW,,Williston,ND,58801.0,USA,7017743085.0,sara@basintrucking.com,,00174-000,1981-01-30 00:00:00,,False,A+,100.0,90.0,0.0,False,Small,False,2022-12-07 09:09:00
704,1000001528,Aileron Financial LLC,14577 Grand Ave Ste 250,,Burnsville,MN,55306.0,USA,6513304249.0,john@stcroixwm.com,http://aileronfinancial.com/,20012-000,2014-03-04 00:00:00,,False,A+,100.0,1.0,0.0,False,Micro-small,False,2022-12-07 09:09:00
704,1000001529,Hill City Service,140 Linden Ave Ste 169,,Hill City,MN,55748.0,USA,2186978174.0,,,60107-700,2002-01-02 00:00:00,,False,NR,0.0,1.0,0.0,False,Micro-small,False,2022-12-04 09:03:00
704,1000001530,Aroona Events,4881 Steeplechase Way,,Eagan,MN,55122.0,USA,6122163663.0,aruna@aroonaevents.com,http://aroonaevents.com/,65259-000,2010-03-14 00:00:00,,True,A+,100.0,1.0,0.0,False,Micro-small,False,2023-01-13 09:01:00
704,1000001531,"Johnson Spinal Care Associates, P.A.",14859 Energy Way,,Apple Valley,MN,55124.0,USA,9524323333.0,frontdesk@johnsonspinalcare.com,http://www.johnsonspinalcare.com,60205-000,1986-10-13 00:00:00,,False,A+,100.0,13.0,0.0,False,Small,False,2022-12-07 09:09:00
704,1000001532,"Gordy Serbus & Sons Gravel, LLC",71731 310th St,,Redwood Falls,MN,56283.0,USA,5076976459.0,cserbus@hotmail.com,https://www.serbusandsons.com/,50101-000,1998-03-03 00:00:00,,False,A+,100.0,9.0,0.0,False,Micro-small,False,2023-01-11 09:00:00
704,1000001533,"Baker Williams, LLP",2097 E County Rd D,,Saint Paul,MN,55109.0,USA,6517734111.0,jbaker@bakerwilliamslaw.com,http://bakerwilliamslaw.com,60075-000,2008-01-02 00:00:00,,False,NR,0.0,1.0,0.0,False,Micro-small,False,2021-09-17 04:03:00
704,1000001534,"MRK Financial Solutions, Inc.",3020 Harbor Ln N,,Plymouth,MN,55447.0,USA,7635418400.0,carlas@mrkfs.com,http://www.mrkfinancial.com,20012-000,1993-06-24 00:00:00,,False,A+,100.0,17.0,0.0,False,Small,False,2022-12-07 09:09:00
704,1000001535,Orange Brain Technology LLC,25501 Lost Long Lake Rd,,Aitkin,MN,56431.0,USA,2182321860.0,maasseen@icloud.com,http://www.orangebrainit.com,60235-300,2016-04-20 00:00:00,,False,NR,0.0,1.0,,False,Micro-small,False,2022-12-01 09:22:00
704,1000001537,Kortus Contracting & Remodeling LLC,37866 309th St,,Aitkin,MN,56431.0,USA,6513256691.0,tskortus@gmail.com,https://www.facebook.com/Kortus-Contracting-and-Remodeling-LLC-232198780316911/,10079-000,2009-06-02 00:00:00,,False,A+,100.0,1.0,0.0,False,Micro-small,False,2022-12-07 09:09:00
704,1000001538,Maynards Of Lake Lillian,661 Lakeview St,,Lake Lillian,MN,56253.0,USA,3206644450.0,,,50322-000,2004-01-01 00:00:00,2016-05-13 00:00:00,False,NR,0.0,4.0,,False,Micro-small,False,2019-05-20 04:18:00
704,1000001539,P C Christopherson & Assoc,1719 Norfolk Ave,,Saint Paul,MN,55116.0,USA,6516990886.0,,,60729-000,,2016-06-03 00:00:00,False,NR,0.0,1.0,,False,Micro-small,False,2021-10-22 03:45:00
704,1000001540,The Garage Bar & Grill,3108 9th St S,,Moorhead,MN,56560.0,USA,2182870100.0,al@thegaragebarpresents.com,,50544-000,2009-06-11 00:00:00,,False,A+,100.0,1.0,0.0,False,Micro-small,False,2022-12-07 09:09:00
704,1000001541,Meeks Lawn Care,6384 Pinecone Ln Nw,,Walker,MN,56484.0,USA,2185473729.0,,,00155-000,2010-08-30 00:00:00,2016-05-18 00:00:00,False,NR,0.0,1.0,,False,Micro-small,False,2019-05-20 04:18:00
704,1000001542,Eric Solheid Construction,312 lyndale ave north,,New Prague,MN,56071.0,USA,9522920924.0,esolheid33@gmail.com,,10079-000,,,False,A+,100.0,1.0,0.0,False,Micro-small,False,2022-10-08 08:10:00
704,1000001543,Burger Burger,321 South Ave.,,Bloomington,MN,55425.0,USA,9528557800.0,csonterre@kaskaidhospitality.com,https://www.eatburgerburger.com,50544-000,2015-02-26 00:00:00,,False,NR,0.0,1.0,0.0,False,Micro-small,False,2022-06-22 11:34:00
704,1000001544,"Platinum Construction, LLC",16230 94th St. ,,Young America,MN,55397.0,USA,9522402813.0,mikefasching22@yahoo.com,,10035-000,2014-04-02 00:00:00,,False,A+,100.0,1.0,0.0,False,Micro-small,False,2022-12-07 09:09:00
704,1000001545,Noor Batres Companies LLC,6600 Pleasant Ave # 117,,Edina,MN,55423.0,USA,6125902758.0,,,10035-000,2015-06-22 00:00:00,,False,A+,100.0,1.0,0.0,False,Micro-small,False,2020-03-06 04:07:00
704,1000001546,Northern Edge Plumbing & Service LLC,31344 103rd St,,Princeton,MN,55371.0,USA,6124067859.0,info@northernedgeplumbing.com,,10113-000,2015-01-05 00:00:00,,False,A+,100.0,1.0,0.0,False,Micro-small,False,2022-12-07 09:09:00
704,1000001547,"Neighborhood Landscaping and Design, LLC",3716 County Road 77,,Nisswa,MN,56468.0,USA,2188317289.0,scott@nldservices.com,,00156-000,,,False,A+,100.0,1.0,0.0,False,Micro-small,False,2021-09-21 04:00:00
704,1000001548,Posi-Pack Corporation,7180 Northland Cir N,,Minneapolis,MN,55428.0,USA,7635319022.0,info@posipack.com,http://posipack.com,30132-000,1979-04-20 00:00:00,,False,A+,100.0,1.0,0.0,False,Micro-small,False,2022-12-07 09:09:00
704,1000001549,Top Notch Woodworking and Construction LLC,8417 39th Ave N,,New Hope,MN,55427.0,USA,5072177192.0,joebernau@hotmail.com,,10177-000,2009-08-17 00:00:00,,False,A+,100.0,1.0,0.0,False,Micro-small,False,2022-12-07 09:09:00
704,1000001550,"Binz Plumbing, LLC",18164 Luedke Ln,,Prior Lake,MN,55372.0,USA,9522124636.0,,,10113-000,2009-07-08 00:00:00,,False,A+,100.0,1.0,,False,Micro-small,False,2023-01-18 09:32:00
704,1000001551,"All American Readers, Inc.",2230 Edgewood Ave S Ste 3B,,Saint Louis Park,MN,55426.0,USA,8889060162.0,mrchrishanssen@gmail.com,,30543-000,2013-10-23 00:00:00,2021-04-04 00:00:00,False,NR,0.0,15.0,0.0,False,Micro-small,False,2022-03-16 08:53:00
704,1000001552,Creative Color Solutions LLC,4621 3rd Ave S,,Minneapolis,MN,55419.0,USA,6129635714.0,andrew@creativecolorsolutions.com,http://www.creativecolorsolutions.com,10095-000,,,False,A+,100.0,2.0,0.0,False,Micro-small,False,2022-12-07 09:09:00
704,1000001553,Anhorn&#39;s Gas & Tire,216 S. Main St.,,Medford,MN,55049.0,USA,5074511651.0,john@anhorns.com,http://www.anhorns.com,60997-000,1949-01-01 00:00:00,,False,A+,100.0,3.0,,False,Micro-small,False,2022-12-07 09:09:00
704,1000001554,"Ideal Concrete Construction, Inc.", 7673 Interlachen Rd,,Nisswa,MN,56468.0,USA,3204202458.0,zachweberg@idealconcretemn.com,http://www.idealconcretemn.com,10032-000,2013-09-12 00:00:00,,False,A+,100.0,4.0,,False,Small,False,2022-12-30 08:57:00
704,1000001555,"Advanced Hardwood Floors, Inc.",4951 23rd Ave NW,,Rochester,MN,55901.0,USA,5072541934.0,ljriess64@gmail.com,https://advancedhardwoodfloorsinc.com/,85366-000,2004-01-01 00:00:00,,False,A+,100.0,1.0,0.0,False,Micro-small,False,2022-03-18 08:14:00
704,1000001557,"Blomberg and Sons, Inc.",26 North Drive,,Babbitt,MN,55706.0,USA,2188273618.0,wallygriffon16@gmail.com,,10113-000,1979-11-13 00:00:00,,False,A+,100.0,1.0,0.0,False,Micro-small,False,2022-12-07 09:09:00
704,1000001558,"All States Flooring, Inc.",1740 Main Ave W Ste F,,West Fargo,ND,58078.0,USA,7013712345.0,allstates.ac@gmail.com,,85366-000,2010-06-29 00:00:00,,False,A+,100.0,3.0,0.0,False,Micro-small,False,2022-12-22 09:09:00
704,1000001559,Keats Group LLC,8955 33rd St N,,Lake Elmo,MN,55042.0,USA,6517738400.0,rcattanach@keatsgroup.com,,55683-000,2002-03-07 00:00:00,,False,A+,100.0,2.0,0.0,False,Micro-small,False,2022-06-09 08:18:00
704,1000001560,C T Construction,12835 34th Ave N,,Minneapolis,MN,55441.0,USA,6123277843.0,chris@ctconstruction.net,https://www.yelp.com/biz/ct-construction-bloomington,10035-000,2005-01-01 00:00:00,,False,A+,100.0,1.0,0.0,False,Micro-small,False,2021-10-13 04:28:00
704,1000001562,Ray Devine,1695 Main St,,Hugo,MN,55038.0,USA,6514070388.0,,,50173-000,,2016-05-17 00:00:00,False,NR,0.0,,,False,Micro-small,False,2019-05-20 04:18:00
704,1000001563,Natural Impressions Photo,33 Main St,,Hazen,ND,58545.0,USA,7017485656.0,,,60658-000,2006-01-01 00:00:00,,False,NR,0.0,2.0,0.0,False,Micro-small,False,2020-02-01 04:31:00
704,1000001564,Lazy L Motel,280 2nd Ave Nw,,Killdeer,ND,58640.0,USA,7017646560.0,,,60447-000,,2016-05-16 00:00:00,False,NR,0.0,1.0,,False,Micro-small,False,2019-05-20 04:18:00
704,1000001565,Mauer Amoco Oil Co,411 1st St SW,,Hankinson,ND,58041.0,USA,7012427286.0,,,50567-000,1994-01-01 00:00:00,,False,A+,100.0,1.0,0.0,False,Micro-small,False,2020-02-01 04:31:00
704,1000001566,Roger Langenbau Excavating,4190 Langenbau Rd,,Pequot Lakes,MN,56472.0,USA,2185684183.0,,,10050-000,,,False,A+,99.28,1.0,0.0,False,Micro-small,False,2020-02-01 04:31:00
704,1000001567,Saris Web Design LLC,1221 Bluff Creek Dr,,Chaska,MN,55318.0,USA,6124541859.0,riehl89@gmail.com,http://sariswebdesign.com,60980-000,2014-04-11 00:00:00,,False,A+,100.0,1.0,0.0,False,Micro-small,False,2022-12-07 09:09:00
704,1000001568,A Too Z Process Service,1125 Sibley Memorial Hwy,,Mendota Hts,MN,55118.0,USA,6514524001.0,,,60704-000,2007-07-19 00:00:00,,False,NR,0.0,1.0,0.0,False,Micro-small,False,2022-10-07 08:31:00
704,1000001569,Pretty Petals Floral,401 Main St W,,Hazen,ND,58545.0,USA,7017486080.0,,,50275-000,2009-01-01 00:00:00,,False,A+,100.0,4.0,0.0,False,Micro-small,False,2020-12-25 03:51:00
704,1000001570,Wing Financial Service,120 S Main St,,Stanley,ND,58784.0,USA,7016282063.0,,,20067-000,2007-01-01 00:00:00,,False,A+,100.0,2.0,0.0,False,Micro-small,False,2020-02-01 04:31:00
704,1000001571,Doris' Upholstery,6339 89th Avenue Northwest,,Ross,ND,58776.0,USA,7017553255.0,,,60915-000,2005-01-01 00:00:00,,False,NR,0.0,1.0,0.0,False,Micro-small,False,2022-06-15 09:02:00
704,1000001572,Stan Sievert Agency,330 Main St,,Lakefield,MN,56150.0,USA,5076625351.0,eric@stansievert.com,http://stansievert.com,60729-000,2007-12-27 00:00:00,,False,A+,100.0,1.0,0.0,False,Micro-small,False,2022-12-07 09:09:00
704,1000001573,Quality Foundations Llc,PO Box 906,,Devils Lake,ND,58301.0,USA,7016621090.0,,,10032-000,2002-01-01 00:00:00,,False,A+,100.0,6.0,0.0,False,Micro-small,False,2021-05-13 04:07:00
704,1000001574,First Choice Flooring LLC,3542 James Ave N,,Minneapolis,MN,55412.0,USA,6126002730.0,phillip.stueve.39@gmail.com,,85366-000,2004-10-12 00:00:00,,False,A+,100.0,2.0,0.0,False,Micro-small,False,2023-01-11 09:00:00
704,1000001575,"BNJ Plumbing, Inc.",PO Box 99,,Thief River Falls,MN,56701.0,USA,2186835429.0,,,10003-000,2003-02-05 00:00:00,,False,NR,0.0,1.0,0.0,False,Micro-small,False,2022-07-08 12:27:00
704,1000001576,Bella's On Broadway,523 Broadway Street,,Alexandria,MN,56308.0,USA,3208460900.0,,,50544-000,,,False,NR,0.0,1.0,0.0,False,Micro-small,False,2021-08-19 04:22:00
704,1000001583,"PriorityOne Technologies, Inc.",1171 Jackson St Suite B,,Saint Paul,MN,55117.0,USA,6512859718.0,info@priorityonetech.com,http://www.priorityonetech.com,60235-300,2009-04-22 00:00:00,,False,A+,100.0,3.0,0.0,False,Micro-small,False,2022-12-07 09:09:00
704,1000001587,Torgersen Construction,1252 Airport Rd,,Two Harbors,MN,55616.0,USA,2188346561.0,,,10035-000,1998-01-01 00:00:00,,False,A+,100.0,3.0,0.0,False,Micro-small,False,2020-02-01 04:31:00
704,1000001588,Tourand Construction Inc,1902 Meadow Rose Blvd,,Saint Cloud,MN,56301.0,USA,3202533807.0,tourandconstruction@hotmail.com,,10035-000,1993-12-23 00:00:00,,False,A+,100.0,2.0,0.0,False,Micro-small,False,2022-12-07 09:09:00
704,1000001589,"Christianson&#39;s Business Furniture, Inc",2828 13th Ave S,,Fargo,ND,58103.0,USA,7012933944.0,rick@cbfplus.com,http://www.cbfplus.com/,80509-000,2005-01-27 00:00:00,,False,A+,100.0,15.0,0.0,False,Small,False,2022-12-07 09:09:00
704,1000001590,"TPC Construction, LLC",10 Michael St,,Saint Paul,MN,55119.0,USA,6513538128.0,,,10177-000,2007-11-02 00:00:00,,False,NR,0.0,1.0,0.0,False,Micro-small,False,2022-10-07 08:31:00
704,1000001591,TK Construction Management Services LLC,1920 Whitetail Ridge Ct,,Excelsior,MN,55331.0,USA,6123631835.0,THOMASKASPRVAK@GMAIL.COM,,10177-000,2010-01-04 00:00:00,,False,A+,100.0,1.0,0.0,False,Micro-small,False,2022-12-07 09:09:00
704,1000001592,All - Type Construction,5585 274th Street,,Wyoming,MN,55092.0,USA,6127018139.0,,,10177-000,,,False,A+,99.27,1.0,0.0,False,Micro-small,False,2020-02-01 04:31:00
704,1000001593,"Her Happy Place, LLC",323 South front st,,Saint Peter,MN,56082.0,USA,5076656017.0,eideltimes6@gmail.com,,50743-000,2015-09-24 00:00:00,,False,A+,100.0,1.0,0.0,False,Micro-small,False,2022-12-10 09:02:00
