,BBBID,BusinessID,BusinessName,StreetAddress,StreetAddress2,City,StateProvince,PostalCode,Country,Phone,Email,Website,TOBID,TOBDescription,DateBusinessStarted,DateBusinessClosed,IsBBBAccredited,BBBRatingGrade,BBBRatingScore,NumberOfEmployees,NumberOfPartTimeEmployees,IsHQ,SizeOfBusiness,IsCharity,CDWLastUpdate,FoundVia
1600,704,96544073,Residential Alternatives Inc,3801 W Broadway Ave,,Minneapolis,MN,55422,USA,6125226363,,https://www.yellowpages.com/minneapolis-mn/mip/residential-alternatives-inc-480763409,61006-000,Psychiatrists & Psychiatric Services,4/30/2014 0:00,,False,A+,100.0,,0.0,False,Micro-small,False,12/13/2020 3:56,Search
1601,704,96544290,"Torghele, Cheryl A OD",8500 Normandale Lake Blvd Ste 1710,,Bloomington,MN,55437,USA,9528317761,,https://intermountainhealthcare.org/find-a-doctor/t/torghele-cheryl-a/,60629-000,Optometrists,4/30/2014 0:00,,False,NR,0.0,1.0,0.0,False,Micro-small,False,11/30/2021 4:07,Search
1602,704,96544527,Serenity Choice Homecare,33459 Csah 19,,South Haven,MN,55382,USA,3203988335,,https://npino.com/home-health/1750691903-serenity-choice-homecare/,60441-000,Home Health Services,4/30/2014 0:00,,False,NR,0.0,1.0,0.0,False,Micro-small,False,1/10/2022 9:26,Search
1603,704,96543959,New Health Solutions,5209 Duncraig Rd,,Minneapolis,MN,55436,USA,9529228900,,https://www.minnhealth.com/,60971-000,Health & Medical - General,4/30/2014 0:00,,False,NR,0.0,1.0,0.0,False,Micro-small,False,10/20/2022 8:10,Search
1604,704,96544404,Jp's Lawn Service,115 Spring Valley Cir,,Minneapolis,MN,55420,USA,9528849288,,https://www.dnb.com/business-directory/company-profiles.jps_lawn_service.e7f65c75d3087b78055ed2d240d8f228.html,00155-000,Landscape Contractors,,,False,A+,100.0,,,False,Micro-small,False,7/3/2020 4:12,Search
1605,704,96545100,Cfw Furniture,2497 7th St W,,Saint Paul,MN,55116,USA,6516983988,,https://furniturestoresusa.com/cfw-furniture-saint-paul-mn,50291-000,Furniture - Retail,4/30/2014 0:00,8/30/2019 0:00,False,NR,0.0,,0.0,False,Micro-small,False,8/31/2019 4:14,Search
1606,704,96544333,Jeremy J Uzzell Construction,2127 93rd Way,,Minneapolis,MN,55444,USA,7633154586,,https://www.yellowpages.com/minneapolis-mn/mip/jeremy-j-uzzell-construction-25745827,10035-000,Contractors - General,,1/16/2018 0:00,False,NR,0.0,,,False,Micro-small,False,1/19/2021 3:46,Search
1607,704,96544837,M & J Horseshoe Supply Inc,5646 37th St SE,,Rockford,MN,55373,USA,7639726263,,https://opencorporates.com/companies/us_mn/a4405f43-9dd4-e011-a886-001ec94ffe7f,30289-000,Horseshoe Equipment & Supplies,6/10/1990 0:00,,False,NR,0.0,1.0,0.0,False,Micro-small,False,11/22/2022 8:45,Search
1608,704,96544561,Titan Contracting of Harwood,203 Ted Ave,,Harwood,ND,58042,USA,7014920478,,https://www.thebluebook.com/iProView/1078123/titan-contracting-of-harwood/general-contractors/%7Burl%7D,10035-000,Contractors - General,,,False,A+,100.0,1.0,,False,Micro-small,False,12/15/2022 9:21,Search
1609,704,96543887,"Durensky, Roger",1900 44th St S Ste 6020,,Fargo,ND,58103,USA,7014992516,,https://www.linkedin.com/pub/dir/+/Durensky,60729-102,Real Estate Agents,4/30/2014 0:00,8/26/2021 0:00,False,NR,0.0,1.0,0.0,False,Micro-small,False,8/29/2021 4:06,Search
1610,704,96544868,Paint Shop,1271 W Knife River Rd,,Two Harbors,MN,55616,USA,2185257912,,https://www.superpages.com/two-harbors-mn/bpp/paint-shop-25675719,80536-000,Paint - Wholesale & Manufacturers,3/31/1997 0:00,,False,NR,0.0,,0.0,False,Micro-small,False,7/20/2021 4:05,Search
1611,704,96545261,Bsi Secured Lending,900 Ids Ctr,,Minneapolis,MN,55402,USA,6123495273,,https://www.manta.com/c/mbdc703/bsi-secured-lending,20079-000,Credit Services,4/30/2014 0:00,,False,A+,100.0,1.0,0.0,False,Micro-small,False,9/9/2021 4:03,Search
1612,704,96545121,Basa Properties,16410 149th St SE,,Big Lake,MN,55309,USA,7632635661,,https://www.yellowpages.com/big-lake-mn/mip/basa-properties-458703934,60729-102,Real Estate Agents,4/30/2014 0:00,4/1/2021 0:00,False,NR,0.0,1.0,0.0,False,Micro-small,False,2/1/2022 9:32,Search
1613,704,96545028,Bare It Inc,11426 Hazelwood Ln N,,Champlin,MN,55316,USA,7634275909,,https://6sense.com/company/bare-it-beauty-inc/627b16457925586bf0257ac5,60172-100,Coaching - Business,8/10/2007 0:00,,False,NR,0.0,1.0,0.0,False,Micro-small,False,9/18/2021 4:12,Search
1614,704,96544147,Interstate Marketing Group Inc,8120 Penn Ave S Ste 100T,,Minneapolis,MN,55431,USA,9528549234,,https://www.manta.com/c/mmqzmzf/interstate-marketing-group-inc,60729-102,Real Estate Agents,4/30/2014 0:00,,False,A+,100.0,1.0,0.0,False,Micro-small,False,11/23/2021 6:33,Search
1615,704,96544922,MV Tech Service Inc,6641 Nez Perce Dr,,Chanhassen,MN,55317,USA,9524741780,,http://www.mv-tech.net/,85272-000,Information Technology Services,,,False,A+,100.0,1.0,,False,Micro-small,False,12/7/2022 9:09,Search
1616,704,96544243,"Johnson, Howard E DC",804 Freeport Ave NW Ste A,,Elk River,MN,55330,USA,7634413830,,https://powerwithinchiroofelkriver.com/,60205-000,Chiropractors D.C.,,,False,A+,100.0,,,False,Micro-small,False,7/3/2020 4:12,Search
1617,704,96545305,Chantrey Capital Advisors Inc,3569 Woodland Ct,,Saint Paul,MN,55123,USA,6514545030,,https://www.manta.com/c/mw28ch8/chantrey-capital-advisors-inc,20085-200,Investment Management,,3/12/2019 0:00,False,NR,0.0,,,False,Micro-small,False,3/13/2019 5:01,Search
1618,704,96544862,Minnesota Geoservices Inc,1450 Carroll Ave,,Saint Paul,MN,55104,USA,6516468975,,https://www.linkedin.com/company/minnesota-geoservices-inc.,60103-000,Auto Repair & Service,4/30/2014 0:00,,False,A+,100.0,1.0,0.0,False,Micro-small,False,10/11/2021 3:53,Search
1619,704,96543910,Lisa P3 Hair Design,4332 Shady Oak Rd S,,Hopkins,MN,55343,USA,9529340000,,https://us.sulekha.com/hopkins-mn/beautician/p3-hair-design-790131,60134-000,Beauty Salons,,,False,A+,100.0,,,False,Micro-small,False,7/9/2020 4:10,Search
1620,704,96544908,Metro Precision Collections,PO Box 490427,,Blaine,MN,55449,USA,7632053726,,https://www.manta.com/c/mbs5jcz/metro-precision-collections,60226-000,Collection Agencies,5/28/2009 0:00,12/13/2017 0:00,False,NR,0.0,,0.0,False,Micro-small,False,12/15/2020 4:06,Search
1621,704,96544455,L & D Tackle,2559 115th Ave NW,,Minneapolis,MN,55433,USA,7637556741,,https://www.yellowpages.com/minneapolis-mn/mip/l-d-tackle-25717576,80311-000,Fishing Tackle - Wholesale & Manufacturers,4/30/2014 0:00,,False,A+,100.0,1.0,0.0,False,Micro-small,False,11/1/2022 8:12,Search
1622,704,96544211,Keep Health Massage,222 W 1st St,,Duluth,MN,55802,USA,2184641891,,https://keep-health-massage.business.site/,60543-000,Massage Therapists,4/30/2014 0:00,,False,A+,100.0,1.0,0.0,False,Micro-small,False,11/12/2021 4:01,Search
1623,704,96544118,Steeco Inc,6250 Highway 12,,Maple Plain,MN,55359,USA,7634796430,,https://www.dandb.com/businessdirectory/steecoinc-mapleplain-mn-4739963.html,60323-000,Electronic Equipment & Suppliers - Service & Repair,4/30/2014 0:00,,False,NR,0.0,1.0,0.0,False,Micro-small,False,12/13/2021 4:01,Search
1624,704,96544380,Joseph Yennie Builder,841 Balsam Ct NE,,Pine Island,MN,55963,USA,5073564071,,http://www.manta.com/c/mb8bg5h/joseph-yennie-builder,10035-000,Contractors - General,,,False,A+,100.0,,,False,Micro-small,False,7/3/2020 4:12,Search
1625,704,96544208,Kay M Miller CMT,1120 Carney Ave,,Mankato,MN,56001,USA,5073513016,,http://crossroads.massagetherapy.com/,60543-000,Massage Therapists,4/30/2014 0:00,,False,NR,0.0,,0.0,False,Micro-small,False,3/21/2021 3:53,Search
1626,704,96545176,Autobody Specialties,215 Reform St S,,Norwood,MN,55368,USA,9524672277,,https://www.autobody-review.com/shop/i30269/autobody-specialties,60094-000,Auto Body Repair & Painting,12/30/2011 0:00,9/10/2019 0:00,False,NR,0.0,,0.0,False,Micro-small,False,9/11/2019 5:49,Search
1627,704,96544234,J S Hagen Appraisal,21614 County Road 8,,Cold Spring,MN,56320,USA,3202660377,,https://www.dandb.com/businessdirectory/jshagenappraisal-coldspring-mn-33055374.html,60045-000,Appraisers,,,False,A+,100.0,1.0,,False,Micro-small,False,6/7/2022 8:10,Search
1628,704,96544492,Kurt Driver-Allstate Agent,100 Main St N,,Cambridge,MN,55008,USA,7636918101,,https://www.facebook.com/pages/category/insurance-agent/Kurt-Driver-Allstate-Insurance-110418272355138/,20080-000,Insurance Services,,,False,A+,100.0,,,False,Micro-small,False,7/2/2020 4:06,Search
1629,704,96545243,Comprehensive Rehab Ctr of MN,133 W Lake St,,Minneapolis,MN,55408,USA,6122598520,,https://www.dotexamlocations.com/mn/minneapolis/4108-comprehensive-rehab-centers-of-mn,60205-000,Chiropractors D.C.,4/30/2014 0:00,,False,A+,100.0,1.0,0.0,False,Micro-small,False,10/29/2021 3:56,Search
1630,704,96544050,Reach For Resources,1001 Highway 7 # 235,,Hopkins,MN,55305,USA,9529884177,,http://reachforresources.org/,61006-000,Psychiatrists & Psychiatric Services,,,False,A+,100.0,,,False,Micro-small,False,7/8/2020 4:45,Search
1631,704,96544846,My European Treasures,287 Water St Ste 110,,Excelsior,MN,55331,USA,,,https://www.facebook.com/profile.php?id=100064291112661,55203-000,Department Stores,4/30/2014 0:00,9/4/2019 0:00,False,NR,0.0,,0.0,False,Micro-small,False,9/5/2019 4:19,Search
1632,704,96544117,Sports Car Engineering,1825 Main Ave Ste 6,,Moorhead,MN,56560,USA,2182331445,,https://www.cartalk.com/mn/moorhead/135596/sports-car-engineering,60103-000,Auto Repair & Service,,,False,A+,100.0,,,False,Micro-small,False,7/8/2020 4:45,Search
1633,704,96544269,Heaton Insurance Agency,425 E Saint Germain St Ste 107,,Saint Cloud,MN,56304,USA,3202510722,,https://www.facebook.com/heatonagent,20080-000,Insurance Services,,,False,NR,0.0,1.0,,False,Micro-small,False,6/1/2022 21:26,Search
1634,704,96544852,Noeldner Brothers Inc,207 4th St SW,,Young America,MN,55397,USA,9524672012,,https://www.allbiz.com/business/noeldner-insurance-agency-952-467-2012,20019-100,Insurance Agency,,,False,A+,100.0,,,False,Micro-small,False,7/1/2020 4:26,Search
1635,704,96544972,Aon Risk Service Inc.,8300 Norman Center Dr Ste 1000,,Bloomington,MN,55437,USA,9526568000,,https://mployeradvisor.com/insurance-brokers/minnesota/bloomington/aon-risk-services-inc-bloomington-mn,20080-000,Insurance Services,4/30/2014 0:00,9/10/2019 0:00,False,NR,0.0,,0.0,False,Micro-small,False,9/11/2019 5:49,Search
1636,704,96544413,Locksmith A 24 Hour,2053 Quartz Ln,,Saint Paul,MN,55122,USA,6512366271,,https://www.247locksmiths.io/local/aaa-247-emergency-locksmith-408-saint-peter-st-31962.html,60522-000,Locks & Locksmiths,4/30/2014 0:00,,False,NR,0.0,,0.0,False,Micro-small,False,3/23/2021 4:01,Search
1637,704,96544643,Huelskamp Family Chiropractic,111 Main St N,,Stewartville,MN,55976,USA,5075338011,,https://www.theconnectionachiropracticplace.com/dr-kevin-huelskamp/,60205-000,Chiropractors D.C.,,,False,A+,100.0,,,False,Micro-small,False,7/2/2020 4:06,Search
1638,704,96544626,Gmb Mezzanine Capital,50 S 6th St Ste 1460,,Minneapolis,MN,55402,USA,6122434408,,https://gmbcapitalpartners.com/,20045-000,Investment Advisory Service,4/30/2014 0:00,,False,NR,0.0,,0.0,False,Micro-small,False,3/13/2021 4:07,Search
1639,704,96544464,"Kahnert, Michael",12400 Portland Ave Ste 120,,Burnsville,MN,55337,USA,9528828876,,https://www.linkedin.com/in/mike-kahnert-61193656,20080-000,Insurance Services,,12/13/2017 0:00,False,NR,0.0,,,False,Micro-small,False,12/15/2020 4:06,Search
1640,704,96544614,St Paul Photo CO,122 Kent St,,Saint Paul,MN,55102,USA,6517568064,,http://www.facebook.com/stpaulphotoco,60657-000,Photographers - Commercial,4/30/2014 0:00,,False,A+,100.0,1.0,0.0,False,Micro-small,False,11/12/2021 4:01,Search
1641,704,96543988,MVS Inc,3804 Whiterose ,,Burnsville,MN,55337,USA,6125783642,,https://www.dnb.com/business-directory/company-profiles.mvs_inc.e96da26bb18e5c1cb4cf385b4a75022c.html,50750-000,Transportation Services,4/30/2014 0:00,,False,A+,100.0,1.0,0.0,False,Micro-small,False,8/16/2022 8:21,Search
1642,704,96544236,Joe Klohs,8900 W River Rd,,Minneapolis,MN,55444,USA,7635690070,,https://www.manta.com/c/mtv77tl/joe-klohs,60172-100,Coaching - Business,4/30/2014 0:00,,False,NR,0.0,1.0,0.0,False,Micro-small,False,4/14/2022 8:45,Search
1643,704,96545166,Ag Department,2500 11th St N,,Moorhead,MN,56560,USA,2182915414,,https://claycountymn.gov/321/Agriculture,80812-000,Industrial Manufacturers,4/30/2014 0:00,,False,NR,0.0,1.0,0.0,False,Micro-small,False,8/15/2022 8:04,Search
1644,704,96543931,Net-Info Inc,2312 Central Ave NE,,Minneapolis,MN,55418,USA,6127828362,,https://www.info-link.net/,60280-000,Data Processing Service,,7/9/2021 0:00,False,NR,0.0,,,False,Micro-small,False,7/11/2021 4:09,Search
1645,704,96544344,Strive Chiropractic,3120 25th St S Ste V,,Fargo,ND,58103,USA,7018934200,,https://www.strivechiropractic.com/,60205-000,Chiropractors D.C.,4/30/2014 0:00,,False,NR,0.0,1.0,0.0,False,Micro-small,False,12/12/2021 4:01,Search
1646,704,96544359,Unbound Therapy Resources Llc,7400 Metro Blvd Ste 413,,Minneapolis,MN,55439,USA,6128102605,,https://npino.com/behavioral-health/1821241761-unbound-therapy-resources/,60971-000,Health & Medical - General,4/30/2014 0:00,,False,NR,0.0,1.0,0.0,False,Micro-small,False,11/28/2021 3:55,Search
1647,704,96544495,Locksmith Team,6310 Minnetonka Blvd,,Minneapolis,MN,55416,USA,9523148498,,https://minneapolislockandkey.com/,60522-000,Locks & Locksmiths,,,False,A+,100.0,1.0,,False,Micro-small,False,3/16/2022 8:52,Search
1648,704,96544717,Skin Spa Inc,408 1st St N,,Cold Spring,MN,56320,USA,3202506036,,http://www.skinspacs.com/,60134-000,Beauty Salons,4/30/2014 0:00,,False,NR,0.0,1.0,0.0,False,Micro-small,False,1/7/2022 14:14,Search
1649,704,96543970,Larson AK Family Llc,3939 W St 200,,Minneapolis,MN,55424,USA,6124140245,,https://www.manta.com/c/mb8xpkk/larson-ak-family-llc,60075-101,Attorneys & Lawyers  -  Family,4/30/2014 0:00,,False,A+,100.0,1.0,0.0,False,Micro-small,False,10/22/2022 8:10,Search
1650,704,96544348,Summers Tax Services,6082 Stillwater Blvd N,,Saint Paul,MN,55128,USA,6517310044,,https://www.allbiz.com/business/summers-tax-services_3q-651-731-0044,60857-000,Tax Return Preparation,4/30/2014 0:00,,False,NR,0.0,1.0,0.0,False,Micro-small,False,12/11/2021 4:05,Search
1651,704,96544424,Holly Cleaning Service,12230 Maryland Cir,,Champlin,MN,55316,USA,7633237190,,https://www.cylex.us.com/company/holly-cleaning-service-31570079.html,60478-000,Janitor Service,,,False,A+,100.0,1.0,,False,Micro-small,False,4/7/2022 9:01,Search
1652,704,96544775,Kellerman Lawn Care,954 Homestead Ct,,West Fargo,ND,58078,USA,7018662088,,https://landscape-services.cmac.ws/kellerman-lawn-care/49289/,00155-000,Landscape Contractors,,3/22/2016 0:00,False,NR,0.0,,,False,Micro-small,False,3/25/2019 3:59,Search
1653,704,96544008,Mother Approved Cleaning Service,701 Royal Oaks Dr N,,Fargo,ND,58102,USA,2182303382,,http://www.mamaduckscleaningservice.com/,60478-000,Janitor Service,,,False,A+,100.0,,,False,Micro-small,False,7/9/2020 4:10,Search
1654,704,96544466,Kdg Interactive Inc,8010 Demontreville Trail Circle Ct,,Lake Elmo,MN,55042,USA,6517488480,,https://kdg.com/,50173-000,Computers - Dealers,,,False,A+,100.0,1.0,,False,Micro-small,False,3/3/2022 9:49,Search
1655,704,96544366,Turtle Bay Building Service,7690 Isaak Ave NW,,Annandale,MN,55302,USA,3202745568,,https://www.yellowpages.com/annandale-mn/mip/turtle-bay-building-service-25782371,60478-000,Janitor Service,4/30/2014 0:00,,False,NR,0.0,1.0,0.0,False,Micro-small,False,3/16/2022 8:53,Search
1656,704,96544135,St Elizabeths Home,306 15th Ave N,,Saint Cloud,MN,56303,USA,3202028512,,https://www.ccstcloud.org/services/housing/mental-health,60042-000,Apartments,4/30/2014 0:00,,False,NR,0.0,,0.0,False,Micro-small,False,8/4/2021 5:08,Search
1657,704,96544576,Vitac,5909 Halifax Ave S,,Minneapolis,MN,55424,USA,9529263442,,https://vitac-consulting-llc.business.site/?utm_source=gmb&utm_medium=referral,60578-000,Motion Picture Film Editing,,,False,NR,0.0,,,False,Micro-small,False,1/6/2021 4:29,Search
1658,704,96544397,"Hollway, Bruce",7100 Northland Cir N # 311,,Minneapolis,MN,55428,USA,7639719200,,https://www.startribune.com/obituaries/detail/0000346061/,20080-000,Insurance Services,,,False,A+,100.0,,,False,Micro-small,False,7/3/2020 4:12,Search
1659,704,96544337,Jacinth Productions,4311 Fisher Ln,,White Bear Lake,MN,55110,USA,6128504828,,https://www.manta.com/c/mtrcb77/jacinth-productions,60582-000,Motion Picture Producers & Studios,,,False,A+,100.0,1.0,,False,Micro-small,False,3/24/2022 8:32,Search
1660,704,96544461,Jonker Portrait Gallery,13602 Everest Ave,,Saint Paul,MN,55124,USA,9528912286,,https://www.juliannejonker.com/,60658-000,Photographers - Portrait,4/30/2014 0:00,,False,NR,0.0,,0.0,False,Micro-small,False,3/21/2021 3:53,Search
1661,704,96544019,Shane & Jennifer,6733 116th Cir,,Champlin,MN,55316,USA,7634330681,,https://insurance-consultants.cmac.ws/shane-jennifer/10252/,20080-000,Insurance Services,1/1/2006 0:00,1/1/2019 0:00,False,NR,0.0,1.0,0.0,False,Micro-small,False,1/7/2022 14:13,Search
1662,704,96544836,Nick Bhattacharyya & Assoc,8800 Highway 7 Ste 328,,Minneapolis,MN,55426,USA,9529450719,,https://www.finduslocal.com/insurance-agentbroker-management-consulting-services/minnesota/minneapolis/bhattacharyya-nick-associate_8800-highway-7-ste-328/,20080-000,Insurance Services,,,False,A+,100.0,,,False,Micro-small,False,7/1/2020 4:26,Search
1663,704,96544623,Gaylord Hub Publishing CO,234 4th St,,Gaylord,MN,55334,USA,5072372476,,https://www.gaylordhub.com/,30352-000,Lithographers,4/30/2014 0:00,,False,NR,0.0,1.0,0.0,False,Micro-small,False,3/16/2022 8:53,Search
1664,704,96544476,Light Water Corporation,7193 Amberwood Ln,,Savage,MN,55378,USA,9524408359,,https://www.loc8nearme.com/minnesota/savage/light-water-corporation/3285150/,50173-000,Computers - Dealers,12/9/1996 0:00,10/16/2019 0:00,False,NR,0.0,1.0,0.0,False,Micro-small,False,10/17/2022 7:54,Search
1665,704,96544368,Jbm Distributing,3360 220th St W,,Farmington,MN,55024,USA,6514606466,,https://www.yellowpages.com/farmington-mn/mip/jbm-distributing-463942774,80010-000,Advertising Specialties,4/30/2014 0:00,,False,A+,100.0,1.0,0.0,False,Micro-small,False,6/16/2022 8:34,Search
1666,704,96544894,Mc Henrys Custom Furn & Cbnts,3329 Florida Ave N,,Minneapolis,MN,55427,USA,7632052131,,https://www.facebook.com/McHenrysCFC/,80509-000,Office Furniture & Equipment,4/30/2014 0:00,,False,C+,77.0,1.0,0.0,False,Micro-small,False,6/10/2022 8:24,Search
1667,704,96545194,Bambas African Hair Braiding,1312 1/2 7th St SW,,Rochester,MN,55902,USA,5072084544,,https://www.manta.com/c/mt4n4gh/bambas-african-hair-braiding,60134-000,Beauty Salons,4/30/2014 0:00,,False,NR,0.0,,0.0,False,Micro-small,False,2/22/2021 3:55,Search
1668,704,96544770,Jorgensen Woods Inc,12762 Polk St NE,,Minneapolis,MN,55434,USA,7637559768,,https://furniturestoresusa.com/jorgensen-woods-inc-minneapolis-mn,50291-000,Furniture - Retail,4/30/2014 0:00,,False,NR,0.0,,0.0,False,Micro-small,False,3/21/2021 3:53,Search
1669,704,96544218,Kirsten M Dawson,3558 Siems CT,,Saint Paul,MN,55112,USA,6516366836,,https://www.linkedin.com/in/kirsten-dawson-8a60b13a,60172-100,Coaching - Business,4/30/2014 0:00,,False,NR,0.0,,0.0,False,Micro-small,False,3/21/2021 3:53,Search
1670,704,96544811,"LA Mont, Robert",2435 Barton Ave NW,,Buffalo,MN,55313,USA,7636823790,,https://buffalonews.com/news/inmate-convicted-of-robbing-and-shooting-teen-in-1994/article_d3dadab1-66ad-55fb-95ce-3660a8cc8174.html,60729-102,Real Estate Agents,,,False,A+,100.0,,,False,Micro-small,False,7/1/2020 4:26,Search
1671,704,96544074,Richardson Properties,4230 Oakview Ln N,,Minneapolis,MN,55442,USA,7635591910,,https://sr-re.com/,60729-102,Real Estate Agents,4/30/2014 0:00,,False,NR,0.0,1.0,0.0,False,Micro-small,False,4/21/2022 8:28,Search
1672,704,96544694,"Hansen, Brian",1309 State St N,,Waseca,MN,56093,USA,5078354716,,https://www.edwardjones.com/us-en/financial-advisor/b-hansen?y_source=1_OTY0NDM0LTcxNS1sb2NhdGlvbi53ZWJzaXRl,20045-000,Investment Advisory Service,,,False,A+,100.0,,,False,Micro-small,False,2/12/2021 4:07,Search
1673,704,96544801,Kellogg Public Works,100 N Sheppard St,,Kellogg,MN,55945,USA,5077674870,,https://kellogg.id.gov/public-works/,10121-000,Road Building Contractors,4/30/2014 0:00,,False,NR,0.0,,0.0,False,Micro-small,False,3/21/2021 3:53,Search
1674,704,96544499,"Soto Gri, Miria",4705 Cedar Ave S,,Minneapolis,MN,55407,USA,6127288807,,https://www.yellowpages.com/minneapolis-mn/mip/soto-gri-miria-474008218,60729-102,Real Estate Agents,4/30/2014 0:00,,False,A+,100.0,,0.0,False,Micro-small,False,12/19/2018 5:03,Search
1675,704,96544823,"Loving, Raymond J",1270 Northland Dr Ste 165,,Saint Paul,MN,55120,USA,6519050606,,https://www.dnb.com/business-directory/company-profiles.raymond_j_loving.0204c5683982c09afc4f623df991d63b.html,20045-000,Investment Advisory Service,,,False,A+,100.0,,,False,Micro-small,False,1/27/2021 4:41,Search
1676,704,96545091,ReMax Realty,4342 15th Ave S,,Fargo,ND,58103,USA,7013062643,,https://www.remax.com/homes-for-sale/nd/fargo/city/3825700,60729-102,Real Estate Agents,4/30/2014 0:00,,False,NR,0.0,1.0,0.0,False,Micro-small,False,9/13/2022 8:18,Search
1677,704,96544438,Kilbjourne Inc,14918 Crown Dr,,Minnetonka,MN,55345,USA,9524758028,,https://www.kk-awards.com/,60729-102,Real Estate Agents,,,False,A+,100.0,1.0,,False,Micro-small,False,3/3/2022 9:50,Search
1678,704,96544658,RLW Properties Llc,1740 Robert St S,,Saint Paul,MN,55118,USA,6514555200,,https://www.allbiz.com/business/rlw-properties-llc_26,60729-102,Real Estate Agents,4/12/2011 0:00,,False,A+,100.0,1.0,0.0,False,Micro-small,False,3/19/2022 8:30,Search
1679,704,96544095,S W Fitch Construction,5816 Upper 183rd St W,,Farmington,MN,55024,USA,6514632907,,http://www.fitchconstruction.com/,10035-000,Contractors - General,4/30/2014 0:00,,False,A+,100.0,,0.0,False,Micro-small,False,1/31/2021 3:59,Search
1680,704,96544719,Sterling Catering & Events,1342 Grand Ave,,Saint Paul,MN,55105,USA,6513954008,,https://www.sterlingcateringmn.com/,50544-000,Restaurants,4/30/2014 0:00,,False,A+,100.0,1.0,0.0,False,Micro-small,False,4/22/2022 8:18,Search
1681,704,96544804,"Klinge, Theresa K OD",7450 France Ave S Ste 100,,Edina,MN,55435,USA,9528318811,,https://www.healthcare4ppl.com/physician/minnesota/edina/theresa-k-klinge-1710953161.html,60629-000,Optometrists,,,False,A+,100.0,,,False,Micro-small,False,7/1/2020 4:26,Search
1682,704,96544154,Haven in Waconia,508 Industrial Blvd,,Waconia,MN,55387,USA,9524426227,,http://havenchemicalhealth.com/,60033-000,Alcoholism Info & Treatment Centers,,,False,A+,100.0,,,False,Micro-small,False,7/7/2020 4:07,Search
1683,704,96544628,Gupta Visas,2576 Kenzie Ter,,Minneapolis,MN,55418,USA,6125455868,,https://www.yellowpages.com/minneapolis-mn/mip/gupta-visas-474008782,60658-000,Photographers - Portrait,4/30/2014 0:00,,False,A+,100.0,1.0,0.0,False,Micro-small,False,9/10/2021 4:01,Search
1684,704,96544537,Tacheny's Collision Ctr,219 4th Ave S,,Pease,MN,56363,USA,3203694900,,https://www.chaneyscollision.com/,60094-000,Auto Body Repair & Painting,,,False,A+,100.0,1.0,,False,Micro-small,False,5/20/2022 8:11,Search
1685,704,96545292,Bobiam Artisitc Streetwear,2919 Hennepin Ave,,Minneapolis,MN,55408,USA,6123547476,,http://www.studiiyo23.com/,55093-000,Clothing - Retail,12/7/2010 0:00,9/4/2019 0:00,False,NR,0.0,,0.0,False,Micro-small,False,9/5/2019 4:19,Search
1686,704,96544522,Sbd Environmental,10182 Trotters Path,,Eden Prairie,MN,55347,USA,9529410686,,https://www.linkedin.com/company/sbd-environmental,80678-000,Spill Control Equipment & Materials,,,False,A+,100.0,,,False,Micro-small,False,7/2/2020 4:06,Search
1687,704,96544288,Tilt Photo,2443 Nevada Ave N,,Minneapolis,MN,55427,USA,7634501120,,https://www.tilt-photo.com/,60657-000,Photographers - Commercial,4/30/2014 0:00,,False,NR,0.0,1.0,0.0,False,Micro-small,False,12/1/2021 4:53,Search
1688,704,96544029,Priority Technologies LLC,162 Pennsylvania Ave W,,Saint Paul,MN,55103,USA,6512928324,,https://www.showmelocal.com/profile.aspx?bid=18809238,60245-000,Computers - Service & Repair,4/30/2014 0:00,,False,NR,0.0,1.0,0.0,False,Micro-small,False,8/9/2022 8:29,Search
1689,704,96544400,Hospitality Design Resource,4848 Ewing Ave S,,Minneapolis,MN,55410,USA,6129206204,,https://www.yellowpages.com/minneapolis-mn/mip/hospitality-design-resource-463987963,60470-000,Interior Decorators & Designers,,,False,A+,100.0,,,False,Micro-small,False,7/3/2020 4:12,Search
1690,704,96544381,Jrl Construction Inc,25903 16th St W,,Zimmerman,MN,55398,USA,7632380765,,https://opencorporates.com/companies/us_mn/6ac415a1-8bd4-e011-a886-001ec94ffe7f,85313-000,Contractor - Industrial,,8/9/2018 0:00,False,NR,0.0,1.0,,False,Micro-small,False,10/9/2021 4:04,Search
1691,704,96544232,J M P Construction,2014 3rd Ave S,,Fargo,ND,58103,USA,7013675763,,https://www.manta.com/c/mbnbr8c/j-m-p-construction,10035-000,Contractors - General,,,False,A+,100.0,1.0,,False,Micro-small,False,11/2/2021 3:51,Search
1692,704,96544437,Kickhafer Consulting Service,5170 Greenwood Cir,,Excelsior,MN,55331,USA,9524700923,,https://www.dnb.com/business-directory/company-profiles.kickhafer_consulting_services_incorpora.ec3edf16374a5c446bb9ba625182ee28.html,60533-000,Management Consultants,4/30/2014 0:00,,False,A+,100.0,1.0,0.0,False,Micro-small,False,10/15/2021 4:11,Search
1693,704,96544216,Kottke Service Auto,28901 109th Ave N,,Hanover,MN,55341,USA,7634988774,,https://www.hanovermn.org/index.asp?SEC=392440A9-1BE1-488A-8406-F2ED6F0E2924&DE=0BB58D91-B11C-4A6D-8F21-45A0F83B1CC4&Type=B_DIR,60733-000,Real Estate Rental Service,,,False,A+,100.0,,,False,Micro-small,False,7/7/2020 4:07,Search
1694,704,96544680,Seop Solutions Llc,709 129th Ave NE,,Minneapolis,MN,55434,USA,7637553672,,https://portkeyseominneapolis.com/,60246-000,Computers - Sys Designers & Consult,,,False,A+,100.0,,,False,Micro-small,False,7/2/2020 4:06,Search
1695,704,96544443,Jeffrey O Fink,11915 27th Ave N,,Minneapolis,MN,55441,USA,7635579071,,https://www.michaelfinklaw.com/?utm_source=google-local&utm_medium=organic&utm_campaign=2498,60533-000,Management Consultants,4/30/2014 0:00,,False,NR,0.0,,0.0,False,Micro-small,False,3/17/2021 4:44,Search
1696,704,96544251,Kohler Real Estate CO Inc,14913 Williamsburg Curv,,Burnsville,MN,55306,USA,6127354966,,https://shelleykohler.kw.com/,60729-102,Real Estate Agents,4/30/2014 0:00,,False,A+,100.0,1.0,0.0,False,Micro-small,False,9/29/2021 4:08,Search
1697,704,96544302,Just Pro Realty,229 N Meridian St,,Belle Plaine,MN,56011,USA,9528736530,,https://www.manta.com/c/mbnch7q/just-pro-realty,60729-102,Real Estate Agents,4/30/2014 0:00,,False,A+,100.0,1.0,0.0,False,Micro-small,False,3/2/2022 10:31,Search
1698,704,96545197,Bent River Builders LLC,55301 201st Ln,,Mankato,MN,56001,USA,5073274143,,https://www.buildzoom.com/contractor/bent-river-builders-llc,85310-000,Contractor - Commercial,7/3/2008 0:00,9/10/2019 0:00,False,NR,0.0,1.0,0.0,False,Micro-small,False,9/4/2022 8:28,Search
1699,704,96543953,Mullins Group,2616 Lynn Ave,,Minneapolis,MN,55416,USA,9529227310,,https://mullinsgroupinc.com/,60729-102,Real Estate Agents,4/30/2014 0:00,,False,NR,0.0,,0.0,False,Micro-small,False,3/27/2021 4:08,Search
1700,704,96544541,Terry J Knop Insurance,7200 Hudson Blvd N,,Oakdale,MN,55128,USA,6513899979,,https://www.linkedin.com/in/terry-knop-28a39030,20080-000,Insurance Services,4/30/2014 0:00,,False,NR,0.0,,0.0,False,Micro-small,False,8/15/2021 4:22,Search
1701,704,96544387,Juliette Fiechtner At,West Acres Shopping Mall,,West Fargo,ND,58078,USA,7012824605,,https://www.fargomonthly.com/by-juliette/,60134-000,Beauty Salons,4/30/2014 0:00,7/9/2021 0:00,False,NR,0.0,1.0,0.0,False,Micro-small,False,10/19/2022 8:27,Search
1702,704,96544741,Gallery Ali,1156 138th Ave NW,,Andover,MN,55304,USA,7637543176,,http://www.facebook.com/BlueLoonBoutique,60060-000,"Art Galleries, Dealers & Consultants",,,False,A+,100.0,,,False,Micro-small,False,7/1/2020 4:26,Search
1703,704,96544085,T & D Anderson Lawn & Snow,1145 Parallel St,,Chaska,MN,55318,USA,9524481774,,https://landscape-services.cmac.ws/t-d-anderson-lawn-snow/76407/,00155-000,Landscape Contractors,4/30/2014 0:00,,False,A+,100.0,1.0,0.0,False,Micro-small,False,1/20/2022 9:52,Search
1704,704,96544533,Triple R Land Development CO,11112 Rhode Island Ave S,,Minneapolis,MN,55438,USA,9529449342,,https://www.linkedin.com/in/wayne-olson-28666351,20080-000,Insurance Services,4/30/2014 0:00,,False,A+,100.0,1.0,0.0,False,Micro-small,False,12/15/2021 4:25,Search
1705,704,96545037,Anchor Glass,4108 Valley Industrial Blvd N,,Shakopee,MN,55379,USA,9524455003,,https://anchorglass.com/,30269-000,Glassware - Wholesale & Manufacturers,2/27/2014 0:00,,False,A+,100.0,1.0,0.0,False,Micro-small,False,9/10/2022 8:39,Search
1706,704,96545090,Bloomington Locksmiths,1450 W 94th St,,Bloomington,MN,55431,USA,9524676078,,http://www.locksmithbloomington.org/,60522-000,Locks & Locksmiths,4/30/2014 0:00,2/22/2017 0:00,False,NR,0.0,,0.0,False,Micro-small,False,2/24/2020 3:52,Search
1707,704,96545225,Beauclaire Construction,8711 County Road U,,Webster,WI,54893,USA,6514872757,,https://www.yellowpages.com/inver-grove-heights-mn/mip/beauclair-construction-cabinetry-inc-22528509,10035-000,Contractors - General,3/25/2008 0:00,,False,A+,100.0,1.0,0.0,False,Micro-small,False,8/4/2022 8:30,Search
1708,704,96544765,Interalle Inc,631 Harriet Ave,,Saint Paul,MN,55126,USA,6512988800,,https://www.yellowpages.com/saint-paul-mn/mip/interalle-inc-465838256,50173-000,Computers - Dealers,4/30/2014 0:00,,False,NR,0.0,,0.0,False,Micro-small,False,3/16/2021 4:00,Search
1709,704,96544588,Twin City Public Adjusting,3634 Hadley Ct,,Oakdale,MN,55128,USA,6513542501,,https://twincitypublicadjusting.com/,20080-000,Insurance Services,4/23/2010 0:00,,False,NR,0.0,1.0,0.0,False,Micro-small,False,3/16/2022 8:53,Search
1710,704,96545050,Anoka County Finance & Cs,5100 E River Rd,,Fridley,MN,55421,USA,7635020061,,https://www.yellowpages.com/fridley-mn/mip/anoka-county-finance-cs-462103404,20045-000,Investment Advisory Service,,,False,A+,100.0,,,False,Micro-small,False,1/21/2021 4:05,Search
1711,704,96544919,Motors By Gosh,20998 134th Ave N Ste 111,,Rogers,MN,55374,USA,7638983992,,http://www.facebook.com/MotorsByGosh/,60103-000,Auto Repair & Service,4/30/2014 0:00,,False,A+,100.0,,0.0,False,Micro-small,False,7/31/2021 4:28,Search
1712,704,96544212,Kely Hair Braiding,2948 36th Ave S,,Minneapolis,MN,55406,USA,6127210990,,https://www.instagram.com/beautybykellymn/?hl=en,60134-000,Beauty Salons,,,False,A+,100.0,,,False,Micro-small,False,7/7/2020 4:07,Search
1713,704,96544676,Sauk Rapids Herald Newspaper,7 2nd Ave S,,Sauk Rapids,MN,56379,USA,3202511971,,https://www.saukrapidsherald.com/,30418-000,Newspapers,5/29/2015 0:00,,False,NR,0.0,1.0,0.0,False,Micro-small,False,8/9/2022 8:29,Search
1714,704,96544127,Fisher Car Care Ctr,501 31st Ave SW,,Minot,ND,58701,USA,7018382288,,https://www.manta.com/c/mtrytl6/fisher-car-care-center,60180-000,Car Wash & Polish,4/30/2014 0:00,,False,A+,100.0,1.0,0.0,False,Micro-small,False,2/6/2022 9:10,Search
1715,704,96544391,High Point For Print Making,912 W Lake St,,Minneapolis,MN,55408,USA,6128711327,,https://www.highpointprintmaking.org/,30352-000,Lithographers,4/30/2014 0:00,,False,A+,100.0,1.0,0.0,False,Micro-small,False,11/23/2021 6:33,Search
1716,704,96544040,R & D Used Construction Parts,PO Box 487,,Princeton,MN,55371,USA,7633893536,,https://www.princeton.edu/~ota/disk2/1987/8704/870412.PDF,10035-000,Contractors - General,,,False,A+,100.0,,,False,Micro-small,False,7/8/2020 4:45,Search
1717,704,96544713,Gti Distribution Service,6698 Shady Oak Rd,,Eden Prairie,MN,55344,USA,9522596100,,https://www.superpages.com/eden-prairie-mn/bpp/amp/gti-distribution-service-7382033,50173-000,Computers - Dealers,4/30/2014 0:00,,False,NR,0.0,,0.0,False,Micro-small,False,3/13/2021 4:08,Search
1718,704,96545109,Clear Corp,1522 Albany Ave,,Saint Paul,MN,55108,USA,6516038000,,https://www.yellowpages.com/saint-paul-mn/mip/clear-corp-3379521,30614-000,Signs,12/12/2007 0:00,,False,NR,0.0,1.0,0.0,False,Micro-small,False,3/2/2022 10:31,Search
1719,704,96544924,Namisemn,1700 Broadway Ave N Ste 104,,Rochester,MN,55906,USA,5072871692,,http://namisemn.org/,61006-000,Psychiatrists & Psychiatric Services,,,False,A+,100.0,,,False,Micro-small,False,6/27/2020 3:57,Search
1720,704,96545187,"Beilby Chiropractic and Wellness Clinic, LLC",1260 County Road E West #B,,Mounds View,MN,55112,USA,6517889489,,https://www.yellowpages.com/saint-paul-mn/mip/beilby-chiropractic-and-wellness-clinic-504479726,60205-000,Chiropractors D.C.,3/9/2011 0:00,,False,A+,100.0,,0.0,False,Micro-small,False,5/23/2021 3:54,Search
1721,704,96544731,"Holmer, Jason",140 W 98th St Ste 103,,Bloomington,MN,55420,USA,9528889097,,https://www.usinsuranceagents.com/agents/bloomington-mn/farmers-jason-holmer/,20080-000,Insurance Services,,,False,A+,100.0,,,False,Micro-small,False,7/2/2020 4:06,Search
1722,704,96544481,Stallion Insurance Group Inc,1935 County Road B2 W Ste 430,,Roseville,MN,55113,USA,6517351284,,https://www.stallioninsgroup.com/,20080-000,Insurance Services,7/2/2008 0:00,,False,A+,100.0,1.0,0.0,False,Micro-small,False,4/2/2022 8:47,Search
1723,704,96544469,J R Supp,4685 49th Ave S Apt 301,,Fargo,ND,58104,USA,7018668133,,https://www.facebook.com/JLFargoMoorhead/,80010-000,Advertising Specialties,,,False,A+,100.0,1.0,,False,Micro-small,False,12/23/2022 9:05,Search
1724,704,96545149,Aegon USA Inc,408 Saint Peter St,,Saint Paul,MN,55102,USA,6512241566,,https://insurance-consultants.cmac.ws/aegon-usa-inc/10628/,20080-000,Insurance Services,4/30/2014 0:00,,False,A+,100.0,,0.0,False,Micro-small,False,12/6/2020 3:57,Search
1725,704,96544726,INB Professional Cleaning,1285 Diversion Dr,,West Fargo,ND,58078,USA,7017938400,,https://www.manta.com/c/mw2n675/inb-professional-cleaning,60478-000,Janitor Service,,,False,A+,100.0,1.0,,False,Micro-small,False,10/28/2021 4:09,Search
1726,704,96544457,Klahrs Garage,29050 Gaylord Ave,,Cannon Falls,MN,55009,USA,5072633819,,http://www.salespider.com/b-302033446/klahrs-garage,60103-000,Auto Repair & Service,4/30/2014 0:00,,False,NR,0.0,1.0,0.0,False,Micro-small,False,3/3/2022 9:50,Search
1727,704,96545227,Balageru Market,811 University Ave W,,Saint Paul,MN,55104,USA,6514311195,,https://www.manta.com/c/mtrj6xw/balageru-market,50322-000,Grocers - Retail,11/14/2012 0:00,,False,NR,0.0,1.0,0.0,False,Micro-small,False,4/7/2022 9:01,Search
1728,704,96544756,Hoefer,Donnelly Development,,Edina,MN,55435,USA,9525481430,,https://www.realtor.com/realestateagents/5845f5ec4057b8000194db48,60729-102,Real Estate Agents,4/30/2014 0:00,,False,NR,0.0,,0.0,False,Micro-small,False,3/15/2021 4:04,Search
1729,704,96544072,Request Realty,5508 Harriet Ave,,Minneapolis,MN,55419,USA,6128256482,,https://www.edinarealty.com/,60729-102,Real Estate Agents,4/30/2014 0:00,,False,A+,100.0,,0.0,False,Micro-small,False,6/19/2020 3:47,Search
1730,704,96544405,K & R Graphics,733 Elm Ct,,Le Sueur,MN,56058,USA,5076653417,,https://krgraphicsus.com/,30352-000,Lithographers,5/8/2008 0:00,,False,NR,0.0,1.0,0.0,False,Micro-small,False,8/16/2022 8:20,Search
1731,704,96544125,Invacare Rentals,7564 Market Place Dr,,Eden Prairie,MN,55344,USA,9529425660,,https://www.dandb.com/businessdirectory/invacarerentals-edenprairie-mn-5134464.html,60747-000,Rental Service Stores & Yards,4/30/2014 0:00,,False,A+,100.0,1.0,0.0,False,Micro-small,False,9/5/2021 4:01,Search
1732,704,96543997,Rono Repair & Mfg Inc,15511 Juniper St NW,,Andover,MN,55304,USA,7634139857,,https://www.superpages.com/andover-mn/bpp/rono-repair-mfg-inc-458283394,10035-200,Contractor - Remodel & Repair,,,False,A+,100.0,1.0,,False,Micro-small,False,3/24/2022 8:31,Search
1733,704,96544616,Stabo Construction Inc,11 Highview Estates Rd,,Bottineau,ND,58318,USA,7013614753,,https://www.manta.com/c/mhknq11/stabo-construction-inc,10035-000,Contractors - General,4/30/2014 0:00,,False,NR,0.0,1.0,0.0,False,Micro-small,False,12/14/2021 4:08,Search
1734,704,96544441,Jbl Insurance,14243 Fountain Hills Ct NE,,Prior Lake,MN,55372,USA,9522240016,,https://www.yellowpages.com/prior-lake-mn/mip/jbl-insurance-468965241,20080-000,Insurance Services,4/30/2014 0:00,,False,A+,100.0,1.0,0.0,False,Micro-small,False,2/25/2022 9:44,Search
1735,704,96544223,Laughing Waters Design Inc,1770 Stillwater St,,Saint Paul,MN,55110,USA,6514881176,,https://www.laughingwatersinc.com/,60065-000,Artists - Commercial,4/30/2014 0:00,,False,NR,0.0,,0.0,False,Micro-small,False,3/22/2021 4:01,Search
1736,704,96544213,Kings Court Creative Photography,3250 Longfellow Rd N,,Fargo,ND,58102,USA,7012380359,,https://kingscourtcreativephotography.pixieset.com/,60658-000,Photographers - Portrait,,,False,A+,100.0,1.0,,False,Micro-small,False,11/23/2021 6:33,Search
1737,704,96544140,Laundry Place,1475 University Ave W,,Saint Paul,MN,55155,USA,6519179274,,http://www.thelaundryplace.biz/,60496-000,Laundries,4/30/2014 0:00,,False,NR,0.0,,0.0,False,Micro-small,False,4/23/2021 3:55,Search
1738,704,96545281,Carleton College Investment,50 S 6th St Ste 1440,,Minneapolis,MN,55402,USA,6122303530,,https://www.carleton.edu/investment/,20045-000,Investment Advisory Service,4/30/2014 0:00,,False,NR,0.0,1.0,0.0,False,Micro-small,False,8/15/2022 8:03,Search
1739,704,96543904,W W Klus Realty,5249 W 73rd St,,Minneapolis,MN,55439,USA,9529222560,,https://www.yellowpages.com/minneapolis-mn/mip/w-w-klus-realty-459458674,60729-102,Real Estate Agents,4/30/2014 0:00,,False,NR,0.0,1.0,0.0,False,Micro-small,False,11/23/2021 6:33,Search
1740,704,96544615,St Paul Ski Club,1265 Sterling St S,,Maplewood,MN,55119,USA,6517391285,,http://www.stpaulskiclub.com/,20080-000,Insurance Services,4/30/2014 0:00,,False,A+,100.0,1.0,0.0,False,Micro-small,False,11/17/2021 4:33,Search
1741,704,96544776,Kathleen&#39;s Therapeutic Massage,315 1/2 N Cedar Ave,,Owatonna,MN,55060,USA,5074550975,,https://www.manta.com/c/mbnk93y/kathleen-s-therapeutic-massage,60543-000,Massage Therapists,,9/3/2019 0:00,False,NR,0.0,1.0,,False,Micro-small,False,9/5/2022 8:07,Search
1742,704,96544861,Local 24 Locksmith,3213 Edward St NE,,Minneapolis,MN,55418,USA,6124129129,,https://www.reliablelocksmithmn.com/,60522-000,Locks & Locksmiths,,,False,NR,0.0,,,False,Micro-small,False,12/23/2020 12:20,Search
1743,704,96544429,Judd Commercial Properties,817 Vandalia St,,Saint Paul,MN,55114,USA,6516466845,,http://www.juddrealty.com/,60729-102,Real Estate Agents,,,False,A+,100.0,,,False,Micro-small,False,7/3/2020 4:13,Search
1744,704,96545076,Booth Welding & Fabricating,520 18th St N,,New Ulm,MN,56073,USA,5072179646,,https://booth-innovation.com/,60950-000,Welding Equipment - Repair,3/23/2009 0:00,,False,A+,100.0,1.0,0.0,False,Micro-small,False,9/20/2022 9:17,Search
1745,704,96544390,Kae Contracting,716 North Ave,,Hebron,ND,58638,USA,7015090144,,https://vymaps.com/US/Kae-Contracting-T840389000103987/,10035-000,Contractors - General,4/9/2009 0:00,,False,A+,100.0,1.0,0.0,False,Micro-small,False,10/18/2021 3:53,Search
1746,704,96544388,Justin L Downs,14006 53rd Ave N,,Minneapolis,MN,55446,USA,7639512694,,https://cocofinder.com/person/downs-5fbb68775f19ff170c6e1c67,60172-100,Coaching - Business,4/30/2014 0:00,,False,NR,0.0,,0.0,False,Micro-small,False,3/21/2021 3:53,Search
1747,704,96545266,C H Industries Llc,18315 96th St SE,,Becker,MN,55308,USA,3202598008,,https://www.buzzfile.com/business/Ch-Industries-LLC-612-670-3888,80812-000,Industrial Manufacturers,10/31/2011 0:00,,False,NR,0.0,1.0,0.0,False,Micro-small,False,8/15/2022 8:04,Search
1748,704,96545246,Border Area Adjustment Inc,623 Main Ave E Ste 201,,West Fargo,ND,58078,USA,7012828053,,https://claimsresource.ambest.com/search/CompanyDisplay.aspx?dpid=5376&nid=5,20080-000,Insurance Services,7/14/2000 0:00,,False,A+,100.0,,0.0,False,Micro-small,False,7/14/2021 4:26,Search
1749,704,96544830,Mark A Johnson Farm,1918 W Highway 30,,Ellendale,MN,56026,USA,5076843802,,https://www.yellowpages.com/ellendale-mn/mip/mark-a-johnson-farm-25652016,00128-000,Farms,4/30/2014 0:00,,False,NR,0.0,1.0,0.0,False,Micro-small,False,8/12/2022 8:33,Search
1750,704,96545272,Biolife Plasma Center,351 10th Ave S,,Waite Park,MN,56387,USA,3202535900,,https://www.biolifeplasma.com/locations/Minnesota/Waite-Park,60971-000,Health & Medical - General,4/30/2014 0:00,,False,NR,0.0,1.0,0.0,False,Micro-small,False,10/16/2022 8:03,Search
1751,704,96545013,Ari Property Management, 219 Ortman St SE,,Minneapolis,MN,55414,USA,6123782237,,https://www.showmelocal.com/profile.aspx?bid=1202181,60729-102,Real Estate Agents,,,False,A+,100.0,,,False,Micro-small,False,12/4/2020 4:07,Search
1752,704,96544672,Rick Waterworth Construction,5005 66th St S,,Fargo,ND,58104,USA,7012823182,,https://www.buildzoom.com/contractor/rick-waterworth-construction-inc,10035-000,Contractors - General,,,False,A+,100.0,,,False,Micro-small,False,7/2/2020 4:06,Search
1753,704,96544959,615 Properties Llc,615 1st Ave NE Ste 500,,Minneapolis,MN,55413,USA,6123791058,,"https://www.buzzfile.com/business/615-Properties,-LLC-612-359-5852",60729-102,Real Estate Agents,8/10/2000 0:00,2/27/2020 0:00,False,NR,0.0,1.0,0.0,False,Micro-small,False,2/26/2022 9:35,Search
1754,704,96545036,Architectural Lighting & Designs,10085 28th St S,,Moorhead,MN,56560,USA,7012615438,,https://www.yellowpages.com/moorhead-mn/mip/architectural-lighting-designs-25762970,30265-000,Glass Blowers,4/30/2014 0:00,,False,A+,100.0,1.0,0.0,False,Micro-small,False,4/8/2022 8:24,Search
1755,704,96544675,Sancar Llc,641 Keller Pkwy,,Saint Paul,MN,55117,USA,6514905924,,https://www.facebook.com/JackandthePackMN/,60729-000,Real Estate,1/1/2008 0:00,,False,NR,0.0,1.0,0.0,False,Micro-small,False,8/9/2022 8:29,Search
1756,704,96544138,Steve Lanthier,8 Barker Dr,,Duluth,MN,55808,USA,2186264040,,https://www.facebook.com/steve.lanthier.9/,60172-100,Coaching - Business,4/30/2014 0:00,,False,NR,0.0,,0.0,False,Micro-small,False,8/8/2021 3:58,Search
1757,704,96543966,Lachance Mark Nmn,17626 Kettering Trl,,Lakeville,MN,55044,USA,9528915387,,https://www.yellowpages.com/lakeville-mn/mip/lachance-mark-nmn-481772334,60172-100,Coaching - Business,4/30/2014 0:00,,False,NR,0.0,,0.0,False,Micro-small,False,3/22/2021 4:01,Search
1758,704,96545106,"Davison, Judith L",393 Dunlap St N Ste 600,,Saint Paul,MN,55104,USA,6516450691,,https://www.wellness.com/dir/1971264/audiologist/mn/saint-paul/judith-l-davison-ccc,60971-000,Health & Medical - General,4/30/2014 0:00,,False,NR,0.0,1.0,0.0,False,Micro-small,False,6/17/2022 8:36,Search
1759,704,96544488,Kochs Lawn & Landscaping,16301 125th Ave N,,Dayton,MN,55327,USA,7634254567,,https://www.allbiz.com/business/kochs-lawn-landscaping-763-425-4567,00155-000,Landscape Contractors,,,False,A+,100.0,,,False,Micro-small,False,9/4/2020 4:07,Search
1760,704,96543891,Joeys Repair,39588 230th St,,Arlington,MN,55307,USA,5079642085,,https://www.buzzfile.com/business/Joey!s-Repair-507-964-2085,60103-000,Auto Repair & Service,4/30/2014 0:00,,False,A+,100.0,1.0,0.0,False,Micro-small,False,1/22/2022 9:34,Search
1761,704,96544421,Jt Interiors,9397 Tewsbury Gate,,Osseo,MN,55311,USA,7634164489,,https://www.showmelocal.com/profile.aspx?bid=1239500,60470-000,Interior Decorators & Designers,,,False,A+,100.0,,,False,Micro-small,False,7/3/2020 4:12,Search
1762,704,96545147,Capital City Realty Group,844 Grand Ave Ste 3,,Saint Paul,MN,55105,USA,6128217526,,https://www.dnb.com/business-directory/company-profiles.capital_city_realty_group.cf64bbbcb98466c96b1dfe519986a02b.html,60729-102,Real Estate Agents,6/20/2007 0:00,,False,NR,0.0,1.0,0.0,False,Micro-small,False,8/15/2022 8:04,Search
1763,704,96544043,David George Laughton,620 Natures Way,,Saint Cloud,MN,56304,USA,3202406573,,https://www.hometownsource.com/morrison_county_record/news/publicsafety/st-cloud-man-sentenced-for-possession-of-meth/article_cb93ff04-95f0-11ec-a76c-8f58c1a2f1f0.html,60172-100,Coaching - Business,4/30/2014 0:00,9/8/2021 0:00,False,NR,0.0,1.0,0.0,False,Micro-small,False,9/9/2021 4:03,Search
1764,704,96544683,S Washington County Bulletin,7584 80th St S Ste 2,,Cottage Grove,MN,55016,USA,6514599491,,https://www.republicaneagle.com/news/about-the-south-washington-county-bulletin/article_c9f455fe-6519-5842-b3bb-61934df310af.html,30418-000,Newspapers,4/30/2014 0:00,,False,NR,0.0,1.0,0.0,False,Micro-small,False,3/24/2022 8:31,Search
1765,704,96544598,Vinewood Art Services,5534 Vinewood Ln N,,Minneapolis,MN,55442,USA,7635500505,,https://www.allbiz.com/business/vinewood-art-services-763-550-0505,60371-000,Fix-It Shops,,,False,A+,100.0,,,False,Micro-small,False,7/2/2020 4:06,Search
1766,704,96544508,Sg Cleaning Inc,1520 W 61st St,,Minneapolis,MN,55419,USA,6128617171,,https://www.buzzfile.com/business/Sg-Cleaning-Inc-612-861-7171,60478-000,Janitor Service,4/30/2014 0:00,1/1/2019 0:00,False,NR,0.0,1.0,0.0,False,Micro-small,False,1/7/2022 14:13,Search
1767,704,96544538,Tci Financial,158 W Beaton Dr,,West Fargo,ND,58078,USA,7012778105,,https://www.tciteam.com/,20045-000,Investment Advisory Service,4/30/2014 0:00,,False,A+,100.0,1.0,0.0,False,Micro-small,False,2/25/2022 9:44,Search
1768,704,96545168,Apple Ridge Orchard,2155 Ridge Ave,,Watertown,MN,55388,USA,9529552520,,https://m.facebook.com/profile.php?id=516313395217533,60658-000,Photographers - Portrait,4/30/2014 0:00,,False,NR,0.0,1.0,0.0,False,Micro-small,False,9/27/2022 8:59,Search
1769,704,96544976,Ariba Inc,,,,,,,,,https://www.sap.com/products/spend-management.html,60236-000,Computer Software Publishers & Developers,4/30/2014 0:00,9/6/2022 0:00,False,NR,0.0,1.0,0.0,False,Micro-small,False,9/10/2022 8:39,Search
1770,704,96543888,Elana Centor & CO Inc,5020 Aldrich Ave S,,Minneapolis,MN,55419,USA,6128235883,,https://www.linkedin.com/in/elanacentor,10148-100,Retail Stores,4/30/2014 0:00,,False,A+,100.0,1.0,0.0,False,Micro-small,False,9/22/2021 4:11,Search
1771,704,96545116,"Clysdale, Mike",6237 Lyndale Ave S,,Richfield,MN,55423,USA,6124244446,,https://www.clydesusa.com/wp-content/uploads/2014/01/2017_-Web-Breeders-Listing_.pdf,20080-000,Insurance Services,,,False,A+,100.0,,,False,Micro-small,False,6/26/2020 4:02,Search
1772,704,96544504,St Joseph's Window Cleaning,1195 Burns Ave,,Saint Paul,MN,55106,USA,6512307397,,https://lumber-stores.cmac.ws/st-josephs-window-cleaning/19438/,80450-000,Lumber - Wholesale,4/30/2014 0:00,,False,A+,100.0,1.0,0.0,False,Micro-small,False,2/4/2022 9:35,Search
1773,704,96543890,"Elker, Royce",PO Box 4249,,Mankato,MN,56002,USA,5073864634,,https://www.linkedin.com/in/royce-elker-8b2b4515b,60729-102,Real Estate Agents,,,False,A+,100.0,,,False,Micro-small,False,7/9/2020 4:10,Search
1774,704,96545157,Addy's Room Llc,6646 Kara Dr,,Eden Prairie,MN,55346,USA,6128013436,,https://www.allbiz.com/business/addys-room-llc,10076-000,Heating Contractors,3/28/2006 0:00,8/29/2019 0:00,False,NR,0.0,,0.0,False,Micro-small,False,8/30/2019 4:29,Search
1775,704,96544651,Farmer Plant Food & Assoc,4840 39th Ave S,,Minneapolis,MN,55417,USA,6127296560,,https://lawn-care-supply-dealers.cmac.ws/farmer-plant-food-associates/2573/,50298-000,Lawn & Garden Equipment & Supplies,4/30/2014 0:00,,False,NR,0.0,,0.0,False,Micro-small,False,3/8/2021 3:51,Search
1776,704,96545005,Ameripride Linen & Apparel Service,700 Industrial Blvd NE,,Minneapolis,MN,55413,USA,6123311600,,https://www.ameripride.com/,60747-000,Rental Service Stores & Yards,8/6/1999 0:00,,False,NR,0.0,1.0,0.0,False,Micro-small,False,10/10/2022 7:59,Search
1777,704,96544696,Healthenutrifit Llc,2282 Field Stone Dr,,Saint Paul,MN,55120,USA,6515927830,,http://healthenutrifit.com/,60300-000,Dietitians,,,False,A+,100.0,1.0,,False,Micro-small,False,11/18/2022 9:13,Search
1778,704,96544870,Loan Analytics,2658 133rd St W,,Rosemount,MN,55068,USA,9523222220,,https://www.loananalytics.com/,20079-000,Credit Services,,,False,NR,0.0,,,False,Micro-small,False,4/20/2021 4:01,Search
1779,704,96545196,Bark of the Town Dog Grooming,1404 Cloquet Ave,,Cloquet,MN,55720,USA,2188791483,,https://www.facebook.com/Barkofthetown1404/,00153-000,Pet Boarding & Kennels,4/4/2012 0:00,2/9/2021 0:00,False,NR,0.0,1.0,0.0,False,Micro-small,False,2/16/2022 10:06,Search
1780,704,96544207,"Just, Dennis C",484 Marvin Blvd,,North Mankato,MN,56003,USA,5076253659,,https://www.woodlandhillsfh.com/obituary/Dennis-Just,20080-000,Insurance Services,,,False,A+,100.0,,,False,Micro-small,False,7/7/2020 4:07,Search
1781,704,96544910,Michael Stament,8672 190th Ave NW,,Anoka,MN,55303,USA,7634415952,,https://www.yellowpages.com/anoka-mn/mip/michael-stament-25789819,85260-000,Coaching - Life,4/30/2014 0:00,,False,A+,100.0,1.0,0.0,False,Micro-small,False,9/24/2021 3:48,Search
1782,704,96544983,Anita Jader Photography,2720 MapleWood Dr,,Saint Paul,MN,55109,USA,6514829617,,https://www.anitajader.com/,60658-000,Photographers - Portrait,,,False,NR,0.0,,,False,Micro-small,False,6/27/2020 3:57,Search
1783,704,96544751,INCREDIBLE NUTRITION 4 U LLC,125 Little Canada Rd W,,Saint Paul,MN,55117,USA,6517973052,,http://slimu4ever.com/,60441-000,Home Health Services,,,False,A+,100.0,1.0,,False,Micro-small,False,12/17/2021 4:16,Search
1784,704,96544857,Lanc's,182 Ryan Ln,,Little Canada,MN,55117,USA,6517557102,,https://www.yellowpages.com/little-canada-mn/used-auto-sales,50039-000,Auto Dealers - New Cars,4/30/2014 0:00,,False,A+,100.0,1.0,0.0,False,Micro-small,False,11/16/2021 3:59,Search
1785,704,96544317,Goodlife Home Care Llc,7206 Yuma Ln N,,Maple Grove,MN,55311,USA,7634206280,,https://www.b2byellowpages.com/company-information/097587050-goodlife-home-care-llc.html,60617-000,Nursing Homes,7/6/2011 0:00,,False,NR,0.0,1.0,0.0,False,Micro-small,False,3/5/2022 9:33,Search
1786,704,96544606,Vision Ics Inc,793 Winterberry Draw,,Saint Paul,MN,55125,USA,6515030496,,http://vision-ics.com/,85500-000,Visual Impairment Products & Services,4/30/2014 0:00,,False,A+,100.0,1.0,0.0,False,Micro-small,False,1/26/2022 10:08,Search
1787,704,96544968,Andrews Construction & Remodeling Inc,3551 Spain Pl,,Minneapolis,MN,55418,USA,6127893700,,https://www.manta.com/c/mmswysc/andrews-construction-rmdlng,10035-000,Contractors - General,4/30/2014 0:00,1/3/2017 0:00,False,NR,0.0,,0.0,False,Micro-small,False,1/6/2020 4:08,Search
1788,704,96544594,Urban Associates,3601 Minnesota Dr Ste 835,,Edina,MN,55435,USA,9529215822,,https://www.allbiz.com/business/urban-associates-inc_2o-952-921-5822,20061-000,Real Estate Developers,4/30/2014 0:00,,False,NR,0.0,1.0,0.0,False,Micro-small,False,6/18/2022 8:22,Search
1789,704,96543939,Locksmith Guys,5821 Cahill Ave,,Inver Grove,MN,55076,USA,6514001610,,https://www.247locksmiths.io/local/locksmith-guys-5821-cahill-ave-19545.html,60522-000,Locks & Locksmiths,,4/19/2017 0:00,False,NR,0.0,1.0,,False,Micro-small,False,11/5/2021 4:03,Search
1790,704,96544507,Sewer Dawgs Plumbing & Drain,1332 Zachary St S,,Cambridge,MN,55008,USA,7636918004,,https://www.yellowpages.com/cambridge-mn/mip/sewer-dawgs-plumbing-drain-465823552,10114-000,Plumbing Drains & Sewer Cleaning,,10/23/2018 0:00,False,NR,0.0,,,False,Micro-small,False,10/24/2018 5:07,Search
1791,704,96545238,Brt Photography,324 16th Ave SW,,Saint Paul,MN,55112,USA,6519830839,,https://www.showmelocal.com/34098491-brt-photography-saint-paul,60658-000,Photographers - Portrait,4/30/2014 0:00,,False,A+,100.0,1.0,0.0,False,Micro-small,False,2/11/2022 9:24,Search
1792,704,96544320,Tlj Sales Inc,15098 23rd Ave N,,Minneapolis,MN,55447,USA,7637463630,,https://www.dnb.com/business-directory/company-profiles.tlj_sales_inc.e7c76c94bd625de8c0c926d080b75712.html,10148-100,Retail Stores,,,False,A+,100.0,,,False,Micro-small,False,7/3/2020 4:12,Search
1793,704,96544244,Js Broken Aero,800 Airport Rd,,Princeton,MN,55371,USA,7633890124,,https://www.j-ba.com/,65114-000,Aviation Services,4/16/2003 0:00,,False,A+,100.0,1.0,0.0,False,Micro-small,False,3/16/2022 8:53,Search
1794,704,96544814,Milbrand & Milbrand,7617 County Road 2,,Glencoe,MN,55336,USA,3208644200,,https://www.dnb.com/business-directory/company-profiles.milbrand_farm.bdb7844e1dc05f21cad72b6a1358eecd.html,00153-000,Pet Boarding & Kennels,4/30/2014 0:00,,False,NR,0.0,,0.0,False,Micro-small,False,3/27/2021 4:08,Search
1795,704,96544287,Thomas Walt & Assoc,180 S St E,,Saint Paul,MN,55101,USA,6518553576,,https://www.vetscher-cpas.com/,20045-000,Investment Advisory Service,4/30/2014 0:00,,False,NR,0.0,,0.0,False,Micro-small,False,8/16/2021 4:06,Search
1796,704,96544822,Journey Mental Health Service,1110 Greeley Ave N,,Glencoe,MN,55336,USA,3208644109,,https://www.crowrivermedia.com/marketplace/health_medical/information_services/miscellaneous_information_services/journey-mental-health-services/business_fdb619ca-3515-5b03-ab5f-1cfe66777017.html,61006-000,Psychiatrists & Psychiatric Services,,,False,A+,100.0,,,False,Micro-small,False,12/6/2020 3:57,Search
1797,704,96544890,Jdc Development,5012 53rd St S Ste H,,Fargo,ND,58104,USA,7013565655,,https://opencorporates.com/companies/us_nd/0000079569,20061-000,Real Estate Developers,,,False,A+,100.0,1.0,,False,Micro-small,False,5/11/2022 8:37,Search
1798,704,96544383,Jim Boyce Inc,225 1st St SE,,Rothsay,MN,56579,USA,2188672155,,https://www.loc8nearme.com/minnesota/rothsay/jim-boyce-inc/3317883/,50173-000,Computers - Dealers,4/30/2014 0:00,,False,NR,0.0,1.0,0.0,False,Micro-small,False,10/21/2022 8:07,Search
1799,704,96544401,Hot Feet Corp,1847 Eustis St,,Saint Paul,MN,55113,USA,6512086596,,https://www.buzzfile.com/business/Hot-Feet-Corporation-651-208-6596,30502-000,Plastics - Products - Finished Wholesale & Manufacturers,,,False,A+,100.0,,,False,Micro-small,False,5/1/2021 4:13,Search
1800,704,96544214,Kitting Solutions,1361 Park Rd,,Chanhassen,MN,55317,USA,9523008896,,https://www.veteranownedbusiness.com/business/11676/kitting-solutions-plus-llc,60904-001,Logistics,4/30/2014 0:00,,False,A+,100.0,1.0,0.0,False,Micro-small,False,10/11/2021 3:53,Search
1801,704,96545023,Aspire Interior Design,6400 Pleasant Park Dr,,Chanhassen,MN,55317,USA,9524745800,,https://www.checkbook.org/mn/chanhassen/interior-designers/aspire-interior-design/nts3u,60470-000,Interior Decorators & Designers,2/3/2011 0:00,,False,NR,0.0,1.0,0.0,False,Micro-small,False,8/15/2022 8:04,Search
1802,704,96544904,Julia's Legacy Inc,3191 Afton Ave NE,,Buffalo,MN,55313,USA,7636823994,,https://www.yellowpages.com/buffalo-mn/mip/julias-legacy-inc-25758785,60172-100,Coaching - Business,,,False,A+,100.0,1.0,,False,Micro-small,False,9/24/2021 3:48,Search
1803,704,96544883,Markin Consulting,12072 87th Pl N,,Maple Grove,MN,55369,USA,7634933568,,https://www.linkedin.com/company/markin-consulting,60533-000,Management Consultants,4/30/2014 0:00,,False,NR,0.0,1.0,0.0,False,Micro-small,False,3/16/2022 8:53,Search
1804,704,96544949,Madetzke Services Inc,12009 Oak Park Blvd NE,,Minneapolis,MN,55434,USA,7632340161,,https://www.yellowpages.com/minneapolis-mn/mip/madetzke-services-inc-25727684,10113-000,Plumbers,4/30/2014 0:00,,False,NR,0.0,,0.0,False,Micro-small,False,3/23/2021 4:00,Search
1805,704,96544885,J & S Rentals,7650 Highview Rd,,Cannon Falls,MN,55009,USA,5072633741,,http://www.grothhardware.com/?utm_source=google&utm_medium=local&utm_campaign=localmaps&utm_content=14225,60729-102,Real Estate Agents,4/30/2014 0:00,,False,A+,100.0,1.0,0.0,False,Micro-small,False,1/26/2022 10:07,Search
1806,704,96545283,"Boerjan, Denis DC",1724 37th St NW,,Rochester,MN,55901,USA,5072164853,,https://www.sharecare.com/doctor/denis-boerjan-2v3l2,60205-000,Chiropractors D.C.,4/30/2014 0:00,3/6/2017 0:00,False,NR,0.0,,0.0,False,Micro-small,False,3/9/2020 4:24,Search
1807,704,96544010,Nightingale Staff Home Care,10164 Waterfront Dr,,Saint Paul,MN,55129,USA,6515787851,,https://www.aplaceformom.com/community/nightingale-staff-home-care-127156,60441-000,Home Health Services,,,False,A+,100.0,,,False,Micro-small,False,4/8/2021 4:07,Search
1808,704,96543973,Ma & Paws Pet Grooming Salon,955 W Broadway Ave,,Forest Lake,MN,55025,USA,6514649878,,https://4animalsnearme.com/pet/ma-and-paws-pet-grooming-forest-lake-/,00153-000,Pet Boarding & Kennels,4/30/2014 0:00,,False,A+,100.0,1.0,0.0,False,Micro-small,False,9/2/2022 8:26,Search
1809,704,96545000,Aphrodisio Recordings Inc,315 W River Pkwy Apt 106,,Minneapolis,MN,55401,USA,6123251966,,https://rateyourmusic.com/label/aphrodisio/,80597-000,Recording Studio Equipment,4/30/2014 0:00,9/3/2019 0:00,False,NR,0.0,,0.0,False,Micro-small,False,9/4/2019 8:20,Search
1810,704,96545255,Carmichael Concepts,708 1st St N,,New Ulm,MN,56073,USA,5073594107,,https://www.linkedin.com/in/christinecarmichaelconcepts,60470-000,Interior Decorators & Designers,4/30/2014 0:00,8/23/2019 0:00,False,NR,0.0,,0.0,False,Micro-small,False,8/24/2019 4:22,Search
1811,704,96544277,Samavee,1618 White Bear Ave N,,Saint Paul,MN,55106,USA,6514936942,,https://www.yellowpages.com/saint-paul-mn/mip/samavee-481218035,60134-000,Beauty Salons,4/30/2014 0:00,1/1/2019 0:00,False,NR,0.0,1.0,0.0,False,Micro-small,False,1/7/2022 14:14,Search
1812,704,96544030,Promidian Trading Company,505 Highway 169 N Ste 185,,Minneapolis,MN,55441,USA,7635444000,,https://www.finduslocal.com/nondurable-goods-nec-nsk/minnesota/minneapolis/promidian-trading-co_505-highway-169-n/,50699-000,Variety Stores,4/30/2014 0:00,3/27/2018 0:00,False,NR,0.0,,0.0,False,Micro-small,False,3/30/2021 3:56,Search
1813,704,96544881,Marge's Workshop,1834 17th St S,,Fargo,ND,58103,USA,7012350074,,https://www.yellowpages.com/fargo-nd/mip/marges-workshop-464103420,30198-000,Embroidery,,,False,A+,100.0,1.0,,False,Micro-small,False,8/18/2021 5:26,Search
1814,704,96543977,Majestic Events,6751 Ranier Ln N,,Osseo,MN,55311,USA,7634257242,,http://www.manta.com/c/mmg7yc9/majestic-events-inc,60873-000,Tents - Rental,4/30/2014 0:00,,False,A+,100.0,1.0,0.0,False,Micro-small,False,2/4/2022 9:35,Search
1815,704,96544519,S Conner Refund Processing,7511 Greenfield Ave,,Saint Paul,MN,55112,USA,7634522300,,https://www.loc8nearme.com/minnesota/saint-paul/s-conner-refund-processing/4795042/,60857-000,Tax Return Preparation,4/30/2014 0:00,4/27/2021 0:00,False,NR,0.0,,0.0,False,Micro-small,False,4/29/2021 4:07,Search
1816,704,96543880,Kirk House Publishers Inc,7322 Ohms Ln,,Edina,MN,55439,USA,9528351828,,https://www.kirkhousepublishers.com/,30543-000,Publishers - Book,,,False,A+,100.0,1.0,,False,Micro-small,False,1/11/2022 9:33,Search
1817,704,96544617,Steven Wirz Construction Llc,22420 Marble St NW,,Elk River,MN,55330,USA,7637533511,,https://www.manta.com/c/mm5nx1c/steven-wirz-construction-llc,85310-000,Contractor - Commercial,4/30/2014 0:00,,False,A+,100.0,1.0,0.0,False,Micro-small,False,2/20/2022 9:00,Search
1818,704,96544027,Portraits in Porcelain,6730 Golden Ct,,Chanhassen,MN,55317,USA,9524741103,,https://www.dnb.com/business-directory/company-profiles.portraits_in_porcelain.b00025016ad1e3f4fa2a2856f5dc406f.html,60658-000,Photographers - Portrait,,,False,A+,100.0,,,False,Micro-small,False,7/9/2020 4:10,Search
1819,704,96545185,Barsness Ins,1200 13th St N,,Minneapolis,MN,55408,USA,6122516136,,https://www.yellowpages.com/minneapolis-mn/mip/barsness-ins-481735535,20080-000,Insurance Services,4/11/1989 0:00,,False,NR,0.0,1.0,0.0,False,Micro-small,False,6/22/2022 11:34,Search
1820,704,96545085,Brill Properties Llc,11700 Vista Dr,,Hopkins,MN,55343,USA,6128896959,,https://www.wikiocity.com/Minnesota/Hopkins/Brill_Properties_LLC/9928914,60729-102,Real Estate Agents,8/8/2007 0:00,,False,A+,100.0,1.0,0.0,False,Micro-small,False,3/25/2022 8:41,Search
1821,704,96544762,I T C Service Inc,4350 Colfax Ave S,,Minneapolis,MN,55409,USA,6128241242,,http://www.callitc.com/,60326-100,Staffing - Technical,4/30/2014 0:00,,False,A+,100.0,1.0,0.0,False,Micro-small,False,3/27/2022 8:19,Search
1822,704,96544511,Stan Kegel,14053 Pennock Ave,,Saint Paul,MN,55124,USA,9524313161,,https://www.linkedin.com/in/stan-kegel-b0774b1,60860-000,Teachers Agencies,4/30/2014 0:00,,False,A+,100.0,1.0,0.0,False,Micro-small,False,2/27/2022 9:14,Search
1823,704,96543992,Ncc Media,900 2nd Ave S Ste 420,,Minneapolis,MN,55402,USA,6123343310,,https://foursquare.com/v/ncc-media/51126815e4b0eb35a1021447,60019-000,Advertising - Radio,,,False,A+,100.0,1.0,,False,Micro-small,False,3/19/2022 8:30,Search
1824,704,96544123,Innovated Properties,4445 E Lake St,,Minneapolis,MN,55406,USA,6127218730,,https://mnrenter.com/,60729-102,Real Estate Agents,4/30/2014 0:00,,False,NR,0.0,1.0,0.0,False,Micro-small,False,12/2/2022 9:28,Search
1825,704,96544355,Transitions Medical,9204 170th St,,Glencoe,MN,55336,USA,3203272975,,https://www.manta.com/c/mttm1hr/transitions-medical,60971-000,Health & Medical - General,4/30/2014 0:00,,False,NR,0.0,1.0,0.0,False,Micro-small,False,3/16/2022 8:52,Search
1826,704,96545284,Custom Cut & Color Family Sln,921 Central Ave E Ste 300,,Saint Michael,MN,55376,USA,7634975003,,http://customcutandcolor.com/,60134-000,Beauty Salons,4/30/2014 0:00,,False,A+,100.0,1.0,0.0,False,Micro-small,False,8/18/2022 8:20,Search
1827,704,96545262,Build Pro Construction,12220 Xylite St NE,,Minneapolis,MN,55449,USA,6124834444,,https://www.dnb.com/business-directory/company-profiles.build_pro_construction_inc.e46e3375d6a0fc886b6758b4f16db1d7.html,10035-000,Contractors - General,1/20/2011 0:00,9/10/2019 0:00,False,NR,0.0,,0.0,False,Micro-small,False,9/11/2019 5:49,Search
1828,704,96544228,Intermec Technologies Corp,1345 Corporate Center Curv Ste 100,,Saint Paul,MN,55121,USA,6129268852,,https://www.superpages.com/saint-paul-mn/bpp/amp/intermec-technologies-corp-471871085,60280-000,Data Processing Service,4/30/2014 0:00,,False,A+,100.0,1.0,0.0,False,Micro-small,False,2/27/2022 9:14,Search
1829,704,96543956,N Fluegge Inc,13610 Georgia Dr,,Saint Paul,MN,55124,USA,9529972163,,https://www.linkedin.com/in/scott-fluegge,60172-100,Coaching - Business,,10/16/2019 0:00,False,NR,0.0,1.0,,False,Micro-small,False,10/17/2022 7:54,Search
1830,704,96543912,Mac Resources,2650 S Broadway Ste 300,,Rochester,MN,55904,USA,5072066844,,https://www.crcrochester.com/,60246-000,Computers - Sys Designers & Consult,4/30/2014 0:00,,False,NR,0.0,,0.0,False,Micro-small,False,3/23/2021 4:01,Search
1831,704,96545236,Bon News,438 Main St,,Saint Paul,MN,55102,USA,6512220060,,https://www.fox9.com/news,30418-000,Newspapers,4/30/2014 0:00,,False,NR,0.0,,0.0,False,Micro-small,False,2/23/2021 4:07,Search
1832,704,96544200,Le Petite Salon,4005 5th St NE,,Minneapolis,MN,55421,USA,7637894041,,http://petitesalon.com/,60134-000,Beauty Salons,4/30/2014 0:00,,False,NR,0.0,,0.0,False,Micro-small,False,3/22/2021 4:01,Search
1833,704,96544490,Koob Moo Funeral Chapel,1235 Arcade St,,Saint Paul,MN,55106,USA,6517934400,,https://m.facebook.com/profile.php?id=105175292882617,61013-000,Funeral Related Services,,,False,A+,100.0,1.0,,False,Micro-small,False,12/27/2022 8:49,Search
1834,704,96544346,Styles Unlimtited,510 25th Ave N,,Saint Cloud,MN,56303,USA,3202274048,,https://m.facebook.com/Styles-Unlimited-850435258389158/,60134-000,Beauty Salons,4/30/2014 0:00,,False,NR,0.0,,0.0,False,Micro-small,False,8/9/2021 4:04,Search
1835,704,96544035,Prairiewood Wealth Mgmt,5012 53rd St S Ste D3,,Fargo,ND,58104,USA,7012340521,,https://pw-wm.com/,20045-000,Investment Advisory Service,,,False,A+,100.0,1.0,,False,Micro-small,False,12/15/2022 9:21,Search
1836,704,96543915,Mainella Properties Llc,116 Glendale Rd,,Esko,MN,55733,USA,2188791810,,https://www.dnb.com/business-directory/company-profiles.mainella_properties_llc.26b2b2bc74946845b5b9bde0f297c737.html,85310-000,Contractor - Commercial,4/30/2014 0:00,,False,NR,0.0,,0.0,False,Micro-small,False,3/23/2021 4:01,Search
1837,704,96544547,Team Creative,9101 Nantwick Rdg,,Minneapolis,MN,55443,USA,7634257007,,https://www.teamcreativeonline.com/,60280-000,Data Processing Service,,,False,NR,0.0,,,False,Micro-small,False,7/14/2021 4:27,Search
1838,704,96544174,"Koepplin, Tj A",1402 25th St S Ste B,,Fargo,ND,58103,USA,7012358429,,https://agents.countryfinancial.com/usa/nd/fargo/tj-koepplin,20080-000,Insurance Services,,,False,A+,100.0,1.0,,False,Micro-small,False,11/24/2021 4:23,Search
1839,704,96544945,Maryah&#39;s Relaxation Destination,2621 14th St S,,Fargo,ND,58103,USA,2182801662,,https://www.yellowpages.com/fargo-nd/mip/maryahs-relaxation-destination-475732189,60543-000,Massage Therapists,4/30/2014 0:00,,False,A+,100.0,1.0,0.0,False,Micro-small,False,1/10/2023 8:49,Search
1840,704,96543967,Lake Winds Tradewinds Llc,15831 Cicerone Path,,Rosemount,MN,55068,USA,6513448774,,https://www.dandb.com/businessdirectory/lakewindstradewindsllcfax-rosemount-mn-26696258.html,80362-000,Grocers - Wholesale,4/30/2014 0:00,,False,A+,100.0,1.0,0.0,False,Micro-small,False,3/4/2022 9:47,Search
1841,704,96544012,North Country Instltn & Service,4725 Douglas Dr N,,Minneapolis,MN,55429,USA,7635336665,,https://www.northcountryinstallers.com/,80450-000,Lumber - Wholesale,4/30/2014 0:00,,False,NR,0.0,,0.0,False,Micro-small,False,3/28/2021 3:53,Search
1842,704,96544245,K Design Group Inc,8510 W 29th St,,Minneapolis,MN,55426,USA,9529339743,,https://www.manta.com/c/mmnb2yf/k-design-group-inc,60470-000,Interior Decorators & Designers,4/30/2014 0:00,,False,NR,0.0,,0.0,False,Micro-small,False,3/21/2021 3:53,Search
1843,704,96544263,K D Wood & Assoc,16215 49th Pl N,,Plymouth,MN,55446,USA,6128670110,,https://www.realtor.com/realestateagency/594abe37a5d1b400129e3f37,60729-102,Real Estate Agents,4/30/2014 0:00,,False,NR,0.0,,0.0,False,Micro-small,False,3/21/2021 3:53,Search
1844,704,96544584,Whole Self Studio Llc,3020 W 43rd St,,Minneapolis,MN,55410,USA,6129278773,,http://www.wholeselfstudios.com/,60429-200,Health & Wellness,,,False,A+,100.0,1.0,,False,Micro-small,False,11/18/2021 4:09,Search
1845,704,96544655,Richard Ryan,2917 Mead Ct,,Burnsville,MN,55337,USA,9528905956,,https://www.yellowbook.com/people/richard-ryan/minnesota/,60971-000,Health & Medical - General,4/30/2014 0:00,,False,NR,0.0,1.0,0.0,False,Micro-small,False,8/20/2022 8:41,Search
1846,704,96544298,"Johnson, Dale",480 W 78th St Ste 102,,Chanhassen,MN,55317,USA,9529348548,,https://www.dnb.com/business-directory/company-profiles.dale_johnson_agency.68cb884c636aeff832aaf86ad7d29f45.html,20080-000,Insurance Services,,,False,A+,100.0,,,False,Micro-small,False,7/3/2020 4:12,Search
1847,704,96544448,Intelenet America LLC,2101 11th St S,,Fargo,ND,58103,USA,7012352748,,https://www.dnb.com/business-directory/company-profiles.intelenet_america_llc.3959a1f0c78396b3b8b8ca66fe841b86.html,60280-000,Data Processing Service,4/30/2014 0:00,,False,A+,100.0,1.0,0.0,False,Micro-small,False,2/9/2022 9:41,Search
1848,704,96544844,"Muniz, Molly E DC",1730 Plymouth Rd Ste 1,,Minnetonka,MN,55305,USA,9524121549,,https://www.zocdoc.com/doctor/molly-muniz-dc,60205-000,Chiropractors D.C.,4/30/2014 0:00,9/10/2019 0:00,False,NR,0.0,,0.0,False,Micro-small,False,9/11/2019 5:49,Search
1849,704,96544818,Jeh Ventures,3530 Knox Ave N,,Minneapolis,MN,55412,USA,6123674998,,https://www.dandb.com/businessdirectory/jehventuresinc-minneapolis-mn-32644098.html,60280-000,Data Processing Service,4/30/2014 0:00,,False,NR,0.0,,0.0,False,Micro-small,False,3/17/2021 4:44,Search
1850,704,96545065,"Champion Coatings, Inc.",8790 207th St W Ste 207,,Lakeville,MN,55044,USA,9527079000,,https://www.championcoatings.net/,80536-000,Paint - Wholesale & Manufacturers,,,False,A+,100.0,1.0,,False,Micro-small,False,1/18/2023 9:32,Search
1851,704,96544446,Jerry Groebner,513 Main St,,Madison Lake,MN,56063,USA,5072433031,,https://www.linkedin.com/in/jerry-groebner-5a199278,30418-000,Newspapers,,,False,A+,100.0,,,False,Micro-small,False,7/2/2020 4:06,Search
1852,704,96543905,"Mangala, Pai",3600 Minnesota Dr Ste 100,,Minneapolis,MN,55435,USA,9528975042,,https://www.mangalapai.com/,20080-000,Insurance Services,4/30/2014 0:00,,False,NR,0.0,1.0,0.0,False,Micro-small,False,7/8/2022 12:26,Search
1853,704,96545169,J. Warne Visuals,3954 Sheridan Ave N,,Minneapolis,MN,55412,USA,7634796966,,https://contactout.com/Joel-Warne-70818189,60578-000,Motion Picture Film Editing,,,False,A+,100.0,,,False,Micro-small,False,6/26/2020 4:02,Search
1854,704,96545098,Central Garage,21119 Cedar Dr NW,,Cedar,MN,55011,USA,7637532101,,https://archello.com/project/cedar-grove-parking-garage,60103-000,Auto Repair & Service,4/30/2014 0:00,,False,NR,0.0,1.0,0.0,False,Micro-small,False,3/2/2022 10:32,Search
1855,704,96545291,Blondie's Hair Salon,311 S 4th St Ste 104,,Grand Forks,ND,58201,USA,7017722728,,https://www.merchantcircle.com/blondies-10201-grand-forks-nd,60134-000,Beauty Salons,5/27/2014 0:00,,False,NR,0.0,,0.0,False,Micro-small,False,12/14/2020 4:05,Search
1856,704,96544691,The Shoe Inn,137 Main St S,,Hutchinson,MN,55350,USA,3202343538,,https://www.crowrivermedia.com/hutchinsonleader/news/local/after-56-years-george-moehring-is-done-saving-soles-in-hutchinson/article_4c40ab89-83ee-5fa4-8339-c802fa59231a.html,60798-000,Shoe Repair,,,False,A+,100.0,,0.0,False,Small,False,8/13/2020 4:07,Search
1857,704,96545004,Allstars Truck & Auto Service,55 1st St SW,,Elgin,MN,55932,USA,5078762020,,https://www.yellowpages.com/elgin-mn/mip/allstars-truck-auto-service-475731907,60103-000,Auto Repair & Service,4/30/2014 0:00,2/26/2013 0:00,False,NR,0.0,,0.0,False,Micro-small,False,3/23/2021 4:01,Search
1858,704,96544702,Gibson's Etc Inc,11973 Orchid St NW,,Minneapolis,MN,55433,USA,7632080389,,https://www.yellowpages.com/minneapolis-mn/mip/gibsons-etc-inc-458241312?lid=458241312,60533-000,Management Consultants,,,False,A+,100.0,,,False,Micro-small,False,7/2/2020 4:06,Search
1859,704,96545126,Chicago Place,9836 Chicago Ave S,,Minneapolis,MN,55420,USA,9528842693,,https://www.apartments.com/chicago-place-minneapolis-mn/e7fq2dn/,20038-000,Insurance - Property,4/30/2014 0:00,,False,NR,0.0,1.0,0.0,False,Micro-small,False,9/10/2022 8:39,Search
1860,704,96544486,Kletsch Photography,1719 9th Ave SE,,Barnesville,MN,56514,USA,2183547510,,https://www.manta.com/c/mm4drlr/kletsch-photography,60658-000,Photographers - Portrait,,,False,A+,100.0,1.0,,False,Micro-small,False,11/23/2021 6:33,Search
1861,704,96544239,Goodness & Mercy Health Services Inc,3200 63rd Ave N,,Brooklyn Center,MN,55429,USA,6516312535,,https://www.minnesotahelp.info/Providers/Goodness_And_Mercy_Health_Services_Inc/Customized_Living_Services/4?returnUrl=%2FSpecialTopics%2FMedicaidWaiverPrograms%2F24679%3F%253fstart%3D71%26start%3D421&pos=422,65135-000,Adult Foster Care,7/14/2004 0:00,,False,A+,100.0,,0.0,False,Micro-small,False,11/13/2018 4:10,Search
1862,704,96544068,Pure Sound Digital Audio,4356 Halifax Ave N,,Minneapolis,MN,55422,USA,6128400631,,https://www.manta.com/c/mtmwfhn/pure-sound-digital-audio-d,50651-000,Television & Radio - Dealers,,,False,A+,100.0,,,False,Micro-small,False,7/8/2020 4:45,Search
1863,704,96545286,D-N-R Printing,212 5th St NE,,Mayer,MN,55360,USA,9526572156,,https://www.yellowpages.com/mayer-mn/mip/d-n-r-printing-15920613,30502-000,Plastics - Products - Finished Wholesale & Manufacturers,9/18/1990 0:00,,False,NR,0.0,,0.0,False,Micro-small,False,3/3/2021 4:44,Search
1864,704,96544698,"Harbinson, Thomas",7230 Emerson Ave N,,Minneapolis,MN,55430,USA,7635617286,,https://www.linkedin.com/in/tom-harbinson-867180a5,60733-000,Real Estate Rental Service,,,False,A+,100.0,,,False,Micro-small,False,7/2/2020 4:06,Search
1865,704,96543999,Rowe Management Service,PO Box 270098,,Saint Paul,MN,55127,USA,6516538353,,https://www.visualvisitor.com/companies/4330679/rowe_management_services_company,60729-102,Real Estate Agents,4/30/2014 0:00,,False,NR,0.0,1.0,0.0,False,Micro-small,False,2/23/2022 10:22,Search
1866,704,96545182,Avatar Ventures LLC,10 8th St N,,Fargo,ND,58102,USA,7014789952,,https://www.manta.com/c/mtc74cc/avatar-ventures-llc,68000-000,Computer Assisted Design Services,,10/14/2015 0:00,False,NR,0.0,,,False,Micro-small,False,10/23/2018 4:08,Search
1867,704,96544230,Ird Glass,810 E Saint Paul St,,Litchfield,MN,55355,USA,3206937217,,https://irdglass.com/,80536-000,Paint - Wholesale & Manufacturers,,,False,A+,100.0,1.0,,False,Micro-small,False,3/18/2022 8:14,Search
1868,704,96544597,Vincent Salon,1654 Diffley Rd,,Saint Paul,MN,55122,USA,6514933873,,https://www.vincent-salon.com/,60134-000,Beauty Salons,4/30/2014 0:00,,False,NR,0.0,,0.0,False,Micro-small,False,6/22/2021 4:12,Search
1869,704,96544745,Hornibrook CO Computing,2207 Roosevelt Rd,,Saint Cloud,MN,56301,USA,3202002920,,http://ipgmr.com/hcc/,60245-000,Computers - Service & Repair,4/30/2014 0:00,,False,A+,100.0,1.0,0.0,False,Micro-small,False,11/11/2022 9:29,Search
1870,704,96545172,Arctel Satellite Productions,2006 Highway 61,,Two Harbors,MN,55616,USA,2188342758,,https://satellite-television-services.cmac.ws/arctel-satellite-productions/4387/,50651-000,Television & Radio - Dealers,4/30/2014 0:00,,False,NR,0.0,,0.0,False,Micro-small,False,2/21/2021 3:57,Search
1871,704,96544420,Jonettes Studio,701 N 1st St,,Minneapolis,MN,55401,USA,6123333771,,https://www.yellowpages.com/minneapolis-mn/mip/jonettes-studio-480684372,60172-100,Coaching - Business,4/30/2014 0:00,,False,A+,100.0,1.0,0.0,False,Micro-small,False,2/4/2022 9:35,Search
1872,704,96544436,Ken Heise Remodeling,8901 Morris Rd,,Minneapolis,MN,55437,USA,9528357103,,http://www.customremod.com/,10035-000,Contractors - General,,10/16/2019 0:00,False,NR,0.0,1.0,,False,Micro-small,False,10/17/2022 7:53,Search
1873,704,96544373,Jp Music,2901 Orchard Ave N,,Minneapolis,MN,55422,USA,9522154518,,https://www.linkedin.com/in/john-worre-42a6662a,30546-000,Publishing Consultants,,,False,A+,100.0,,,False,Micro-small,False,7/3/2020 4:12,Search
1874,704,96544864,Moments By Z Photography,5011 2nd St E,,West Fargo,ND,58078,USA,7015408661,,https://www.buzzfile.com/business/Moments-By-Z-Photography-701-540-8661,60657-000,Photographers - Commercial,4/23/2013 0:00,,False,NR,0.0,1.0,0.0,False,Micro-small,False,10/11/2022 8:02,Search
1875,704,96543900,Interactive System Consultant,1112 Hilloway Cir,,Burnsville,MN,55306,USA,9528984734,,https://www.showmelocal.com/profile.aspx?bid=14180961,60235-000,"Computers Hardware, Software & Services",,,False,A+,100.0,,,False,Micro-small,False,7/9/2020 4:10,Search
1876,704,96545174,Artisan Cabinetry,1202 2nd St SE,,Minot,ND,58701,USA,7017202891,,https://m.facebook.com/people/Artisan-Cabinetry-and-Countertops/100069144459905/,50291-000,Furniture - Retail,1/22/2013 0:00,8/15/2017 0:00,False,NR,0.0,,0.0,False,Micro-small,False,8/17/2020 3:50,Search
1877,704,96544473,Lee Chang Agency,1103 Weir Dr Ste 550,,Saint Paul,MN,55125,USA,6517353555,,https://www.yellowpages.com/saint-paul-mn/mip/lee-chang-agency-463953266,20080-000,Insurance Services,,,False,A+,100.0,1.0,,False,Micro-small,False,3/8/2022 9:29,Search
1878,704,96544365,"Tunheim, Ann",1725 Broadway N,,Fargo,ND,58102,USA,7014465450,,https://www.zocdoc.com/doctor/ann-tunheim-mscccslp,60971-000,Health & Medical - General,4/30/2014 0:00,,False,NR,0.0,1.0,0.0,False,Micro-small,False,11/29/2021 3:59,Search
1879,704,96544952,Kv5 Digital Dynasty,4418 Cedar Lake Rd S Apt 8,,Minneapolis,MN,55416,USA,9523770500,,https://www.zoominfo.com/c/kv5-digital-dynasty-llc/1135641914,60280-000,Data Processing Service,4/30/2014 0:00,,False,A+,100.0,1.0,0.0,False,Micro-small,False,3/4/2022 9:47,Search
1880,704,96544354,Tmp Worldwide Advg & Comms Llc,5000 W 94th St,,Minneapolis,MN,55437,USA,9523781650,,https://dc.tmp.com/tmp-office-spotlight-minneapolis,60010-000,Advertising Agencies & Counselors,,,False,A+,100.0,,,False,Micro-small,False,10/23/2020 4:01,Search
1881,704,96545096,Bucklin & Bucklin & Assoc,13881 Edgewood Ave,,Savage,MN,55378,USA,9524409635,,https://www.manta.com/c/mb8xyt8/bucklin-bucklin-associates,50173-000,Computers - Dealers,1/1/2003 0:00,8/26/2016 0:00,False,NR,0.0,,0.0,False,Micro-small,False,9/3/2019 4:20,Search
1882,704,96544152,Harley's Full Landscaping,13362 Lily St NW,,Andover,MN,55304,USA,7632056460,,https://landscape-services.cmac.ws/harleys-full-landscaping/74930/,00155-000,Landscape Contractors,4/30/2014 0:00,,False,A+,100.0,1.0,0.0,False,Micro-small,False,11/10/2021 4:13,Search
1883,704,96544678,Sehej Mind & Body,3580 Kennebec Dr,,Eagan,MN,55122,USA,6512476728,,https://www.groupon.com/biz/eagan-mn/garlough-jenni-sehej-mind-body,60543-000,Massage Therapists,,1/1/2019 0:00,False,NR,0.0,1.0,,False,Micro-small,False,1/7/2022 14:13,Search
1884,704,96544039,Punkin Products LLC,350 Main St N Unit 456,,Stillwater,MN,55082,USA,6514399988,,https://www.youtube.com/watch?v=rGsViHAv63Q,50246-000,Fabric Shops,4/15/2010 0:00,,False,NR,0.0,1.0,0.0,False,Micro-small,False,8/9/2022 8:29,Search
1885,704,96544006,Nettestad Insurance,105 N Broadway,,Pelican Rapids,MN,56572,USA,2188635353,,http://www.nettestadinsurance.com/,20080-000,Insurance Services,,,False,A+,100.0,1.0,,False,Micro-small,False,9/24/2022 9:02,Search
1886,704,96545212,B X Military Clothing Store,362 Missile Ave,,Minot Afb,ND,58705,USA,7017274216,,https://www.shopmyexchange.com/exchange-stores/United%20States/ND/Minot%20AFB/Minot-Main-Exchange-1073821,55093-000,Clothing - Retail,,,False,A+,100.0,,,False,Micro-small,False,6/26/2020 4:02,Search
1887,704,96544447,Jnj Construction CO Inc,15148 75th St NE,,Oak Park,MN,56357,USA,3209687618,,https://www.yellowpages.com/oak-park-mn/mip/jnj-construction-co-inc-25632308,10035-000,Contractors - General,,,False,A+,100.0,,,False,Micro-small,False,8/13/2020 4:07,Search
1888,704,96543902,Vikings Insurance,12116 7th St NE,,Minneapolis,MN,55434,USA,6127218094,,https://www.dnb.com/business-directory/company-profiles.viking_insurance_group_llc.4265cc0ac35e4d94.html,20080-000,Insurance Services,4/30/2014 0:00,,False,A+,100.0,1.0,0.0,False,Micro-small,False,11/23/2021 6:33,Search
1889,704,96544737,Insurance Continuing Educ Sltn,2862 Woodridge Ln,,Stillwater,MN,55082,USA,6514396490,,https://www.slettenortho.com/,20080-000,Insurance Services,4/30/2014 0:00,,False,NR,0.0,,0.0,False,Micro-small,False,3/16/2021 4:00,Search
1890,704,96545160,Alonso Industries,8894 Knollwood Dr,,Eden Prairie,MN,55347,USA,9529309876,,https://www.manta.com/c/mttw8wt/alonso-industries,80812-000,Industrial Manufacturers,4/30/2014 0:00,,False,A+,100.0,1.0,0.0,False,Micro-small,False,3/22/2022 8:37,Search
1891,704,96543975,Magic Piano Shop,6025 2nd Ave S,,Minneapolis,MN,55419,USA,6127981883,,https://www.gavinpiano.com/,50492-000,Pianos,,,False,A+,100.0,,,False,Micro-small,False,7/9/2020 4:10,Search
1892,704,96544411,Lighthouse Ministries Intl,4208 Hemlock Ln N,,Minneapolis,MN,55441,USA,7635598688,,https://www.lighthouseministryintl.org/,60745-000,Religious Organizations,4/30/2014 0:00,,False,A+,100.0,1.0,0.0,False,Micro-small,False,11/23/2021 6:33,Search
1893,704,96544907,"Metafile Information Systems, Inc.",3428 Lakeridge Pl NW Ste 100,,Rochester,MN,55901,USA,5072520126,,https://www.linkedin.com/company/metafile,50173-000,Computers - Dealers,,,False,A+,100.0,,,False,Micro-small,False,7/1/2021 4:10,Search
1894,704,96544449,Isaiah Invest,4720 7th Ave S Ste C,,Fargo,ND,58103,USA,7012713207,,https://www.yellowpages.com/fargo-nd/mip/isaiah-invest-482039566,20067-000,Stock & Bond Brokers,4/30/2014 0:00,,False,NR,0.0,1.0,0.0,False,Micro-small,False,10/30/2021 4:02,Search
1895,704,96545296,Corpororate Living,171 Grandeville Rd SW,,Rochester,MN,55902,USA,5072584277,,https://www.corporatehousing.com/ny/rochester,60150-000,Boarding Houses,4/30/2014 0:00,,False,NR,0.0,,0.0,False,Micro-small,False,3/2/2021 4:06,Search
1896,704,96544444,Jenz Custom Cleaning,854 26th St SE,,Rochester,MN,55904,USA,5072521618,,https://house-cleaning-services.cmac.ws/jenz-custom-cleaning/12614/,66002-000,Cleaning Services,,,False,A+,100.0,1.0,,False,Micro-small,False,3/24/2022 8:32,Search
1897,704,96545216,Bark in the Dark Studio,1982 Lismore Rd,,Duluth,MN,55804,USA,2185250489,,https://www.yellowpages.com/duluth-mn/mip/bark-in-the-dark-studio-463820582,60179-000,Camps,1/1/2007 0:00,,False,NR,0.0,1.0,0.0,False,Micro-small,False,5/5/2022 8:23,Search
1898,704,96545137,Crystal Clean Service,PO Box 6528,,Fargo,ND,58109,USA,2183290435,,https://www.crystal-clean.com/,60478-000,Janitor Service,,,False,A+,100.0,,,False,Micro-small,False,8/11/2021 4:46,Search
1899,704,96544518,"Runck, Russ",703 11th St E,,Glencoe,MN,55336,USA,3208646565,,https://www.ameripriseadvisors.com/team/russ-runck-associates/?cid=IP_local_google,20045-000,Investment Advisory Service,4/30/2014 0:00,,False,NR,0.0,1.0,0.0,False,Micro-small,False,2/20/2022 9:00,Search
1900,704,96544173,Klosner & Goertz Homes Inc,474 Apollo Dr # 50,,Coon Rapids,MN,55433,USA,7637848438,,https://www.manta.com/c/mbnpmf1/klosner-goertz-homes-inc,10035-000,Contractors - General,4/30/2014 0:00,,False,NR,0.0,1.0,0.0,False,Micro-small,False,4/16/2022 8:13,Search
1901,704,96544058,Sabris Banking Ctr,3011 Cedar Ave S,,Minneapolis,MN,55407,USA,6127225254,,https://www.yellowpages.com/minneapolis-mn/mip/sabris-banking-ctr-457192092,20003-000,Banks,4/30/2014 0:00,,False,NR,0.0,1.0,0.0,False,Micro-small,False,8/30/2021 4:05,Search
1902,704,96545239,"Bumgardner, Kevin",7766 Highway 65 NE Ste 1,,Minneapolis,MN,55432,USA,6123868773,,https://www.linkedin.com/in/kbum,60729-102,Real Estate Agents,4/30/2014 0:00,,False,NR,0.0,1.0,0.0,False,Micro-small,False,10/4/2022 8:07,Search
1903,704,96544242,John Hulett Auto Repair,7201 85th Ave,,Princeton,MN,55371,USA,7633898462,,https://www.yellowpages.com/princeton-mn/mip/john-hulett-auto-repair-25775099,60103-000,Auto Repair & Service,4/30/2014 0:00,,False,A+,100.0,1.0,0.0,False,Micro-small,False,12/1/2021 4:53,Search
1904,704,96544869,Lk Fotography,1801 Taylor St NE,,Minneapolis,MN,55418,USA,6122811610,,https://www.facebook.com/LKCreativeCo/,60658-000,Photographers - Portrait,,,False,A+,100.0,,,False,Micro-small,False,7/1/2020 4:27,Search
1905,704,96544656,Right Turn Recruiting,3249 Hennepin Ave Ste 255,,Minneapolis,MN,55408,USA,6128273558,,https://rightturnrecruiting.com/,60326-000,Employment Agencies,8/27/2008 0:00,,False,A+,100.0,,0.0,False,Micro-small,False,7/11/2021 4:09,Search
1906,704,96545128,Chof Health Dept,355 Marshall Ave,,Saint Paul,MN,55102,USA,6512653413,,https://www.ramseycounty.us/your-government/departments/health-and-wellness/public-health,60971-000,Health & Medical - General,,,False,A+,100.0,,,False,Micro-small,False,6/27/2020 3:57,Search
1907,704,96543928,Midway Marine,5215 Klaers Dr,,Loretto,MN,55357,USA,7634793490,,https://www.midwaymarine.com/,50082-000,Boat Dealers,12/12/1986 0:00,,False,A+,100.0,,0.0,False,Micro-small,False,6/4/2021 4:05,Search
1908,704,96543985,North American Building,138 W Beaton Dr,,West Fargo,ND,58078,USA,2188631516,,https://www.northamerican.com/local/west-fargo-moving-company?utm_source=local&utm_medium=organic&utm_campaign=gmb,85310-000,Contractor - Commercial,4/30/2014 0:00,,False,NR,0.0,,0.0,False,Micro-small,False,3/28/2021 3:53,Search
1909,704,96545054,Anchor Real Estate Investments,1825 Neal Ave,,Delano,MN,55328,USA,9529552532,,https://www.crunchbase.com/organization/anchor-real-estate-investments,60729-102,Real Estate Agents,4/30/2014 0:00,1/3/2017 0:00,False,NR,0.0,,0.0,False,Micro-small,False,1/6/2020 4:08,Search
1910,704,96544004,Navigator Financial,102 Main St S # 205,,Hutchinson,MN,55350,USA,3205876669,,https://www.yellowpages.com/hutchinson-mn/mip/navigator-financial-group-459583626,20045-000,Investment Advisory Service,4/30/2014 0:00,,False,A+,100.0,1.0,0.0,False,Micro-small,False,10/18/2021 3:53,Search
1911,704,96544748,In the Kut,1828 E 42nd St,,Minneapolis,MN,55407,USA,6127295180,,https://www.instagram.com/inthekut_minneapolis/?hl=en,60134-000,Beauty Salons,,,False,A+,100.0,1.0,,False,Micro-small,False,5/11/2022 8:37,Search
1912,704,96544065,Gp Tennis Courts,725 Jackson Str,,Anoka,MN,55303,USA,7632347386,,https://www.globaltennisnetwork.com/tennis-courts/courts/city/4513-anoka-minnesota,85313-000,Contractor - Industrial,,,False,A+,100.0,,,False,Micro-small,False,7/8/2020 4:45,Search
1913,704,96544049,R & S Muzzleloader Supply,1109 S Jefferson St,,New Ulm,MN,56073,USA,5073545117,,https://www.yellowpages.com/new-ulm-mn/mip/r-s-muzzleloader-supply-25694695,50326-100,Gun Dealers,,,False,A+,100.0,,,False,Micro-small,False,7/8/2020 4:45,Search
1914,704,96544649,Family Auto Care,1550 91st Ave NE,,Minneapolis,MN,55449,USA,6513297301,,https://www.facebook.com/FamilyAutoCareMN/,60103-000,Auto Repair & Service,,,False,NR,0.0,1.0,,False,Micro-small,False,5/26/2022 8:10,Search
1915,704,96544880,Maple Edge Building Ctr,PO Box 421,,Mapleton,MN,56065,USA,5075244600,,https://www.yellowpages.com/mapleton-mn/mip/maple-edge-building-ctr-481768119?lid=481768119,85310-000,Contractor - Commercial,4/30/2014 0:00,,False,NR,0.0,,0.0,False,Micro-small,False,3/23/2021 4:01,Search
1916,704,96544255,Knutson Cleaning,PO Box 83,,Pemberton,MN,56078,USA,5073277337,,https://www.yellowpages.com/pemberton-mn/mip/knutson-cleaning-508743019,60478-000,Janitor Service,,,False,A+,100.0,1.0,,False,Micro-small,False,9/10/2022 8:39,Search
1917,704,96544849,Neighbor Necessities Inc,963 Moonlight Dr,,Saint Paul,MN,55125,USA,6517353322,,https://www.neighborsmn.org/,60010-000,Advertising Agencies & Counselors,,,False,A+,100.0,,,False,Micro-small,False,10/22/2020 3:47,Search
1918,704,96543990,National Hog Farmer,7900 International Dr Ste 650,,Minneapolis,MN,55425,USA,9528514710,,https://www.nationalhogfarmer.com/mag/farming_minnesota,30545-000,Publishers - Periodical,,,False,A+,100.0,,,False,Micro-small,False,7/9/2020 4:10,Search
1919,704,96544753,"Henderson, Gregory",4600 Weston Ln N,,Minneapolis,MN,55446,USA,7635099676,,https://www.facebook.com/gregory.henderson.5458/,20080-000,Insurance Services,,,False,A+,100.0,,,False,Micro-small,False,7/1/2020 4:26,Search
1920,704,96544575,Wow It Consulting,2232 Lower Afton Rd E,,Saint Paul,MN,55119,USA,6512045514,,https://www.dnb.com/business-directory/company-profiles.wow_it_consulting.7fcfdf0a92bf058076db411e2c611312.html,60235-000,"Computers Hardware, Software & Services",,10/22/2015 0:00,False,NR,0.0,,,False,Micro-small,False,10/29/2018 4:00,Search
1921,704,96544122,Inland Truck Parts & Service,3525 38th St S Ste 2,,Fargo,ND,58104,USA,7012828332,,https://www.inlandtruck.com/locations/north-dakota/fargo/?utm_source=local&utm_medium=organic&utm_campaign=gmb&utm_content=north_dakota_fargo,50535-000,Recreational Vehicles - Dealers,,,False,A+,100.0,1.0,,False,Micro-small,False,2/5/2022 9:32,Search
1922,704,96545204,Ben's Computer Aces Inc,1642 River Bluff Ct,,Saint Paul,MN,55121,USA,6513443287,,https://www.dnb.com/business-directory/company-profiles.bens_computer_aces_inc.a4fe78653f7c3543e519758c2caa40b3.html,50173-000,Computers - Dealers,9/28/2007 0:00,5/18/2017 0:00,False,NR,0.0,,0.0,False,Micro-small,False,5/25/2020 3:48,Search
1923,704,96545267,Callahan Capital Funding,7235 Guider Dr Apt 122,,Saint Paul,MN,55125,USA,6512945003,,https://www.dandb.com/businessdirectory/callahancapitalfunding-saintpaul-mn-2271293.html,20079-000,Credit Services,8/28/2007 0:00,9/5/2019 0:00,False,NR,0.0,,0.0,False,Micro-small,False,9/6/2019 4:24,Search
1924,704,96544759,Howard Ventures,7373 147th St W Ste 156,,Apple Valley,MN,55124,USA,9528914202,,https://www.allbiz.com/business/howard-ventures-952-891-4202,60729-102,Real Estate Agents,,,False,A+,100.0,1.0,,False,Micro-small,False,3/2/2022 10:31,Search
1925,704,96544399,Horvath Enterprise Inc,PO Box 52,,Milaca,MN,56353,USA,3209823253,,https://www.allbiz.com/business/horvath-enterprise-inc_2G-320-982-3253,20080-000,Insurance Services,4/30/2014 0:00,,False,NR,0.0,,0.0,False,Micro-small,False,3/16/2021 4:00,Search
1926,704,96544604,Vip,563 Bielenberg Dr Ste 105,,Woodbury,MN,55125,USA,6517779146,,https://www.premiumoutlets.com/vip,20080-000,Insurance Services,,,False,A+,100.0,,,False,Micro-small,False,7/2/2020 4:06,Search
1927,704,96544590,Two Bee's Tuning,401 4th St E,,Saint Paul,MN,55101,USA,6124817712,,https://motorcycle-repair-shops.cmac.ws/two-bees-tuning/10146/,50441-000,Motorcycles - Repairing & Service,4/30/2014 0:00,,False,A+,100.0,1.0,0.0,False,Micro-small,False,5/12/2022 8:37,Search
1928,704,96544967,Anchor House,1319 Girard Ave N Ste 102,,Minneapolis,MN,55411,USA,6125292040,,http://www.peopleincorporated.org/,61006-000,Psychiatrists & Psychiatric Services,4/30/2014 0:00,8/29/2019 0:00,False,NR,0.0,1.0,0.0,False,Micro-small,False,9/10/2022 8:39,Search
1929,704,96544825,M Studio,2109 Nicollet Ave,,Minneapolis,MN,55404,USA,6123383397,,https://studiom-kb.com/,60470-000,Interior Decorators & Designers,8/24/2007 0:00,9/3/2019 0:00,False,NR,0.0,,0.0,False,Micro-small,False,9/4/2019 8:20,Search
1930,704,96545288,Biltwell Restaurant LLC,1600 W Lake St,,Minneapolis,MN,55408,USA,6128226302,,https://www.dnb.com/business-directory/company-profiles.biltwell_restaurant_llc.eb78e444149e9f9fa8d43191f8975056.html,50544-000,Restaurants,7/9/2012 0:00,,False,A+,100.0,1.0,0.0,False,Micro-small,False,1/24/2023 8:58,Search
1931,704,96545207,Bergman Construction Inc,2194 Lexington Ave N Apt 7,,Saint Paul,MN,55113,USA,6127706597,,https://www.yellowpages.com/saint-paul-mn/mip/bergman-construction-inc-480926284,10035-000,Contractors - General,1/17/2006 0:00,1/7/2009 0:00,False,NR,0.0,,0.0,False,Micro-small,False,3/19/2018 4:34,Search
1932,704,96544164,J & J Building Llc,4751 Heatherwood Rd,,Saint Cloud,MN,56301,USA,3202022194,,https://opencorporates.com/companies/us_mn/58d62312-add4-e011-a886-001ec94ffe7f,85310-000,Contractor - Commercial,4/30/2014 0:00,,False,NR,0.0,,0.0,False,Micro-small,False,3/17/2021 4:44,Search
1933,704,96544631,Halsey Creative Service,213 Crestridge Dr,,Burnsville,MN,55337,USA,9528984564,,https://start.cortera.com/company/research/k3o9qso4n/halsey-creative-services/,60065-000,Artists - Commercial,,,False,A+,100.0,,,False,Micro-small,False,7/2/2020 4:06,Search
1934,704,96544417,Jmml Designs,PO Box 6777,,Minneapolis,MN,55406,USA,6127291458,,http://jmmldesigns.com/,30311-000,Jewelry Manufacturers,,,False,A+,100.0,1.0,,False,Micro-small,False,8/11/2022 8:30,Search
1935,704,96545092,Bolster Construction,21185 Fries Drive,,Nevis,MN,56467,USA,2186526122,,https://www.buildzoom.com/contractor/bolster-construction-llc,10035-000,Contractors - General,1/16/2009 0:00,,False,A+,100.0,,0.0,False,Micro-small,False,12/10/2020 4:07,Search
1936,704,96544395,Holistic Health LLC,6001 Egan Dr Ste 192,,Savage,MN,55378,USA,9522264579,,https://www.dandb.com/businessdirectory/holistichealthllc-savage-mn-30955669.html,60543-000,Massage Therapists,5/12/2008 0:00,9/24/2019 0:00,False,NR,0.0,1.0,0.0,False,Micro-small,False,12/14/2021 4:08,Search
1937,704,96544018,Servtrax,14141 Glendale Rd Ste 200,,Savage,MN,55378,USA,9528824741,,https://www.manta.com/c/mtrgn08/servtrax,50173-000,Computers - Dealers,4/30/2014 0:00,6/22/2021 0:00,False,NR,0.0,,0.0,False,Micro-small,False,6/24/2021 4:06,Search
1938,704,96544021,Pestka Appraisals,1530 Greenview Dr SW Ste 105,,Rochester,MN,55902,USA,5072811881,,https://www.linkedin.com/in/gerald-pestka-671a323,60729-102,Real Estate Agents,,,False,A+,100.0,,,False,Micro-small,False,7/9/2020 4:10,Search
1939,704,96544176,Kronforst Construction CO,10080 Bridgewater Pkwy,,Saint Paul,MN,55129,USA,6515011440,,https://www.linkedin.com/in/kevinckronforst,10035-000,Contractors - General,4/30/2014 0:00,,False,A+,100.0,1.0,0.0,False,Micro-small,False,2/4/2022 9:34,Search
1940,704,96544032,Pietsch Repair,14100 16th St SW,,Minot,ND,58701,USA,7017223765,,https://minotaerocenter.com/our-story/,30008-000,Aircraft Rebuilding,,,False,A+,100.0,1.0,,False,Micro-small,False,5/5/2022 8:23,Search
1941,704,96544540,Terra Madre Soap CO,164 11th Ave NE,,Rochester,MN,55906,USA,5072892144,,https://www.superpages.com/rochester-mn/soaps-detergents,30632-000,Soaps & Detergents,4/30/2014 0:00,,False,NR,0.0,1.0,0.0,False,Micro-small,False,12/5/2021 3:58,Search
1942,704,96545119,Banquetes Tradicionales Mexicanos,909 Serenity Circ,,Young America,MN,55397,USA,6124327913,,https://bizstanding.com/directory/MN/BA/226/,50544-000,Restaurants,11/27/2007 0:00,,False,NR,0.0,,0.0,False,Micro-small,False,6/11/2019 4:03,Search
1943,704,96544170,Keystone Interpreting Service,1799 Hillcrest Ave,,Saint Paul,MN,55116,USA,6516468030,,https://kisasl.com/connect-with-us/,60901-000,Translators & Interpreters,4/30/2014 0:00,,False,A+,100.0,1.0,0.0,False,Micro-small,False,11/17/2022 9:21,Search
1944,704,96544363,Lahrs Images,7001 Hartkopf Ln,,Minneapolis,MN,55428,USA,7635667197,,https://www.yellowpages.com/minneapolis-mn/mip/lahrs-images-25651203,55027-100,Picture Framing,4/30/2014 0:00,,False,NR,0.0,,0.0,False,Micro-small,False,3/22/2021 4:01,Search
1945,704,96544813,Midwest Woodworking,7000 18th Ave S,,Minneapolis,MN,55423,USA,6128662935,,https://www.midwestwoodcraft.com/,30760-100,Wood Products - Sawdust & Shavings,11/15/1996 0:00,,False,NR,0.0,1.0,0.0,False,Micro-small,False,8/12/2022 8:33,Search
1946,704,96544587,Twin Cities Occ Health,2520 Pilot Knob Rd,,Saint Paul,MN,55120,USA,6512943149,,https://www.mohonline.com/,60971-000,Health & Medical - General,4/30/2014 0:00,,False,NR,0.0,,0.0,False,Micro-small,False,7/21/2021 5:18,Search
1947,704,96544484,Kern's Hunting Supply,663 Jefferson Ave,,Saint Paul,MN,55102,USA,6512225470,,https://localsportinggoods.net/Minnesota/Kerns-Hunting-Supply-5297298,00151-000,Hunting & Fishing Services & Supplies,,12/11/2017 0:00,False,NR,0.0,,,False,Micro-small,False,12/15/2020 4:06,Search
1948,704,96543987,Notermann Investment Insurance,2201 5th Ave SW,,Rochester,MN,55902,USA,5072819851,,https://www.buzzfile.com/business/Notermann-Investment-Insurance-507-281-9851,20080-000,Insurance Services,,,False,A+,100.0,,,False,Micro-small,False,7/9/2020 4:10,Search
1949,704,96544793,Mcmullen Insurance Agency,971 38th Ln,,Anoka,MN,55303,USA,7634274040,,https://www.visualvisitor.com/companies/5784189/mcmullen_insurance_agency,20080-000,Insurance Services,4/30/2014 0:00,5/23/2016 0:00,False,NR,0.0,,0.0,False,Micro-small,False,5/27/2019 4:16,Search
1950,704,96544595,Valley Home Inspections Llc,413 4th St S,,Wahpeton,ND,58075,USA,7016401510,,https://www.manta.com/c/mrsjc2h/valley-home-inspections-llc,60729-102,Real Estate Agents,5/16/2006 0:00,,False,A+,100.0,1.0,0.0,False,Micro-small,False,12/6/2017 4:15,Search
1951,704,96544714,Gunther Luca,3200 Irving Ave S,,Minneapolis,MN,55408,USA,6128256272,,https://trehus.biz/news/midwest-home-article-may2008.pdf,60533-000,Management Consultants,4/30/2014 0:00,,False,A+,100.0,1.0,0.0,False,Micro-small,False,9/22/2021 4:11,Search
1952,704,96544742,"George, Alaina M",301 W Wabasha St,,Duluth,MN,55803,USA,2183937841,,https://www.truepeoplesearch.com/find/person/plr2ru28r92226rn628l,60075-000,Attorneys & Lawyers,,,False,A+,100.0,,,False,Micro-small,False,7/1/2020 4:26,Search
1953,704,96545244,Computers For You,820 7th Ave NW,,Minot,ND,58703,USA,7018525891,,https://www.manta.com/c/mb8c9dp/computers-for-you,50173-000,Computers - Dealers,4/30/2014 0:00,,False,A+,100.0,1.0,0.0,False,Micro-small,False,3/16/2022 8:53,Search
1954,704,96545163,All-Bright Service,2918 N 6th St,,Minneapolis,MN,55411,USA,6125294444,,https://www.allbrighthomeservices.com/,60478-000,Janitor Service,,5/24/2017 0:00,False,NR,0.0,,,False,Micro-small,False,5/25/2020 3:48,Search
1955,704,96544596,Victoria Locksmith,1895 Steiger Lake Ln,,Victoria,MN,55386,USA,9526796327,,https://mrlocksmithmn.com/locksmith-victoria-mn/,60522-000,Locks & Locksmiths,,,False,A+,100.0,1.0,,False,Micro-small,False,5/6/2022 8:19,Search
1956,704,96544199,Laurie's Cleaning Service,214 22nd St S,,Fargo,ND,58103,USA,7017997003,,https://www.merrymaids.com/fargo/?utm_source=GMB&utm_medium=organic&utm_campaign=fargo,60478-000,Janitor Service,4/30/2014 0:00,,False,A+,100.0,1.0,0.0,False,Micro-small,False,11/14/2021 3:55,Search
1957,704,96544856,Lamah Multivision Inc,12760 44th Cir NE,,Saint Michael,MN,55376,USA,6515712634,,https://m.facebook.com/LamahMultivision/about/?referrer=services_landing_page,60262-000,Copy & Duplicating Service,3/31/2015 0:00,,False,F,54.0,1.0,0.0,False,Micro-small,False,10/28/2022 8:24,Search
1958,704,96544803,Key Marketing Group,825 Nicollet Mall Ste 920,,Minneapolis,MN,55402,USA,6123349731,,https://keymarketinggroup.com/,60010-000,Advertising Agencies & Counselors,,,False,A+,100.0,,,False,Micro-small,False,10/21/2020 3:54,Search
1959,704,96544398,Horizon Sales Inc,250 Prairie Center Dr Ste 335,,Eden Prairie,MN,55344,USA,9529140100,,https://horizonsales.com/,20007-000,Commodity Brokers,4/30/2014 0:00,,False,NR,0.0,,0.0,False,Micro-small,False,3/16/2021 4:00,Search
1960,704,96545199,Arrowhead Cycle & ATV,53 E Highway 61,,Esko,MN,55733,USA,2188796796,,https://nextdoor.com/pages/arrowhead-cycle-atv-esko-mn/,50535-000,Recreational Vehicles - Dealers,,,False,A+,100.0,,,False,Micro-small,False,6/26/2020 4:02,Search
1961,704,96544155,Hds of Minnesota Inc,4531 185th Ln NW,,Oak Grove,MN,55303,USA,6127505847,,"https://en.wikipedia.org/wiki/Oak_Grove,_Minnesota",30536-000,Printing Equipment,,,False,A+,100.0,,,False,Micro-small,False,7/7/2020 4:07,Search
1962,704,96544331,Team Masher Racing,2903 181st St,,Clearwater,MN,55320,USA,3206561014,,https://www.yellowpages.com/clearwater-mn/mip/team-masher-racing-481809222,50440-000,Motorcycles - Dealers,,,False,A+,100.0,1.0,,False,Micro-small,False,12/28/2022 9:14,Search
1963,704,96544293,Get Fuzed,201 Chestnut Ave,,Carlton,MN,55718,USA,2183844578,,https://www.allbiz.com/business/get-fuzed_1S-218-384-4578,60971-000,Health & Medical - General,,11/3/2021 0:00,False,NR,0.0,1.0,,False,Micro-small,False,11/5/2021 4:03,Search
1964,704,96544247,Karens Studio,14956 Dundee Ave,,Saint Paul,MN,55124,USA,9523225808,,https://www.buzzfile.com/business/Karens-Studio-952-322-5808,20071-000,Studio Rental,4/30/2014 0:00,,False,NR,0.0,,0.0,False,Micro-small,False,3/21/2021 3:53,Search
1965,704,96544932,Midwest Graphic Supply Llc,14000 Sunfish Lake Blvd NW Ste A,,Ramsey,MN,55303,USA,7637125454,,https://www.manta.com/c/mb8tlql/midwest-graphic-supply-llc,60065-000,Artists - Commercial,4/30/2014 0:00,,False,A+,100.0,1.0,0.0,False,Micro-small,False,10/11/2021 3:53,Search
1966,704,96544521,Savings Mortgage USA Inc,800 27th Ave NE,,Minneapolis,MN,55418,USA,6127063232,,https://www.yellowpages.com/minneapolis-mn/mip/savings-mortgage-usa-inc-480704169,25053-000,Mortgage Bankers,4/30/2014 0:00,,False,NR,0.0,1.0,0.0,False,Micro-small,False,1/16/2022 9:14,Search
1967,704,96543995,Robb Enterprises,1601 N Innsbruck Dr Apt 313,,Fridley,MN,55432,USA,7635729302,,https://www.checkbook.org/mn/fridley/wedding-consultants/robb-enterprises/shpp9,60945-000,Wedding Consultants,,,False,A+,100.0,,,False,Micro-small,False,7/9/2020 4:10,Search
1968,704,96544268,Rj Bailey Insurance Ctr,3220 18th St S Ste 9,,Fargo,ND,58104,USA,7013567001,,https://fargoinsurance123.com/,20080-000,Insurance Services,4/30/2014 0:00,,False,NR,0.0,1.0,0.0,False,Micro-small,False,6/16/2022 8:34,Search
1969,704,96544581,Western Building Supply,12712 Myrtle Cir,,Hopkins,MN,55305,USA,9529330294,,https://www.westernbuildingsupply.com/,30760-100,Wood Products - Sawdust & Shavings,4/30/2014 0:00,,False,NR,0.0,1.0,0.0,False,Micro-small,False,11/15/2021 3:53,Search
1970,704,96544349,Zemlin Nottingham Inc,9388 Creekwood Dr,,Eden Prairie,MN,55347,USA,9529469648,,https://www.yellowpages.com/eden-prairie-mn/mip/zemlin-nottingham-inc-480678097?lid=480678097,60235-000,"Computers Hardware, Software & Services",4/30/2014 0:00,,False,A+,100.0,,0.0,False,Micro-small,False,1/31/2021 3:59,Search
1971,704,96545171,Aquascape Technologies Inc,2611 N 2nd St,,Minneapolis,MN,55411,USA,6125213321,,https://water-garden-and-fountain-companies.cmac.ws/aquascape-technologies-inc/1717/,50298-000,Lawn & Garden Equipment & Supplies,4/30/2014 0:00,4/2/2021 0:00,False,NR,0.0,,0.0,False,Micro-small,False,7/9/2021 4:06,Search
1972,704,96544977,Allen Schmidt Construction,1415 Cherry Pl,,Mound,MN,55364,USA,9524710413,,https://www.buildzoom.com/contractor/schmidt-allen,10035-000,Contractors - General,4/30/2014 0:00,,False,A+,100.0,,0.0,False,Micro-small,False,2/28/2021 4:00,Search
1973,704,96544610,Web Professional Inc,PO Box 307,,Saint Paul Park,MN,55071,USA,8886147776,,https://www.signalhire.com/companies/the-web-professional-inc,60280-000,Data Processing Service,,,False,A+,100.0,,,False,Micro-small,False,7/13/2021 4:13,Search
1974,704,96544044,David Giliuson Dr,3625 143rd St W,,Rosemount,MN,55068,USA,6514232930,,https://www.buzzfile.com/business/David-Giliuson-Dr-651-423-2930,60971-000,Health & Medical - General,4/30/2014 0:00,6/21/2016 0:00,False,NR,0.0,,0.0,False,Micro-small,False,6/24/2019 4:05,Search
1975,704,96543935,North Memorial Health,9825 Hospital Dr Ste 200,,Maple Grove,MN,55369,USA,7635815300,,https://northmemorial.com/location/maple-grove/,60445-000,Hospitals,,,False,A+,100.0,1.0,,False,Micro-small,False,12/1/2021 4:53,Search
1976,704,96544858,"Lautt, Candace",206 Orchard St N,,Northfield,MN,55057,USA,5076631859,,https://nextdoor.com/pages/candace-lautt-northfield-mn/,60685-000,Physical Therapists,,,False,A+,100.0,,,False,Micro-small,False,7/1/2020 4:27,Search
1977,704,96544478,Lakes Area Dermatology,3640 Talmage Cir Ste 216,,Vadnais Heights,MN,55110,USA,6513794006,,https://www.dermatologyconsultants.com/our-locations/vadnais-heights-office/,60134-000,Beauty Salons,4/30/2014 0:00,,False,NR,0.0,,0.0,False,Micro-small,False,3/22/2021 4:01,Search
1978,704,96544820,Jon Brunner Construction Llc,816 W 4th St,,Zumbrota,MN,55992,USA,5077327676,,https://www.buildzoom.com/contractor/jon-brunner-construction-llc,10035-000,Contractors - General,,,False,A+,100.0,,,False,Micro-small,False,8/7/2020 4:03,Search
1979,704,96544750,Health Tel,123 3rd Ave N,,Minneapolis,MN,55401,USA,6512093505,,https://www.yellowpages.com/minneapolis-mn/mip/health-tel-459967073,60971-000,Health & Medical - General,,11/3/2021 0:00,False,NR,0.0,1.0,,False,Micro-small,False,11/5/2021 4:03,Search
1980,704,96545223,BBVA Compass,7050 Valley Creek Plz Ste A,,Saint Paul,MN,55125,USA,6517020573,,https://www.manta.com/c/mbd1z4y/bbva-compass,20003-000,Banks,4/30/2014 0:00,,False,NR,0.0,1.0,0.0,False,Micro-small,False,6/1/2022 21:26,Search
1981,704,96544947,Lovers of God Fellowship,1329 Hague Ave,,Saint Paul,MN,55104,USA,6516443571,,https://www.dandb.com/businessdirectory/loversofgodfellowship-saintpaul-mn-9229871.html,30546-000,Publishing Consultants,9/20/1993 0:00,,False,NR,0.0,1.0,0.0,False,Micro-small,False,8/15/2022 8:04,Search
1982,704,96545217,Bayard Advertising,5775 Wayzata Blvd Ste 320,,Minneapolis,MN,55416,USA,9528814411,,http://www.bayardad.com/,60010-000,Advertising Agencies & Counselors,7/13/2005 0:00,,False,A+,100.0,1.0,0.0,False,Micro-small,False,8/4/2022 8:30,Search
1983,704,96544023,Pod,3401 Interstate Blvd S,,Fargo,ND,58103,USA,7013564130,,https://www.pods.com/,85310-000,Contractor - Commercial,4/30/2014 0:00,12/6/2017 0:00,False,NR,0.0,,0.0,False,Micro-small,False,12/8/2020 4:09,Search
1984,704,96544410,Kinetico Quality Water,200 1st St NE,,Buffalo,MN,55313,USA,3203529902,,https://nextdoor.com/pages/kinetico-quality-water-buffalo-mn/,70650-000,Water - Bottled & Bulk,,12/21/2017 0:00,False,NR,0.0,,,False,Micro-small,False,12/23/2020 12:21,Search
1985,704,96543955,Munoz Insurance,1641 Robert St S,,Saint Paul,MN,55118,USA,6517972352,,https://wallethub.com/profile/hugo-mu-oz-69142753i,20080-000,Insurance Services,,,False,NR,0.0,1.0,,False,Micro-small,False,11/23/2022 9:43,Search
1986,704,96544341,Stein Distributing,1384 David Rd,,Cloquet,MN,55720,USA,2188793214,,https://www.manta.com/c/mb81tmv,80010-000,Advertising Specialties,,,False,A+,100.0,,,False,Micro-small,False,7/3/2020 4:12,Search
1987,704,96544470,Jetter Clean of Rochester Inc,PO Box 5775,,Rochester,MN,55903,USA,5072895320,,https://jettercleanrochester.com/,66002-000,Cleaning Services,,,False,A+,100.0,1.0,,False,Micro-small,False,9/1/2022 8:30,Search
1988,704,96544060,Schultz&#39;s Detail Specialists,10207 Madison St NE,,Minneapolis,MN,55434,USA,7633001141,,https://clustrmaps.com/a/1krrbn/,60180-000,Car Wash & Polish,4/30/2014 0:00,,False,NR,0.0,1.0,0.0,False,Micro-small,False,12/20/2022 8:57,Search
1989,704,96544367,Jaxon Jaeger Rental Llc,1428 Cottonwood Ave,,Minot,ND,58701,USA,7018388486,,https://opencorporates.com/companies/us_nd/0000043142,60747-000,Rental Service Stores & Yards,,,False,A+,100.0,,,False,Micro-small,False,7/3/2020 4:12,Search
1990,704,96545066,The Chatfield News LLC,220 Main St S,,Chatfield,MN,55923,USA,5078673870,,https://www.facebook.com/Chatfield-News-444618225643029/,30418-000,Newspapers,6/22/1993 0:00,,False,A+,100.0,1.0,,False,Micro-small,False,5/20/2022 8:11,Search
1991,704,96544545,Tickel Chiropractic,819 30th Ave S Ste 100,,Moorhead,MN,56560,USA,2182843030,,http://www.tickelchiropractic.com/,60205-000,Chiropractors D.C.,4/30/2014 0:00,,False,NR,0.0,1.0,0.0,False,Micro-small,False,2/25/2022 9:44,Search
1992,704,96543972,M K Hair & Nails,406 N Central Ave Ste 1,,Duluth,MN,55807,USA,2186289991,,https://www.facebook.com/MK-Hair-and-Nails-1544862205745806/,60134-000,Beauty Salons,1/15/2003 0:00,,False,NR,0.0,1.0,0.0,False,Micro-small,False,7/8/2022 12:27,Search
1993,704,96544867,One Roof Community Housing,224 E 4th St,,Duluth,MN,55805,USA,2184614018,,https://1roofhousing.org/,10035-000,Contractors - General,4/30/2014 0:00,,False,A+,100.0,1.0,0.0,False,Micro-small,False,9/19/2021 3:53,Search
1994,704,96544229,International Ingredient Corp,36414 County Road 31,,Lake City,MN,55041,USA,5077532464,,https://iicag.com/production/oak-center-mn/,80812-000,Industrial Manufacturers,,,False,A+,100.0,,,False,Micro-small,False,7/7/2020 4:07,Search
1995,704,96544284,Taylor Martin Auctioneers,Olmsted County Fairgrounds,,Rochester,MN,55901,USA,5072899832,,https://www.taylorandmartin.com/,60088-000,Auctioneers,4/30/2014 0:00,,False,A+,100.0,1.0,0.0,False,Micro-small,False,1/21/2022 9:35,Search
1996,704,96544887,Jacada Inc,7101 Northland Cir N,,Brooklyn Park,MN,55428,USA,7632010002,,https://www.merchantcircle.com/jacada1-minneapolis-mn,60226-000,Collection Agencies,,12/7/2017 0:00,False,NR,0.0,,,False,Micro-small,False,12/8/2020 4:09,Search
1997,704,96544812,Meyers Design Inc,5032 Vincent Ave S,,Minneapolis,MN,55410,USA,6129259492,,http://meyersdesigninc.com/,60065-000,Artists - Commercial,2/14/1997 0:00,,False,NR,0.0,1.0,0.0,False,Micro-small,False,9/30/2022 8:54,Search
1998,704,96545015,Auto Pros Auto Center,43 S 11th St,,Minneapolis,MN,55403,USA,6123331301,,https://www.autopromn.com/,60103-000,Auto Repair & Service,4/30/2014 0:00,4/5/2021 0:00,False,NR,0.0,1.0,0.0,False,Micro-small,False,3/3/2022 9:50,Search
1999,704,96544906,Merit Construction Company Inc,1925 Westfield Ave,,Minot,ND,58701,USA,,,https://www.b2byellowpages.com/company-information/097316268-merit-construction-co-inc.html,10035-000,Contractors - General,4/30/2014 0:00,6/20/2018 0:00,False,NR,0.0,,0.0,False,Micro-small,False,6/22/2021 4:12,Search
