,BBBID,BusinessID,BusinessName,StreetAddress,StreetAddress2,City,StateProvince,PostalCode,Country,Phone,Email,Website,TOBID,TOBDescription,DateBusinessStarted,DateBusinessClosed,IsBBBAccredited,BBBRatingGrade,BBBRatingScore,NumberOfEmployees,NumberOfPartTimeEmployees,IsHQ,SizeOfBusiness,IsCharity,CDWLastUpdate,FoundVia
1200,704,96544046,Dennis Keblar Construction Llc,150 5th St,,Felton,MN,56536,USA,2184943747,,https://www.manta.com/c/mb8c1w4/dennis-keblar-construction-llc,10035-000,Contractors - General,6/8/2000 0:00,,False,A+,100.0,,0.0,False,Micro-small,False,10/27/2020 3:46,Search
1201,704,96544796,Met Life Resources,110 Cheshire Ln,,Minnetonka,MN,55305,USA,9527977450,,https://www.dnb.com/business-directory/company-profiles.metlife.ac570befc7e2c02210814bbfd1fc998b.html,20067-000,Stock & Bond Brokers,4/30/2014 0:00,,False,A+,100.0,1.0,0.0,False,Micro-small,False,2/4/2022 9:34,Search
1202,704,96544652,Feigenbm/Bleiko Graphic Design,512 W Minnehaha Pkwy,,Minneapolis,MN,55419,USA,6128232542,,https://tarta.ai/j/tMwqyXsBKVDGKatzGmty-earn-35-75-hour-at-feigenbm-bleiko-graphic-design-minnesota-mn-55419-in-minneapolis-mn-at-feigenbm-bleiko-graphic-design,60065-000,Artists - Commercial,,,False,NR,0.0,,,False,Micro-small,False,12/23/2020 12:21,Search
1203,704,96544982,Amerisafe Risk Service Inc,3325 Hartford Rd,,Saint Paul,MN,55125,USA,6513300457,,https://www.amerisafe.com/,20080-000,Insurance Services,4/30/2014 0:00,,False,A+,100.0,,0.0,False,Micro-small,False,8/6/2021 4:08,Search
1204,704,96543903,Vrc Realty,2445 Winnetka Ave N,,Golden Valley,MN,55427,USA,7633318800,,https://www.superpages.com/golden-valley-mn/bpp/amp/vrc-realty-472832186,60729-102,Real Estate Agents,4/30/2014 0:00,,False,NR,0.0,1.0,0.0,False,Micro-small,False,10/22/2022 8:10,Search
1205,704,96544332,Janitorial Maintenance Inc,11010 50th Ave N,,Minneapolis,MN,55442,USA,7635511623,,https://minneapolis-janitorialservices.com/,60478-000,Janitor Service,,,False,A+,100.0,1.0,,False,Micro-small,False,3/16/2022 8:53,Search
1206,704,96544923,Mygrant Glass CO,44 Northern Stacks Dr Ste 100,,Columbia Hts,MN,55421,USA,7635723863,,https://www.mygrantglassonline.com/,80536-000,Paint - Wholesale & Manufacturers,,,False,A+,100.0,1.0,,False,Micro-small,False,9/10/2022 8:39,Search
1207,704,96545202,Awj Capital Partners,222 S 9th St Ste 3035,,Minneapolis,MN,55402,USA,6123383804,,https://www.linkedin.com/company/awj-capital-partners-llc,20045-000,Investment Advisory Service,4/30/2014 0:00,,False,NR,0.0,,0.0,False,Micro-small,False,2/22/2021 3:55,Search
1208,704,96545042,Automotive Data Systems,21851 Linnet St NW,,Cedar,MN,55011,USA,7637539551,,https://www.yellowpages.com/cedar-mn/mip/automotive-data-systems-481325766,55528-000,Auto Parts,4/30/2014 0:00,,False,NR,0.0,1.0,0.0,False,Micro-small,False,3/25/2022 8:40,Search
1209,704,96544505,St Pierre Holdings Inc,500 Grotto St N Ste 1,,Saint Paul,MN,55104,USA,6512943043,,https://www.manta.com/c/mm8ypl1/st-pierre-holdings-inc,20017-000,Holding Companies,,,False,A+,100.0,1.0,,False,Micro-small,False,11/23/2021 6:33,Search
1210,704,96544054,Roxibiz Inc,13991 Kensington Ave NE,,Prior Lake,MN,55372,USA,7635428902,,https://www.yellowpages.com/prior-lake-mn/mip/roxibiz-inc-481792216,60172-100,Coaching - Business,,,False,A+,100.0,1.0,,False,Micro-small,False,9/14/2021 4:03,Search
1211,704,96544807,Krafty Cabin,1325 27th St SE Lot 615,,Minot,ND,58701,USA,7017202857,,https://www.yellowpages.com/minot-nd/mip/krafty-cabin-480817404,10148-100,Retail Stores,,,False,A+,100.0,1.0,,False,Micro-small,False,3/3/2022 9:49,Search
1212,704,96544664,"Hamm, James",208 Circle Dr,,Saint Charles,MN,55972,USA,5079324679,,https://www.yellowpages.com/saint-charles-mn/mip/hamm-james-479001938,20080-000,Insurance Services,,,False,A+,100.0,,,False,Micro-small,False,7/2/2020 4:06,Search
1213,704,96544203,Jerry's Locksmith Service,629 Apollo Dr,,Lino Lakes,MN,55014,USA,6513440416,,https://www.247locksmiths.io/local/jerrys-locksmith-service-629-apollo-dr-27927.html,60522-000,Locks & Locksmiths,,12/5/2017 0:00,False,NR,0.0,,,False,Micro-small,False,12/8/2020 4:09,Search
1214,704,96544980,Amberwing,615 Pecan Ave,,Duluth,MN,55811,USA,2183552100,,https://amberwing.org/,61006-000,Psychiatrists & Psychiatric Services,4/30/2014 0:00,,False,A+,100.0,1.0,0.0,False,Micro-small,False,11/3/2022 8:23,Search
1215,704,96545228,Balanced Massage Therapy,261 Ruth St N,,Saint Paul,MN,55119,USA,6519688804,,https://www.balancedmassagemn.com/about,60542-000,Massage Therapeutic,2/3/2005 0:00,8/29/2019 0:00,False,NR,0.0,,0.0,False,Micro-small,False,2/12/2020 6:00,Search
1216,704,96544463,Kaah Home Health Care,1304 E Lake St STE 102,,Minneapolis,MN,55407,USA,6128702999,,https://npino.com/home-health/1811192057-kaah-home-health-care-inc./,60441-000,Home Health Services,,4/28/2016 0:00,False,NR,0.0,1.0,,False,Micro-small,False,12/22/2022 9:08,Search
1217,704,96544070,Quality Construction of Eyota,11544 30th St SE,,Eyota,MN,55934,USA,5079514174,,https://www.dnb.com/business-directory/company-profiles.quality_construction_of_eyota.4b318b25712082ef63ddf13e6110b750.html,10035-000,Contractors - General,,,False,A+,100.0,,,False,Micro-small,False,11/5/2020 4:09,Search
1218,704,96544056,Safe House,487 Grand Ave Apt 10,,Saint Paul,MN,55102,USA,6512544744,,https://www.lssmn.org/services/youth-homelessness/twin-cities-metro/safe-house-emergency-youth-shelter-twin-cities,61006-000,Psychiatrists & Psychiatric Services,4/30/2014 0:00,,False,NR,0.0,1.0,0.0,False,Micro-small,False,1/24/2022 9:19,Search
1219,704,96545060,Assurant Employee Benefits,6600 France Ave S Ste 300,,Edina,MN,55435,USA,9528482213,,"https://www.glassdoor.com/Reviews/Assurant-Employee-Benefits-Edina-Reviews-EI_IE14519.0,26_IL.27,32_IC1162277.htm",20080-000,Insurance Services,,1/14/2021 0:00,False,NR,0.0,,,False,Micro-small,False,4/15/2021 4:06,Search
1220,704,96545189,Body Guard Inc,17505 48th Pl N,,Plymouth,MN,55446,USA,7632212032,,https://www.b2byellowpages.com/company-information/298690094-bodyguard-inc.html,60297-000,Detective Agencies,4/30/2014 0:00,,False,A+,100.0,1.0,0.0,False,Micro-small,False,1/23/2022 9:52,Search
1221,704,96544182,J P Productions,4409 Aldrich Ave S,,Minneapolis,MN,55419,USA,6128249884,,https://www.manta.com/c/mt4lxwx/j-p-productions,60582-000,Motion Picture Producers & Studios,4/30/2014 0:00,,False,A+,100.0,1.0,0.0,False,Micro-small,False,3/24/2022 8:32,Search
1222,704,96544711,Grand Palms Event Ctr,207 N Chestnut St # 110,,Chaska,MN,55318,USA,9524487206,,https://www.cvent.com/venues/chaska/banquet-facility/grand-palms-event-center/venue-a54f4f83-50f1-4f73-8197-c9aa448d3d59,56000-000,Event Center,4/30/2014 0:00,,False,NR,0.0,,0.0,False,Micro-small,False,3/13/2021 4:08,Search
1223,704,96543924,Mavs Construction,12613 95th Pl N,,Maple Grove,MN,55369,USA,7634939554,,https://www.facebook.com/MavsCon/,10035-000,Contractors - General,4/30/2014 0:00,,False,A+,100.0,1.0,0.0,False,Micro-small,False,3/30/2022 9:07,Search
1224,704,96544769,John Griswolds Crt-N-Rnvt,35974 Nacre St NW,,Princeton,MN,55371,USA,6127037989,,https://vymaps.com/US/Tva-Law-Office-T26079968/,10035-000,Contractors - General,,,False,A+,100.0,,,False,Micro-small,False,3/19/2021 3:54,Search
1225,704,96544422,Kalon Salon & Spa Inc,1250 126th Ln NE Ste 700,,Minneapolis,MN,55434,USA,7637574745,,http://kalonsalonmn.com/,60134-000,Beauty Salons,,,False,A+,100.0,,,False,Micro-small,False,7/3/2020 4:12,Search
1226,704,96544305,Generator Solutions,533 Hayward Ave N Ste 150,,Saint Paul,MN,55128,USA,6517709405,,https://www.yellowpages.com/saint-paul-mn/mip/generator-solutions-6836205,60246-100,Computers - Programming,,,False,A+,100.0,1.0,,False,Micro-small,False,7/21/2022 8:46,Search
1227,704,96544193,J D Customs,9568 11th Ave SE,,Minot,ND,58701,USA,7015785598,,https://www.yellowpages.com/minot-nd/mip/j-d-customs-482040489,60950-000,Welding Equipment - Repair,,,False,A+,100.0,1.0,,False,Micro-small,False,2/22/2022 9:34,Search
1228,704,96545155,Alliance Translation Interpret,13326 89th Ave N,,Maple Grove,MN,55369,USA,7634209651,,https://www.yellowpages.com/maple-grove-mn/mip/alliance-translation-interpret-16651192,60901-000,Translators & Interpreters,4/30/2014 0:00,,False,A+,100.0,1.0,0.0,False,Micro-small,False,2/16/2022 10:06,Search
1229,704,96544160,High Point Aviation,3200 11th St S Unit 220,,Fargo,ND,58104,USA,7013068677,,https://www.manta.com/c/mbn6dw1/high-point-aviation,50037-000,Auto Dealers - Antique & Classic,,,False,A+,100.0,1.0,,False,Micro-small,False,3/25/2022 8:41,Search
1230,704,96544542,Thomas F Carlson,38117 Conger Cir,,North Branch,MN,55056,USA,6128240955,,https://www.startribune.com/obituaries/detail/0000297071/,60172-100,Coaching - Business,4/30/2014 0:00,,False,A+,100.0,1.0,0.0,False,Micro-small,False,7/8/2022 12:27,Search
1231,704,96544415,Jay T Schultz,9162 Sycamore Ln N,,Maple Grove,MN,55369,USA,7634209628,,https://www.manta.com/mb_54_B1215_O9F/automotive_exhaust_system_repair_shops/maple_grove_mn,60594-000,Mufflers & Exhaust Systems,4/30/2014 0:00,,False,NR,0.0,,0.0,False,Micro-small,False,3/17/2021 4:44,Search
1232,704,96545031,Ample Financial,1400 Energy Park Dr,,Saint Paul,MN,55108,USA,6517854163,,https://www.yellowpages.com/saint-paul-mn/mip/ample-financial-15145973,20045-000,Investment Advisory Service,1/15/2008 0:00,,False,A+,100.0,,0.0,False,Micro-small,False,8/30/2020 3:51,Search
1233,704,96543909,Lions Gym,3801 France Pl,,Minneapolis,MN,55429,USA,9524747000,,http://www.lionsgym.com/,85310-000,Contractor - Commercial,,12/5/2017 0:00,False,NR,0.0,1.0,,False,Micro-small,False,10/22/2022 8:10,Search
1234,704,96544241,John Gautsche,4634 Indiana Ave N,,Minneapolis,MN,55422,USA,7635355907,,https://www.facebook.com/people/John-Gautsche/100007407675540/,60172-100,Coaching - Business,,,False,A+,100.0,,,False,Micro-small,False,7/3/2020 4:12,Search
1235,704,96543932,New Edge Tool Grinding,21312 150th St NW,,Elk River,MN,55330,USA,7634412126,,https://www.yellowpages.com/elk-river-mn/mip/new-edge-tool-grinding-25790545,50333-000,Hardware - Retail,,,False,A+,100.0,1.0,,False,Micro-small,False,2/26/2022 9:35,Search
1236,704,96543950,P & K Maintenance Inc,20677 Hampshire Way,,Lakeville,MN,55044,USA,9523567803,,https://www.linkedin.com/company/pk-property-services,60478-000,Janitor Service,4/30/2014 0:00,,False,NR,0.0,1.0,0.0,False,Micro-small,False,8/9/2022 8:29,Search
1237,704,96545175,Auto Color,13404 W 3rd St,,Duluth,MN,55808,USA,2184645400,,http://autocolor.cc/,60094-000,Auto Body Repair & Painting,4/30/2014 0:00,,False,NR,0.0,1.0,0.0,False,Micro-small,False,1/29/2022 9:44,Search
1238,704,96544053,"Rosenblatt, Justin L",3601 Park Center Blvd Apt 312,,Minneapolis,MN,55416,USA,9529277020,,https://www.ancestry.com/1940-census/usa/Minnesota/Justin-L-Rosenblatt_3f5t4q,20067-000,Stock & Bond Brokers,4/30/2014 0:00,,False,NR,0.0,1.0,0.0,False,Micro-small,False,2/23/2022 10:21,Search
1239,704,96543983,P & R Auction Liquidators,15777 Jarvis St NW,,Elk River,MN,55330,USA,7634277599,,https://www.yellowpages.com/saint-michael-mn/mip/p-r-auction-liquidators-461193148,60088-000,Auctioneers,4/30/2014 0:00,,False,NR,0.0,1.0,0.0,False,Micro-small,False,1/31/2023 8:46,Search
1240,704,96543954,Multi Di Inc,PO Box 580559,,Minneapolis,MN,55458,USA,9523610670,,https://www.minneapolis.org/things-to-do/,60971-000,Health & Medical - General,4/30/2014 0:00,,False,A+,100.0,1.0,0.0,False,Micro-small,False,10/18/2021 3:53,Search
1241,704,96545082,Care Weed,21591 Edison Cir NW,,Elk River,MN,55330,USA,7634411997,,https://www.yellowpages.com/elk-river-mn/mip/care-weed-464100675,00223-000,Weed Control Service,4/30/2014 0:00,,False,A+,100.0,1.0,0.0,False,Micro-small,False,4/20/2022 8:36,Search
1242,704,96544335,John C Mullan Res,6408 Hill A Way Ct,,Minneapolis,MN,55439,USA,9529440983,,https://health.usnews.com/doctors/john-mullan-490543,60970-100,Physicians - Surgeons & Neurosurgeons,4/30/2014 0:00,,False,NR,0.0,,0.0,False,Micro-small,False,3/21/2021 3:53,Search
1243,704,96544326,Swanke Financial LLC,6897 Boudin St NE,,Prior Lake,MN,55372,USA,9529978900,,https://www.swankefinancial.com/,20045-000,Investment Advisory Service,,,False,A+,100.0,,,False,Micro-small,False,2/17/2021 4:35,Search
1244,704,96544549,Thaemert Auto Repair,17925 County Road 53,,Belle Plaine,MN,56011,USA,9528736108,,https://www.yellowpages.com/belle-plaine-mn/mip/thaemert-auto-repair-25668237,60103-000,Auto Repair & Service,,,False,A+,100.0,,,False,Micro-small,False,7/2/2020 4:06,Search
1245,704,96544810,L & S Professional Cleaning Service,416 3rd Ave SW,,Surrey,ND,58785,USA,7015007036,,https://www.yellowpages.com/surrey-nd/l-s-professional-cleaning,60478-000,Janitor Service,,,False,A+,100.0,1.0,,False,Micro-small,False,3/16/2022 8:53,Search
1246,704,96544550,Then Chubb & Assoc,1318 Mckay Dr NE # 250,,Andover,MN,55304,USA,7632769454,,https://www.yellowpages.com/andover-mn/mip/then-chubb-assoc-470520408,20080-000,Insurance Services,4/30/2014 0:00,,False,A+,100.0,1.0,0.0,False,Micro-small,False,2/6/2022 9:10,Search
1247,704,96545247,Bosacker Welding Repair,22259 376th St,,Le Center,MN,56057,USA,5073574334,,https://www.manta.com/c/mtrmm32/bosacker-welding-repair,60948-000,Welding,,,False,A+,100.0,,,False,Micro-small,False,6/26/2020 4:02,Search
1248,704,96544146,International Translation Service,PO Box 745,,Moorhead,MN,56561,USA,2182337841,,https://www.yellowpages.com/moorhead-mn/mip/international-translation-service-25738554,60901-000,Translators & Interpreters,,,False,A+,100.0,1.0,,False,Micro-small,False,3/5/2022 9:33,Search
1249,704,96545256,Blaine Auto Repair,1550 91st Ave NE Ste 306,,Minneapolis,MN,55449,USA,7637803737,,https://www.blaineautocare.com/,60103-000,Auto Repair & Service,9/7/2010 0:00,9/3/2019 0:00,False,NR,0.0,1.0,0.0,False,Micro-small,False,9/5/2022 8:07,Search
1250,704,96544353,Timm Weiss Construction Company,2500 Pearson Pkwy,,Minneapolis,MN,55444,USA,7635608686,,https://www.buildzoom.com/contractor/timm-weiss-construction-co,10035-000,Contractors - General,1/26/1993 0:00,,False,A+,100.0,,0.0,False,Micro-small,False,5/23/2021 3:54,Search
1251,704,96545280,Camerata LLC,3033 Excelsior Blvd Ste 525,,Minneapolis,MN,55416,USA,9529208958,,http://www.hoigaardvillage.com/,20061-000,Real Estate Developers,3/13/2000 0:00,4/1/2021 0:00,False,NR,0.0,1.0,0.0,False,Micro-small,False,4/20/2021 4:01,Search
1252,704,96544313,Gamco Investors Inc,1337 Saint Clair Ave,,Saint Paul,MN,55105,USA,6513409824,,https://gabelli.com/funds/contact,20046-000,Investment Securities,4/30/2014 0:00,,False,A+,100.0,1.0,0.0,False,Micro-small,False,1/28/2022 9:33,Search
1253,704,96544530,Tolvtvar Llc,1401 67th Ave N Apt 203,,Minneapolis,MN,55430,USA,7634329591,,https://www.superpages.com/minneapolis-mn/bpp/tolvtvar-466459622,60245-000,Computers - Service & Repair,4/30/2014 0:00,,False,NR,0.0,1.0,0.0,False,Micro-small,False,5/15/2022 8:13,Search
1254,704,96544301,Julie Muelken Insurance,14895 Timberglade Cir NE,,Prior Lake,MN,55372,USA,9524478565,,https://www.linkedin.com/in/julie-muelken-2a68466,20080-000,Insurance Services,,,False,A+,100.0,,,False,Micro-small,False,7/3/2020 4:12,Search
1255,704,96544974,Applewood Point,8100 Russell Ave S,,Minneapolis,MN,55431,USA,9528811001,,https://www.applewoodpointe.com/,60729-102,Real Estate Agents,,,False,A+,100.0,1.0,,False,Micro-small,False,7/12/2022 8:33,Search
1256,704,96544802,"Kern, Richard",733 Marquette Ave Ste 1500,,Minneapolis,MN,55402,USA,6122150188,,https://www.linkedin.com/in/richard-kern-57a3b721,20080-000,Insurance Services,,,False,A+,100.0,,,False,Micro-small,False,7/1/2020 4:26,Search
1257,704,96544783,"Kaess, Ashlie",3169 Fernbrook Ln N,,Plymouth,MN,55447,USA,6122164111,,https://www.ameripriseadvisors.com/Ashlie.S.Kaess/?cid=IP_local_google,20045-000,Investment Advisory Service,,,False,A+,100.0,,,False,Micro-small,False,1/26/2021 4:03,Search
1258,704,96544903,Joel's Renovations,3030 8th St SE,,Minot,ND,58701,USA,7016811189,,https://www.manta.com/c/mb8ndxw/joel-s-renovations,10035-000,Contractors - General,,,False,A+,100.0,,,False,Micro-small,False,7/1/2020 4:26,Search
1259,704,96544362,Klocker's Family Farm Inc,13876 Lakeland Rd,,Saint Joseph,MN,56374,USA,3203634306,,https://opencorporates.com/companies/us_mn/ccad4521-aad4-e011-a886-001ec94ffe7f,60733-000,Real Estate Rental Service,4/30/2014 0:00,,False,A+,100.0,1.0,0.0,False,Micro-small,False,9/5/2021 4:01,Search
1260,704,96545011,Appraisal Partners Inc,2680 Snelling Ave N Ste 100,,Saint Paul,MN,55113,USA,7635039354,,https://www.appraisal-partners.com/,60729-102,Real Estate Agents,4/27/2001 0:00,,False,A+,100.0,1.0,0.0,False,Micro-small,False,10/5/2022 8:45,Search
1261,704,96544077,Rose Lighting & Electrical,PO Box 192,,Maple Lake,MN,55358,USA,9528318020,,https://www.superpages.com/maple-lake-mn/bpp/rose-lighting-electrical-464101893,50345-000,House Furnishings & Services,,,False,A+,100.0,,,False,Micro-small,False,7/8/2020 4:45,Search
1262,704,96545167,Aj's Tree & Lawn Service,5755 Cedarwood St NE,,Prior Lake,MN,55372,USA,6122456167,,https://www.allbiz.com/business/ajs-tree-and-lawn-service-612-245-6167,00219-000,Tree Service,,,False,A+,100.0,,,False,Micro-small,False,6/24/2021 4:05,Search
1263,704,96544659,Rory O&#39;Neill Photography,540 Fairview Ave N,,Saint Paul,MN,55104,USA,6123861123,,https://www.yellowpages.com/saint-paul-mn/mip/rory-oneill-photography-495607941,60658-000,Photographers - Portrait,4/30/2014 0:00,,False,NR,0.0,1.0,0.0,False,Micro-small,False,8/12/2022 8:33,Search
1264,704,96544580,Wayde H Bishop Farm,10753 Dodge Mower Rd,,Blooming Prairie,MN,55917,USA,5075832274,,https://www.manta.com/c/mmj84pl/bishop-farms,00128-000,Farms,,,False,A+,100.0,,,False,Micro-small,False,7/2/2020 4:06,Search
1265,704,96544795,Meeker County Motors,100 Parker Ave W,,Dassel,MN,55325,USA,,,https://www.manta.com/c/mbd6lzm/meeker-county-motors,50040-000,Auto Dealers - Used Cars,,,False,NR,0.0,1.0,,False,Micro-small,False,11/17/2021 4:33,Search
1266,704,96544697,Harbinson Consulting Corp,386 Saratoga St S,,Saint Paul,MN,55105,USA,6512537422,,https://www.kimharbinson.com/,60533-000,Management Consultants,4/30/2014 0:00,,False,NR,0.0,,0.0,False,Micro-small,False,3/15/2021 4:04,Search
1267,704,96544767,Ish Elan,3260 County Road 10,,Minneapolis,MN,55429,USA,7632059364,,https://ish-elan.business.site/,60134-000,Beauty Salons,,,False,NR,0.0,1.0,,False,Micro-small,False,6/7/2022 8:10,Search
1268,704,96544100,"Ryan, John B DC",4943 Whispering Way # 1,,Saint Paul,MN,55122,USA,6518959352,,https://www.zocdoc.com/doctor/john-ryan-dc,60205-000,Chiropractors D.C.,4/30/2014 0:00,,False,NR,0.0,1.0,0.0,False,Micro-small,False,1/30/2022 9:16,Search
1269,704,96544911,Mike Lock Service,8320 City Centre Dr,,Saint Paul,MN,55125,USA,6517058062,,https://www.autolocksmithfinder.com/directory/mikes-lock-key-service-listing-6599.aspx,60522-000,Locks & Locksmiths,,8/9/2018 0:00,False,NR,0.0,,,False,Micro-small,False,8/10/2018 4:24,Search
1270,704,96544115,Soyer Builders,1901 W 106th St,,Minneapolis,MN,55431,USA,9528815177,,https://www.yellowpages.com/minneapolis-mn/mip/soyer-builders-25769195,85310-000,Contractor - Commercial,4/30/2014 0:00,11/5/2019 0:00,False,NR,0.0,1.0,0.0,False,Micro-small,False,11/7/2022 9:16,Search
1271,704,96544106,Schreck&#39;s Horseshoeing,25360 Redwing Ave,,Shafer,MN,55074,USA,6512575248,,http://www.minnesotahorsemensdirectory.com/shafer/schrecks-horseshoeing.php,60147-000,Blacksmiths,4/30/2014 0:00,,False,NR,0.0,1.0,0.0,False,Micro-small,False,8/9/2022 8:29,Search
1272,704,96545039,Attention Deficits Support Service,5100 Thimsen Ave,,Minnetonka,MN,55345,USA,9529339926,,https://www.wellness.com/dir/3133103/counselor/mn/minnetonka/attention-deficits-support-service,61006-000,Psychiatrists & Psychiatric Services,4/30/2014 0:00,,False,A+,100.0,1.0,0.0,False,Micro-small,False,3/19/2022 8:30,Search
1273,704,96545222,Bayer Crop Science,400 46th Ave NE Apt 6,,Minot,ND,58703,USA,7018526147,,https://www.manta.com/c/mbsryfg/bayer-crop-science,00128-000,Farms,4/13/2007 0:00,,False,NR,0.0,1.0,0.0,False,Micro-small,False,9/13/2022 8:18,Search
1274,704,96544800,Kgb Financial Group Inc,1 Shannon Dr,,Hastings,MN,55033,USA,6514387922,,https://www.dnb.com/business-directory/company-profiles.k_g_b_financial_group_inc.e64e462e29039b36.html,20085-000,Financial Services,,,False,A+,100.0,1.0,,False,Micro-small,False,2/18/2022 9:10,Search
1275,704,96544272,Hidden Stream Farm Llc,27079 County Road 25,,Elgin,MN,55932,USA,5078762304,,https://hiddenstreamfarm.com/,00128-000,Farms,,,False,A+,100.0,,,False,Micro-small,False,7/3/2020 4:12,Search
1276,704,96544439,Kim's Nail Spa,2904 W 66th St,,Richfield,MN,55423,USA,6128776988,,http://www.kimsnailsparichfield.com/,60134-000,Beauty Salons,,,False,A+,100.0,1.0,,False,Micro-small,False,3/8/2022 9:29,Search
1277,704,96544954,Lakes At Maple Grove By Ry,8413 Norwood Ln N,,Maple Grove,MN,55369,USA,7632734323,,https://www.remax.com/homes-for-sale/mn/maple-grove/lakes-at-maple-grove/neighborhood/556200,10035-000,Contractors - General,4/30/2014 0:00,,False,A+,100.0,1.0,0.0,False,Micro-small,False,9/22/2021 4:11,Search
1278,704,96544250,Kenneth Haggerty,27875 Michael Ave,,Cannon Falls,MN,55009,USA,5072630195,,https://twitter.com/beaconcf?lang=en,60749-000,Court Reporters,4/30/2014 0:00,,False,A+,100.0,1.0,0.0,False,Micro-small,False,1/16/2022 9:13,Search
1279,704,96544833,Meadows of Bloomfield,13818 1/2 Autumnwood Ave,,Rosemount,MN,55068,USA,6513224531,,https://www.realtor.com/realestateandhomes-search/Meadows-of-Bloomfield_Rosemount_MN,60729-102,Real Estate Agents,4/30/2014 0:00,,False,A+,100.0,1.0,0.0,False,Micro-small,False,9/26/2021 3:52,Search
1280,704,96544031,Pfpc Global Fund Service,1700 W 82nd St,,Bloomington,MN,55431,USA,9523460012,,https://www.yellowpages.com/minneapolis-mn/mip/pfpc-global-fund-service-14532605?lid=14532605,20059-000,Pension & Profit Sharing Plans,4/30/2014 0:00,,False,A+,100.0,1.0,0.0,False,Micro-small,False,9/19/2021 3:53,Search
1281,704,96544939,Millblock Properties Llc,6050 Main St,,Rockford,MN,55373,USA,7632761245,,https://www.manta.com/c/mb8wkt6/millblock-properties-llc,60729-102,Real Estate Agents,4/30/2014 0:00,,False,NR,0.0,,0.0,False,Micro-small,False,3/27/2021 4:08,Search
1282,704,96544485,"Khoury, Michael",5850 Opus Pkwy Ste 200,,Minnetonka,MN,55343,USA,9523529209,,https://www.zoominfo.com/p/Michael-Khoury/3054355751,20080-000,Insurance Services,,,False,A+,100.0,,,False,Micro-small,False,7/2/2020 4:06,Search
1283,704,96545127,Chiropractic Associates-Minneapolis,810 Lilac Dr N,,Minneapolis,MN,55422,USA,9524264083,,https://www.healthgrades.com/group-directory/mn-minnesota/golden-valley/chiropractic-associates-of-minneapolis-x89q65,60205-000,Chiropractors D.C.,4/30/2014 0:00,9/16/2019 0:00,False,NR,0.0,,0.0,False,Micro-small,False,9/17/2019 4:21,Search
1284,704,96544543,Thomas Larson Insurance,2599 Cleveland Ave N,,Saint Paul,MN,55113,USA,6512096662,,https://agents.farmers.com/mn/saint-paul/berent-larson?SourceID=AMPALFGMAG&utm_source=GMB&utm_medium=Local&y_source=1_MTU0NzE0My03MTUtbG9jYXRpb24ud2Vic2l0ZQ%3D%3D,20080-000,Insurance Services,4/30/2014 0:00,,False,NR,0.0,,0.0,False,Micro-small,False,8/16/2021 4:06,Search
1285,704,96543936,Northern Select Properties,3721 23rd St S,,Saint Cloud,MN,56301,USA,3202813344,,https://www.yellowpages.com/saint-cloud-mn/mip/northern-select-properties-452525254,60729-102,Real Estate Agents,4/30/2014 0:00,,False,A+,100.0,1.0,0.0,False,Micro-small,False,11/7/2021 3:49,Search
1286,704,96544209,Kazoua Xiong Agency,162 Pennsylvania Ave W Ste B,,Saint Paul,MN,55103,USA,6512242749,,https://www.yellowpages.com/saint-paul-mn/mip/kazoua-xiong-agency-463989073,20080-000,Insurance Services,4/30/2014 0:00,,False,A+,100.0,1.0,0.0,False,Micro-small,False,3/3/2022 9:49,Search
1287,704,96544334,Jmf Enterprises,1418 120th Ave NW,,Minneapolis,MN,55448,USA,7637551374,,https://www.buildzoom.com/contractor/jmf-enterprises-llc,80010-000,Advertising Specialties,,,False,A+,100.0,1.0,,False,Micro-small,False,3/18/2022 8:14,Search
1288,704,96545203,Automotive Wholesaler,462 36th St S,,Fargo,ND,58103,USA,7012937776,,https://www.corwinwholesale.com/,50039-000,Auto Dealers - New Cars,4/30/2014 0:00,7/6/2021 0:00,False,NR,0.0,1.0,0.0,False,Micro-small,False,5/18/2022 8:56,Search
1289,704,96544310,Federal Deposit Insurance Corp,151 Saint Andrews Ct Ste 1210,,Mankato,MN,56001,USA,5073886318,,https://www.fdic.gov/,20080-000,Insurance Services,,,False,A+,100.0,,,False,Micro-small,False,7/3/2020 4:12,Search
1290,704,96544546,Talk Paths Inc,7460 Abbott Ave N,,Minneapolis,MN,55443,USA,7637548688,,https://www.buzzfile.com/business/Talk-Paths-Inc-763-754-8688,60323-000,Electronic Equipment & Suppliers - Service & Repair,,,False,A+,100.0,,,False,Micro-small,False,7/2/2020 4:06,Search
1291,704,96544854,Lasalle Kennels,10707 Crestridge Dr,,Hopkins,MN,55305,USA,6125457814,,https://www.yellowpages.com/hopkins-mn/mip/lasalle-kennels-466847253,60640-000,Parking Facilities,4/30/2014 0:00,7/5/2022 0:00,False,NR,0.0,1.0,0.0,False,Micro-small,False,7/8/2022 12:27,Search
1292,704,96544450,J C Environmental & Demolition,80 Little Canada Rd E Ste F,,Saint Paul,MN,55117,USA,6514846343,,https://www.manta.com/c/mm30jt7/j-c-environmental-and-demolition-inc,10035-000,Contractors - General,,3/27/2018 0:00,False,NR,0.0,,,False,Micro-small,False,3/30/2021 3:56,Search
1293,704,96544086,Gourde Rodney DVM & Anne,103 Oak Leaf Dr,,Albany,MN,56307,USA,3208454809,,https://www.dnb.com/business-directory/company-profiles.gourde_rodney_dvm__anne.454907aa995f3091.html,00222-000,Veterinarians,4/30/2014 0:00,,False,NR,0.0,1.0,0.0,False,Micro-small,False,3/5/2022 9:33,Search
1294,704,96544671,Rice Creek Animal Hospital,6511 Ware Rd,,Circle Pines,MN,55014,USA,6514836128,,http://www.ricecreekvet.com/,00222-000,Veterinarians,,,False,A+,100.0,,,False,Micro-small,False,7/2/2020 4:06,Search
1295,704,96544442,Jeffrey Combs-Allstate Agent,2682 Rice St,,Saint Paul,MN,55113,USA,6517884335,,https://www.showmelocal.com/profile.aspx?bid=14337589,20080-000,Insurance Services,,6/7/2018 0:00,False,NR,0.0,,,False,Micro-small,False,6/8/2021 4:13,Search
1296,704,96544001,Salone Builders & Maintenance Company,6544 Bryant Ave N,,Minneapolis,MN,55430,USA,6122092266,,http://www.salonconstructionminneapolis.com/about-us.html,60134-000,Beauty Salons,4/30/2014 0:00,1/1/2019 0:00,False,NR,0.0,1.0,0.0,False,Micro-small,False,1/7/2022 14:13,Search
1297,704,96545086,Btv Investment Inc,1715 35th St NE,,Rochester,MN,55906,USA,9528541770,,https://www.buzzfile.com/business/Btv-Investments-LLC-952-854-1770,20067-000,Stock & Bond Brokers,1/1/2010 0:00,9/27/2019 0:00,False,NR,0.0,,0.0,False,Micro-small,False,9/28/2019 4:43,Search
1298,704,96544369,Jewel Par LLC,7650 Brooklyn Blvd,,Brooklyn Park,MN,55443,USA,7635611155,,https://opencorporates.com/companies/us_mn/7d705713-97d4-e011-a886-001ec94ffe7f,50740-000,Womens Apparel - Retail,4/30/2014 0:00,,False,NR,0.0,,0.0,False,Micro-small,False,3/17/2021 4:44,Search
1299,704,96544110,Sir Winston Pro Hair Institute,4820 Minnetonka Blvd # 1,,Minneapolis,MN,55416,USA,9529290600,,https://www.manta.com/c/mtwqb96/sir-winston-pro-hair-institute,60134-000,Beauty Salons,,,False,A+,100.0,,,False,Micro-small,False,7/8/2020 4:45,Search
1300,704,96543898,Inspiring Wellness Massage,5842 Bishop Blvd # A,,Fargo,ND,58104,USA,7017291716,,https://www.vagaro.com/inspiringwellnessmassageandreflexology,60543-000,Massage Therapists,,9/17/2019 0:00,False,NR,0.0,,,False,Micro-small,False,9/18/2019 8:08,Search
1301,704,96544514,"Stedman, Alan",9380 Central Ave NE,,Blaine,MN,55434,USA,6516395508,,https://www.manta.com/c/mbsdpbx/stedman-alan,20080-000,Insurance Services,4/30/2014 0:00,,False,NR,0.0,1.0,0.0,False,Micro-small,False,12/13/2021 4:00,Search
1302,704,96543927,Michael J Oliver Insurance,500 Holly Ln Ste 101,,Mankato,MN,56001,USA,5073860808,,https://agents.farmers.com/mn/mankato/michael-oliver?SourceID=AMPALFGMAG&utm_source=GMB&utm_medium=Local&y_source=1_MTU1NDc4OC03MTUtbG9jYXRpb24ud2Vic2l0ZQ%3D%3D,20080-000,Insurance Services,4/30/2014 0:00,,False,A+,100.0,,0.0,False,Micro-small,False,6/12/2021 6:07,Search
1303,704,96544014,Scharber & Sons Inc,2315 W Wayzata Blvd,,Long Lake,MN,55356,USA,9524735634,,https://www.yellowpages.com/long-lake-mn/scharber-and-sons-inc,50298-000,Lawn & Garden Equipment & Supplies,,,False,A+,100.0,,,False,Micro-small,False,4/21/2021 4:37,Search
1304,704,96545002,Arndt Chiropractic,206 Main St S ,,Chatfield,MN,55923,USA,5078673120,,https://www.facebook.com/ArndtChiropractic/,60205-000,Chiropractors D.C.,6/20/2007 0:00,,False,NR,0.0,1.0,0.0,False,Micro-small,False,9/27/2022 8:58,Search
1305,704,96544744,GJW Contracting,8050 Prairie Trl,,Rockford,MN,55373,USA,9523531525,,https://suffolk.edu/redirect.aspx?url=//lisibankter.gq/132rlusuffolk651,10035-000,Contractors - General,,,False,A+,100.0,1.0,,False,Micro-small,False,4/9/2022 8:44,Search
1306,704,96544579,Wave 2000,14670 Hematite St NW,,Anoka,MN,55303,USA,7635768467,,https://www.yellowpages.com/anoka-mn/mip/wave-2000-25767844,10148-100,Retail Stores,,,False,A+,100.0,1.0,,False,Micro-small,False,12/15/2022 9:21,Search
1307,704,96545061,Atlas Technical Service Inc.,4005 W 65th St,,Edina,MN,55435,USA,9522591249,,https://www.yellowpages.com/edina-mn/mip/atlas-technical-services-inc-464014433,60326-000,Employment Agencies,4/30/2014 0:00,,False,A+,100.0,1.0,0.0,False,Micro-small,False,3/9/2022 10:12,Search
1308,704,96544622,Fine Home & Gift Llc,10498 First Timberlane Dr,,Northfield,MN,55057,USA,5076637897,,https://www.yellowpages.com/northfield-mn/mip/fine-home-gift-464016253,10035-000,Contractors - General,,,False,A+,100.0,,,False,Micro-small,False,9/15/2020 4:08,Search
1309,704,96544240,Joel Gregersen Construction,424 Coventry Rd,,Le Sueur,MN,56058,USA,5076653565,,https://www.manta.com/c/mtr293d/joel-gregersen-construction,85313-000,Contractor - Industrial,,5/17/2018 0:00,False,NR,0.0,1.0,,False,Micro-small,False,10/9/2021 4:04,Search
1310,704,96544979,Altair Global,601 Carlson Pkwy Ste 425,,Minnetonka,MN,55305,USA,9524731684,,https://www.altairglobal.com/global-locations/,60729-102,Real Estate Agents,12/27/2012 0:00,,False,A+,100.0,1.0,0.0,False,Micro-small,False,3/19/2022 8:30,Search
1311,704,96544749,Health Source of Lakeville,17725 Kenwood Trl # 3,,Lakeville,MN,55044,USA,9529850411,,https://www.healthsourcechiro.com/lakeville,60971-000,Health & Medical - General,4/30/2014 0:00,,False,NR,0.0,,0.0,False,Micro-small,False,3/15/2021 4:05,Search
1312,704,96544440,Jane L Stern Lp,3137 Hennepin Ave,,Minneapolis,MN,55408,USA,6129289001,,https://start.cortera.com/company/research/l2j5rvm8k/jane-l-stern-lp/,61006-000,Psychiatrists & Psychiatric Services,4/30/2014 0:00,,False,A+,100.0,1.0,0.0,False,Micro-small,False,10/6/2021 4:13,Search
1313,704,96544465,Kari Kay Photography,15666 20th St SE,,Arthur,ND,58006,USA,7013067966,,https://www.facebook.com/karikayphotography/,60657-000,Photographers - Commercial,4/30/2014 0:00,,False,NR,0.0,1.0,0.0,False,Micro-small,False,11/17/2021 4:34,Search
1314,704,96544895,McGraw Properties LLC,114 S Swift Ave,,Litchfield,MN,55355,USA,3205937386,,https://www.bizapedia.com/mn/mcgraw-properties-llc.html,60729-102,Real Estate Agents,4/23/2008 0:00,8/9/2018 0:00,False,NR,0.0,,0.0,False,Micro-small,False,8/10/2018 4:24,Search
1315,704,96544081,Stokman Insurance Services,300 Main St N,,Minnesota Lake,MN,56068,USA,5074623174,,https://www.yellowpages.com/minnesota-lake-mn/mip/stokman-insurance-services-469389405,20080-000,Insurance Services,4/30/2014 0:00,,False,NR,0.0,,0.0,False,Micro-small,False,8/8/2021 3:58,Search
1316,704,96544260,Joshua Anew Boutique & Resource Center,350 Water St,,Excelsior,MN,55331,USA,9524745066,,https://www.instagram.com/anew.boutique/?hl=en,50740-000,Womens Apparel - Retail,4/30/2014 0:00,,False,NR,0.0,,0.0,False,Micro-small,False,3/21/2021 3:53,Search
1317,704,96544150,Ivy Garden,1500 Sunshine Cir,,Chaska,MN,55318,USA,9523683888,,https://m.facebook.com/people/The-Ivy-Garden/100067910882497/,00156-000,Landscape Designers,,,False,A+,100.0,1.0,,False,Micro-small,False,7/8/2022 12:28,Search
1318,704,96544897,Peternell Transmission,10521 Ginseng Ln,,Hanover,MN,55341,USA,7634987675,,https://www.loc8nearme.com/minnesota/hanover/peternell-transmission/5360760/,60902-000,Transmissions - Automobile,4/30/2014 0:00,,False,A+,100.0,1.0,0.0,False,Micro-small,False,2/5/2022 9:32,Search
1319,704,96544141,Lemondrops Photography-Design,205 Park Dr,,Harwood,ND,58042,USA,7012006048,,https://www.yellowpages.com/harwood-nd/mip/lemondrops-photography-design-475873473,60658-000,Photographers - Portrait,4/30/2014 0:00,,False,NR,0.0,,0.0,False,Micro-small,False,3/23/2021 4:01,Search
1320,704,96544283,"Taube, Michael J",8621 Eagle Point Blvd,,Lake Elmo,MN,55042,USA,6517302479,,https://www.yellowpages.com/lake-elmo-mn/mip/taube-michael-j-479020986,20045-000,Investment Advisory Service,4/30/2014 0:00,,False,NR,0.0,1.0,0.0,False,Micro-small,False,11/17/2022 9:21,Search
1321,704,96543946,Novotny Farm,86403 County Road 16,,Hector,MN,55342,USA,3208482788,,https://www.dandb.com/businessdirectory/novotnyfarm-hector-mn-13278879.html,60729-102,Real Estate Agents,4/30/2014 0:00,,False,A+,100.0,1.0,0.0,False,Micro-small,False,3/19/2022 8:30,Search
1322,704,96544195,Lachner Sons Carpet Sales,7201 64th Ave N,,Minneapolis,MN,55428,USA,7635331792,,https://www.buzzfile.com/business/Lachner-Sons-Carpet-Sales-763-533-1792,50133-000,Carpet & Rug Dealers - New,4/30/2014 0:00,,False,NR,0.0,,0.0,False,Micro-small,False,3/22/2021 4:01,Search
1323,704,96544130,Jetset Promotions,7304 Laredo Dr,,Chanhassen,MN,55317,USA,9529499254,,https://www.jetsetpromo.com/,80010-000,Advertising Specialties,,,False,A+,100.0,1.0,,False,Micro-small,False,3/18/2022 8:14,Search
1324,704,96544103,Samanthaxclk Photography,100 W Diamond Lake Rd Apt 115,,Minneapolis,MN,55419,USA,6122053707,,https://samantha-clarke.com/,60658-000,Photographers - Portrait,1/1/2011 0:00,,False,A+,100.0,1.0,0.0,False,Micro-small,False,10/18/2021 3:53,Search
1325,704,96544912,Mike Segars Engine Rebuilding,9010 Columbus Ave S,,Minneapolis,MN,55420,USA,9528545786,,https://www.manta.com/c/mmsml86/mike-segars-engine-rebuilding-inc,60103-000,Auto Repair & Service,4/30/2014 0:00,,False,A+,100.0,1.0,0.0,False,Micro-small,False,8/2/2022 8:44,Search
1326,704,96544933,Mike's Mow & Grow,16484 120th St,,Brownton,MN,55312,USA,3205875877,,https://www.manta.com/c/mtrfvrn/mike-s-mow-grow,00155-000,Landscape Contractors,4/30/2014 0:00,,False,A+,100.0,1.0,0.0,False,Micro-small,False,11/26/2021 3:56,Search
1327,704,96545290,Blilie Aviation,16825 58th R St SE,,Walcott,ND,58077,USA,7014692207,,https://www.facebook.com/blilieaviation/,65114-000,Aviation Services,7/24/2012 0:00,,False,A+,100.0,1.0,0.0,False,Micro-small,False,10/24/2021 3:54,Search
1328,704,96544273,Hoffman Group Inc,26610 Miesville Trl,,Cannon Falls,MN,55009,USA,5072632277,,https://www.linkedin.com/in/mike-hoffman-67b5ba13,80450-000,Lumber - Wholesale,4/30/2014 0:00,,False,A+,100.0,1.0,0.0,False,Micro-small,False,9/9/2021 4:03,Search
1329,704,96544879,Main Beam Construction,2932 5th St W Unit J,,West Fargo,ND,58078,USA,2187902774,,https://northdakota.ltddir.com/companies/main-beam-construction/,10035-000,Contractors - General,5/10/2013 0:00,12/15/2017 0:00,False,NR,0.0,,0.0,False,Micro-small,False,12/23/2020 12:19,Search
1330,704,96544180,Island Threaputic Massage,2931 E Lake St Ste 201,,Minneapolis,MN,55406,USA,6127292317,,https://islandtherapeuticmn.com/,60543-000,Massage Therapists,4/30/2014 0:00,,False,NR,0.0,,0.0,False,Micro-small,False,3/17/2021 4:44,Search
1331,704,96544855,Lightning Lube,1516 S Broadway,,Minot,ND,58701,USA,7018399050,,https://www.facebook.com/lightninglube/,60101-000,Auto Machine Shops,8/18/2009 0:00,,False,A+,100.0,1.0,0.0,False,Micro-small,False,4/28/2022 8:18,Search
1332,704,96545094,Broadband Dm,117 Division St W,,New Richland,MN,56072,USA,5074659929,,https://www.b2byellowpages.com/company-information/301382756-broadband-dm.html,60280-000,Data Processing Service,4/30/2014 0:00,7/6/2021 0:00,False,NR,0.0,1.0,0.0,False,Micro-small,False,2/1/2022 9:32,Search
1333,704,96545214,Beartooth Design Inc,2315 Periwinkle Ave N,,Stillwater,MN,55082,USA,6514361787,,https://www.yellowpages.com/stillwater-mn/mip/beartooth-design-inc-25692223,60413-000,Graphic Designers,12/20/2002 0:00,,False,NR,0.0,1.0,0.0,False,Micro-small,False,9/25/2022 8:38,Search
1334,704,96544496,Luggage & Leather,1415 Fairfield Rd S,,Minnetonka,MN,55305,USA,9524172988,,https://www.luggagepros.com/,50402-000,Luggage - Retail,4/30/2014 0:00,,False,A+,100.0,1.0,0.0,False,Micro-small,False,3/25/2022 8:41,Search
1335,704,96544679,Senior Support & Care LLC,4019 Linden Hills Blvd,,Minneapolis,MN,55410,USA,6126697999,,http://www.seniorsupportandcare.com/,60441-000,Home Health Services,4/30/2014 0:00,,False,A+,100.0,1.0,0.0,False,Micro-small,False,10/24/2021 3:54,Search
1336,704,96544416,Jim Sloan Inc,722 Northern Heights Dr NE,,Rochester,MN,55906,USA,5072881749,,https://www.linkedin.com/in/jim-sloan-7094608,60235-000,"Computers Hardware, Software & Services",,,False,A+,100.0,1.0,,False,Micro-small,False,2/19/2022 9:29,Search
1337,704,96544026,Points West Carriage Homes,1661 Prescott Ct,,Chaska,MN,55318,USA,9524482195,,https://www.remax.com/homes-for-sale/mn/chaska/points-west-carriage/neighborhood/376269,10035-000,Contractors - General,4/30/2014 0:00,,False,NR,0.0,1.0,0.0,False,Micro-small,False,4/2/2022 8:47,Search
1338,704,96544653,"Fitzer, Kris",7362 University Ave NE Ste 202,,Minneapolis,MN,55432,USA,7635719028,,https://www.linkedin.com/in/krislfitzer,20045-000,Investment Advisory Service,,,False,A+,100.0,,,False,Micro-small,False,7/2/2020 4:06,Search
1339,704,96544013,Scarves By Tracey J,101 Railroad Ave N,,Leonard,ND,58052,USA,7016459405,,https://clothing-stores.cmac.ws/scarves-by-tracey-j/185652/,55093-000,Clothing - Retail,,,False,A+,100.0,,,False,Micro-small,False,7/9/2020 4:10,Search
1340,704,96543919,M T F,2615 Hayes St NE,,Minneapolis,MN,55418,USA,6127890561,,https://www.mft59.org/,60971-000,Health & Medical - General,4/30/2014 0:00,,False,NR,0.0,,0.0,False,Micro-small,False,6/21/2021 3:58,Search
1341,704,96543952,Motor Car Auto Carriers,9250 Ideal Ave S Ste 2,,Cottage Grove,MN,55016,USA,6514582900,,http://motorcarautocarriers.com/,60101-000,Auto Machine Shops,4/30/2014 0:00,,False,A+,100.0,1.0,0.0,False,Micro-small,False,10/18/2021 3:53,Search
1342,704,96544025,Point Restaurant,12370 Point Douglas Dr S,,Hastings,MN,55033,USA,6514372144,,https://www.facebook.com/people/The-Point-Restaurant-of-Hastings-MN/100070835680208/,50544-000,Restaurants,4/30/2014 0:00,,False,A+,100.0,1.0,0.0,False,Micro-small,False,10/15/2021 4:11,Search
1343,704,96544339,Jmc Builders Dev,3636 Quail Rd NE,,Sauk Rapids,MN,56379,USA,3202031398,,https://www.zoominfo.com/c/jmc-builders-dev/1104601303,60729-102,Real Estate Agents,,,False,A+,100.0,,,False,Micro-small,False,7/3/2020 4:12,Search
1344,704,96544048,DNT Locks & Keys,3015 7th St W,,West Fargo,ND,58078,USA,7013180351,,https://northdakota.ltddir.com/companies/dnt-locks-and-keys/,60522-000,Locks & Locksmiths,12/21/2012 0:00,9/10/2019 0:00,False,NR,0.0,,0.0,False,Micro-small,False,9/11/2019 5:49,Search
1345,704,96545123,Dahl Chiropractic Service,320 Gramercy Ave # 2,,Minneapolis,MN,55405,USA,6123547577,,https://dahlchiro.com/,60205-000,Chiropractors D.C.,4/30/2014 0:00,,False,A+,100.0,1.0,0.0,False,Micro-small,False,9/24/2021 3:48,Search
1346,704,96544681,Roger Mies Agency,95 Hassan St SE,,Hutchinson,MN,55350,USA,3205874989,,https://www.yellowpages.com/hutchinson-mn/mip/roger-mies-agency-541146100,20080-000,Insurance Services,4/30/2014 0:00,,False,NR,0.0,1.0,0.0,False,Micro-small,False,3/2/2022 10:32,Search
1347,704,96544764,Ijes Llc,721 6th Ave N,,Saint Cloud,MN,56303,USA,3202031514,,https://www.dnb.com/business-directory/company-profiles.ijes_llc.8829988d2e1f0c0624af56e7610f4a3f.html,60172-100,Coaching - Business,,9/9/2021 0:00,False,NR,0.0,1.0,,False,Micro-small,False,9/11/2021 4:05,Search
1348,704,96544051,Robert Brown Photography,PO Box 240216,,Saint Paul,MN,55124,USA,6514233321,,https://www.buzzfile.com/business/Robert-Brown-Photography-952-423-3321,60658-000,Photographers - Portrait,4/30/2014 0:00,7/17/2018 0:00,False,NR,0.0,,0.0,False,Micro-small,False,7/20/2021 4:05,Search
1349,704,96544774,Kay's By Appointment Only Hair,22075 Jivaro St NW,,Anoka,MN,55303,USA,7637536827,,https://www.buzzfile.com/business/Kay!s-By-Appointment-Only-Hair-Salon-763-753-6827,60134-000,Beauty Salons,4/30/2014 0:00,,False,A+,100.0,1.0,0.0,False,Micro-small,False,4/8/2022 8:24,Search
1350,704,96544002,N T Intl Inc,5155 E River Rd Ste 406,,Minneapolis,MN,55421,USA,7635021085,,https://www.linkedin.com/company/nt-international,10168-000,Water Main Contractors,4/30/2014 0:00,,False,NR,0.0,,0.0,False,Micro-small,False,3/27/2021 4:08,Search
1351,704,96544705,Grannes & Assoc,PO Box 1796,,Minnetonka,MN,55345,USA,6122501555,,https://www.allbiz.com/business/grannes-associates-612-250-1555,60326-000,Employment Agencies,4/30/2014 0:00,,False,A+,100.0,1.0,0.0,False,Micro-small,False,6/4/2022 8:45,Search
1352,704,96544703,Good Water CO,14164 Northdale Blvd,,Rogers,MN,55374,USA,7634280704,,https://www.yellowpages.com/rogers-mn/mip/good-water-co-470512931,50758-000,Grocery - Bulk Food Stores,4/30/2014 0:00,,False,NR,0.0,1.0,0.0,False,Micro-small,False,3/5/2022 9:32,Search
1353,704,96544108,Sea Holdings LLC,8947 Vandegriff Way,,Osseo,MN,55311,USA,7634207317,,https://www.buzzfile.com/business/Sea-Holdings-LLC-763-420-7317,20017-000,Holding Companies,,,False,A+,100.0,1.0,,False,Micro-small,False,4/26/2022 8:19,Search
1354,704,96545058,Aptus Corp,556 25th Ave N,,Saint Cloud,MN,56303,USA,3202401033,,https://www.yellowpages.com/saint-cloud-mn/mip/aptus-corp-16190476,60246-100,Computers - Programming,4/30/2014 0:00,,False,NR,0.0,,0.0,False,Micro-small,False,2/21/2021 3:57,Search
1355,704,96544618,Stripes & Stuff Auto Trim Inc,2169 116th St NE,,Monticello,MN,55362,USA,7634274004,,https://www.stripesandstuffmn.com/,60180-000,Car Wash & Polish,4/30/2014 0:00,,False,NR,0.0,1.0,0.0,False,Micro-small,False,1/6/2023 9:13,Search
1356,704,96543885,Downtown Key Service,248 7th St W,,Saint Paul,MN,55102,USA,6513096053,,http://www.katkeys.com/,72800-000,Key Duplication and Cutting,4/30/2014 0:00,6/24/2016 0:00,False,NR,0.0,,0.0,False,Micro-small,False,7/1/2019 3:52,Search
1357,704,96543918,Luther Place Condominium Assn,2250 Luther Pl Ofc 100,,Saint Paul,MN,55108,USA,6516440487,,https://www.aplaceformom.com/community/luther-place-condominium-assn-67921,60729-102,Real Estate Agents,4/30/2014 0:00,,False,A+,100.0,1.0,0.0,False,Micro-small,False,2/6/2022 9:10,Search
1358,704,96544768,Itasca Mortgage,3833 Lyndale Ave S,,Minneapolis,MN,55409,USA,6128211331,,https://compacom.com/companies/itasca-mortgage/minneapolis-mn,25053-000,Mortgage Bankers,4/30/2014 0:00,,False,NR,0.0,,0.0,False,Micro-small,False,3/17/2021 4:44,Search
1359,704,96544257,Kokou Anani Patient,4204 Shirlee Ln N,,Saint Paul,MN,55126,USA,6514140129,,https://www.superpages.com/saint-paul-mn/bpp/amp/kokou-anani-patient-468922553,60971-000,Health & Medical - General,4/30/2014 0:00,,False,NR,0.0,,0.0,False,Micro-small,False,3/22/2021 4:01,Search
1360,704,96544654,Retirement Planning & Management Inc,19293 Ireland Way,,Lakeville,MN,55044,USA,6514601231,,https://www.dandb.com/businessdirectory/retirementplanningandmanagementinc.-lakeville-mn-2424621.html,20045-000,Investment Advisory Service,6/2/1997 0:00,,False,A+,100.0,,0.0,False,Micro-small,False,12/6/2020 3:57,Search
1361,704,96544482,Kari Home Builders Inc,7350 233rd St N,,Forest Lake,MN,55025,USA,6514644938,,https://www.manta.com/c/mmlgj1r/kari-home-builders-inc,85310-000,Contractor - Commercial,4/30/2014 0:00,10/14/2021 0:00,False,NR,0.0,1.0,0.0,False,Micro-small,False,10/16/2021 4:13,Search
1362,704,96544902,Jobplex Inc,4023 Sunset Blvd,,Minneapolis,MN,55416,USA,9529209616,,https://www.jobplex.com/,60326-000,Employment Agencies,,6/18/2018 0:00,False,NR,0.0,,,False,Micro-small,False,6/22/2021 4:12,Search
1363,704,96544396,Hollan Irrigation,13319 2nd Ave S,,Zimmerman,MN,55398,USA,7634984204,,https://www.facebook.com/hollanirrigation/,00155-000,Landscape Contractors,,,False,A+,100.0,1.0,,False,Micro-small,False,7/20/2022 9:11,Search
1364,704,96544603,Victor Gardens,14595 Victor Hugo Blvd N,,Hugo,MN,55038,USA,6517628451,,https://www.remax.com/homes-for-sale/mn/hugo/victor-gardens/neighborhood/637951,10035-000,Contractors - General,4/30/2014 0:00,,False,NR,0.0,,0.0,False,Micro-small,False,7/11/2021 4:09,Search
1365,704,96543879,Kim Spillum Interior Design,4125 Empire Ln N,,Minneapolis,MN,55446,USA,6123174600,,https://www.houzz.com/professionals/interior-designers-and-decorators/kim-spillum-interior-design-inc-pfvwus-pf~1291946149,60470-000,Interior Decorators & Designers,,,False,A+,100.0,1.0,,False,Micro-small,False,1/5/2023 9:23,Search
1366,704,96545140,C & J All Purpose House Clean,780 Countryview Ave,,Owatonna,MN,55060,USA,5074518829,,http://carriescleaningservice.com/,60478-000,Janitor Service,,12/15/2007 0:00,False,NR,0.0,,,False,Micro-small,False,3/19/2018 4:34,Search
1367,704,96544746,I & E Millwork Inc,11183 Excelsior Blvd,,Hopkins,MN,55343,USA,9529799224,,https://www.handle.com/supplier/i-and-e-millwork-inc-226d/,30401-000,Millwork,,,False,A+,100.0,1.0,,False,Micro-small,False,6/10/2022 8:24,Search
1368,704,96544153,Haugen Photo,1215 46th Ave N,,Fargo,ND,58102,USA,7013710896,,https://www.facebook.com/haugenconstruction/,60657-000,Photographers - Commercial,,,False,A+,100.0,1.0,,False,Micro-small,False,10/16/2021 4:13,Search
1369,704,96544308,Golden Stain Interiors Inc,3445 Washington Dr,,Eagan,MN,55122,USA,6514526089,,https://www.primebuyersreport.org/company/dakota-county-mn/anoka-county/interior-designers/golden-stain-interiors-inc/,60470-000,Interior Decorators & Designers,4/30/2014 0:00,,False,NR,0.0,,0.0,False,Micro-small,False,3/13/2021 4:08,Search
1370,704,96544121,Incredible Huck Construction,1125 12th St NW,,Minot,ND,58703,USA,7015090213,,https://www.yellowpages.com/minot-nd/mip/incredible-huck-construction-482017210,10035-000,Contractors - General,,,False,A+,100.0,,,False,Micro-small,False,8/19/2020 4:31,Search
1371,704,96544435,Kehlenbeck Consulting,2615 Brookridge Ave,,Minneapolis,MN,55422,USA,7635139241,,https://www.manta.com/c/mm3ynvf/kehlenbeck-consulting,50173-000,Computers - Dealers,4/30/2014 0:00,,False,NR,0.0,1.0,0.0,False,Micro-small,False,11/1/2022 8:12,Search
1372,704,96544608,Wayzta Properties,1350 Budd Ave,,Maple Plain,MN,55359,USA,7634794417,,https://www.realtor.com/realestateandhomes-search/Maple-Plain_MN,60729-102,Real Estate Agents,4/30/2014 0:00,,False,NR,0.0,1.0,0.0,False,Micro-small,False,11/3/2022 8:23,Search
1373,704,96543979,Oriental Rug Guy,223 E Diamond Lake Rd,,Minneapolis,MN,55419,USA,6128011959,,https://carpet-and-rug-dealers.cmac.ws/oriental-rug-guy/7184/,50133-000,Carpet & Rug Dealers - New,,12/11/2017 0:00,False,NR,0.0,,,False,Micro-small,False,12/15/2020 4:06,Search
1374,704,96544489,Kohn Commercial Real Estate,12820 54th Ave N,,Minneapolis,MN,55442,USA,7635599490,,https://www.manta.com/c/mm2v2gv/kohns-commercial-real-estate,60729-102,Real Estate Agents,,,False,A+,100.0,,,False,Micro-small,False,7/2/2020 4:06,Search
1375,704,96544834,Melissa Lyn Portraits Llc,18863 Joplin Ave,,Lakeville,MN,55044,USA,6127561449,,https://www.melissalynportraits.com/,60658-000,Photographers - Portrait,11/1/2004 0:00,,False,NR,0.0,1.0,0.0,False,Micro-small,False,9/27/2022 8:58,Search
1376,704,96544599,Vue Properties,422 Wheelock Pkwy W,,Saint Paul,MN,55117,USA,6514934799,,https://www.manta.com/c/mbdb2wg/vue-properties,60729-102,Real Estate Agents,4/30/2014 0:00,,False,NR,0.0,1.0,0.0,False,Micro-small,False,11/3/2022 8:23,Search
1377,704,96545141,C R M Service,57 N Broadway,,Pelican Rapids,MN,56572,USA,2188632113,,https://www.dnb.com/business-directory/company-profiles.crm_services_llc.004b96170e74a31680cb327da7528426.html,60326-000,Employment Agencies,3/6/2013 0:00,,False,NR,0.0,1.0,0.0,False,Micro-small,False,9/27/2022 8:58,Search
1378,704,96544261,Julia H Konrardy,5748 Logan Ave S,,Minneapolis,MN,55419,USA,6129294738,,https://www.buzzfile.com/business/Julia-H-Konrardy-612-929-4738,60172-100,Coaching - Business,4/30/2014 0:00,,False,NR,0.0,1.0,0.0,False,Micro-small,False,5/5/2022 8:23,Search
1379,704,96544205,"Johnson, Rackne",1408 Kenwood Ave,,Duluth,MN,55811,USA,2187293689,,https://meredithfuneralhome.com/obituaries/jennifer-congdon-johnson.117010,20080-000,Insurance Services,,,False,NR,0.0,1.0,,False,Micro-small,False,6/5/2022 8:16,Search
1380,704,96545250,Brkm Lindemann Properties Inc,3032 Kagen Ave NE,,Saint Michael,MN,55376,USA,7634970889,,https://www.allbiz.com/business/brkm-lindemann-properties-inc-763-497-0889,60729-102,Real Estate Agents,4/30/2014 0:00,,False,NR,0.0,,0.0,False,Micro-small,False,2/27/2021 4:07,Search
1381,704,96544233,J M C Motorcycles,12375 Zinran Ave,,Savage,MN,55378,USA,9527460776,,https://www.facebook.com/profile.php?id=100063782125433&locale=hi_IN,50441-000,Motorcycles - Repairing & Service,,8/29/2019 0:00,False,NR,0.0,,,False,Micro-small,False,8/30/2019 4:29,Search
1382,704,96544529,Smith & Forbes Real Estate Grp,8750 90th St S Ste 201,,Cottage Grove,MN,55016,USA,6513301741,,https://www.dnb.com/business-directory/company-profiles.smith__forbes_real_estate_group.1590dd026a7585ca7966fee129944ba5.html,60729-102,Real Estate Agents,4/30/2014 0:00,,False,A+,100.0,1.0,0.0,False,Micro-small,False,10/24/2021 3:54,Search
1383,704,96544280,Sfo Technology Professionals,901 Marquette Ave,,Minneapolis,MN,55402,USA,6122593133,,https://www.manta.com/c/mmgww88/sfo-technology-professionals,60235-000,"Computers Hardware, Software & Services",1/1/2003 0:00,,False,A+,100.0,1.0,0.0,False,Micro-small,False,10/18/2021 3:53,Search
1384,704,96544063,Global Tech Consultants Inc,3025 Harbor Ln N Ste 324,,Minneapolis,MN,55447,USA,7634320848,,"https://www.glassdoor.com/Overview/Working-at-Global-Tech-Consultants-EI_IE423170.11,34.htm",60246-100,Computers - Programming,,,False,A+,100.0,1.0,,False,Micro-small,False,3/23/2022 8:49,Search
1385,704,96545125,Cerren A Perkins,2227 21st Ave SE,,Rochester,MN,55904,USA,5072668709,,https://www.linkedin.com/in/cerren-a-perkins-9b00b98,15035-000,Handyman Services,,,False,A+,100.0,1.0,,False,Micro-small,False,8/19/2021 4:22,Search
1386,704,96545158,Alavy Buick,12210 51st Ave N,,Minneapolis,MN,55442,USA,7635510542,,https://www.linkedin.com/in/buick-alavy-00718a18,50039-000,Auto Dealers - New Cars,4/30/2014 0:00,,False,NR,0.0,1.0,0.0,False,Micro-small,False,11/16/2021 3:59,Search
1387,704,96544917,Modern Salon,10625 France Ave S,,Minneapolis,MN,55431,USA,6126169996,,https://bespokehairartisans.com/,60134-000,Beauty Salons,4/30/2014 0:00,,False,A+,100.0,1.0,0.0,False,Micro-small,False,3/4/2022 9:47,Search
1388,704,96545151,Aerial Tree Service LLC,19915 Kiowa St NW,,Anoka,MN,55303,USA,7632387095,,https://www.yellowpages.com/anoka-mn/mip/aerial-tree-service-480901120,00219-000,Tree Service,8/6/2004 0:00,,False,A+,100.0,1.0,0.0,False,Micro-small,False,4/7/2022 9:01,Search
1389,704,96545041,Auto Locks & Locksmith,13541 Grove Dr,,Maple Grove,MN,55311,USA,7638985356,,https://mrlocksmithmn.com/locksmith-maple-grove-mn/,60522-000,Locks & Locksmiths,4/30/2014 0:00,,False,A+,100.0,1.0,0.0,False,Micro-small,False,5/21/2022 8:15,Search
1390,704,96544934,Minnesota Computers For School,970 Pickett St N,,Bayport,MN,55003,USA,6517792816,,https://www.manta.com/c/mm7qs50/the-minnesota-computers-for-school,60245-000,Computers - Service & Repair,10/21/2004 0:00,,False,NR,0.0,1.0,0.0,False,Micro-small,False,8/15/2022 8:03,Search
1391,704,96544042,Res-Q Healthcare Systems Inc,1614 Gettysburg Ave N,,Minneapolis,MN,55427,USA,7635120385,,https://resqmedical.com/,50173-000,Computers - Dealers,4/30/2014 0:00,6/22/2021 0:00,False,NR,0.0,,0.0,False,Micro-small,False,6/24/2021 4:06,Search
1392,704,96545233,Blue 5 Design,7090 Utica Ln,,Chanhassen,MN,55317,USA,9529499602,,https://www.yellowpages.com/chanhassen-mn/mip/blue-5-design-25753796,30614-000,Signs,8/5/2008 0:00,,False,A+,100.0,1.0,,False,Micro-small,False,9/2/2021 3:56,Search
1393,704,96544720,Lila Nelson Real Estate Llc,5710 Blake Rd S,,Edina,MN,55436,USA,9523034556,,https://www.manta.com/c/mrslh51/lila-nelson-real-estate-llc,60729-102,Real Estate Agents,12/12/2007 0:00,9/3/2019 0:00,False,NR,0.0,,0.0,False,Micro-small,False,9/4/2019 8:20,Search
1394,704,96543996,Ronald the Locksmith Edina,6328 Warren Ave S,,Edina,MN,55439,USA,6122162523,,https://www.247locksmiths.io/local/ronald-the-key-man-1274-w-50th-st-10971.html,60522-000,Locks & Locksmiths,,,False,A+,100.0,1.0,,False,Micro-small,False,3/16/2022 8:53,Search
1395,704,96544452,"Knoll, Peter",4350 Baker Rd Ste 250,,Minnetonka,MN,55343,USA,9526461648,,http://www.oklutheran.org/,20080-000,Insurance Services,,,False,NR,0.0,1.0,,False,Micro-small,False,5/18/2022 8:56,Search
1396,704,96544183,J R Bresnahan,9448 Lyndale Ave S,,Minneapolis,MN,55420,USA,9528881570,,https://www.superpages.com/minneapolis-mn/bpp/j-r-bresnahan-459356560,10035-000,Contractors - General,4/30/2014 0:00,7/1/2019 0:00,False,NR,0.0,1.0,0.0,False,Micro-small,False,7/8/2022 12:27,Search
1397,704,96544965,"Alvarez, Nancy",993 Robert St S,,Saint Paul,MN,55118,USA,6514575289,,https://www.linkedin.com/in/nancy-alvarez-3b936b156,10035-000,Contractors - General,4/30/2014 0:00,,False,NR,0.0,,0.0,False,Micro-small,False,1/19/2021 3:46,Search
1398,704,96545206,Berger Custom Woodworks LLC,9173 65th St SE,,Clear Lake,MN,55319,USA,3207432784,,https://www.buzzfile.com/business/Berger-Custom-Woodworks-320-743-2784,50291-000,Furniture - Retail,12/6/2006 0:00,,False,A+,100.0,1.0,0.0,False,Micro-small,False,4/27/2022 8:41,Search
1399,704,96544909,Meuwissen,8508 Virginia Rd,,Bloomington,MN,55438,USA,6123886534,,https://www.linkedin.com/in/joe-meuwissen-68831644,60729-102,Real Estate Agents,4/30/2014 0:00,,False,NR,0.0,,0.0,False,Micro-small,False,3/24/2021 4:32,Search
1400,704,96544789,Knapp Radio & Television,86 Gillard Ave SE,,Buffalo,MN,55313,USA,9524748819,,https://www.manta.com/c/mm7jpn7/knapp-radio-television,50651-000,Television & Radio - Dealers,,,False,A+,100.0,,,False,Micro-small,False,7/1/2020 4:27,Search
1401,704,96545235,Bob Polifka Construction,9998 155th St,,Glencoe,MN,55336,USA,3208646268,,https://www.manta.com/c/mm29jnw/bob-polifka-construction,10035-000,Contractors - General,1/1/1999 0:00,,False,A+,100.0,,0.0,False,Micro-small,False,6/27/2021 4:01,Search
1402,704,96544286,Thoeles Garage,PO Box 212,,Hamburg,MN,55339,USA,9524673527,,https://us-business.info/directory/hamburg-mn/auto_repair_and_service/,60103-000,Auto Repair & Service,4/30/2014 0:00,,False,A+,100.0,1.0,0.0,False,Micro-small,False,4/15/2022 8:41,Search
1403,704,96544477,Lim's Nails,4 Shady Oak Rd S,,Hopkins,MN,55343,USA,9523033464,,https://www.facebook.com/people/Lims-Nail/100054656400327/,60134-000,Beauty Salons,4/30/2014 0:00,,False,A+,100.0,1.0,0.0,False,Micro-small,False,11/26/2021 3:56,Search
1404,704,96544474,Legacy Endeavors,2835 Rice St,,Saint Paul,MN,55113,USA,6515286462,,https://legacyendeavors.com/,60617-000,Nursing Homes,4/30/2014 0:00,,False,NR,0.0,1.0,0.0,False,Micro-small,False,5/12/2022 8:37,Search
1405,704,96544052,Rockstar Realty Inc,11215 Frontier Cir,,Becker,MN,55308,USA,7632624497,,https://www.cylex.us.com/company/rockstar-realty-inc-34343850.html,60729-102,Real Estate Agents,1/1/2009 0:00,,False,A+,100.0,1.0,0.0,False,Micro-small,False,2/5/2022 9:32,Search
1406,704,96545205,Bison Detailing & Repair,5331 Amber Valley Pkwy S,,Fargo,ND,58104,USA,7015268349,,https://auto-detailing-services.cmac.ws/bison-detailing-repair/28048/,60096-000,Auto Detailing,4/8/2013 0:00,4/8/2018 0:00,False,NR,0.0,,0.0,False,Micro-small,False,4/13/2021 4:06,Search
1407,704,96544264,Rhodes Financial Services,16735 43rd Ave N,,Minneapolis,MN,55446,USA,7635591734,,https://www.statefarm.com/agent/us/mn/minnetonka/eric-rhodes-72jrq1ys000?cmpid=aslz_blm_0001,20045-000,Investment Advisory Service,4/30/2014 0:00,,False,NR,0.0,1.0,0.0,False,Micro-small,False,3/16/2022 8:53,Search
1408,704,96545131,Cm Ulrich Enterprises Inc,33500 Flamingo St NW,,Cambridge,MN,55008,USA,7636911297,,https://opencorporates.com/companies/us_mn/4d06e618-8cd4-e011-a886-001ec94ffe7f,60172-100,Coaching - Business,,10/2/2019 0:00,False,NR,0.0,,,False,Micro-small,False,10/3/2019 4:20,Search
1409,704,96544258,"Krall, Ted",201 23rd Ave SW Ste 200,,Rochester,MN,55902,USA,5075296075,,https://www.northwesternmutual.com/financial/advisor/ted-krall/,20080-000,Insurance Services,,,False,A+,100.0,1.0,,False,Micro-small,False,4/7/2022 9:01,Search
1410,704,96544319,Granite Ledge Kennels,14065 NE 185th Ave,,Foreston,MN,56330,USA,6124904802,,https://graniteledgekennels.com/,00153-000,Pet Boarding & Kennels,,,False,A+,100.0,1.0,,False,Micro-small,False,6/4/2022 8:45,Search
1411,704,96544202,Leach Enterprises,175 Englewood Rd,,Clearwater,MN,55320,USA,3205586835,,http://www.leach-ent.com/,20045-000,Investment Advisory Service,8/11/1995 0:00,,False,NR,0.0,1.0,0.0,False,Micro-small,False,9/27/2022 8:58,Search
1412,704,96545049,Anderson Remodeling & Repair,409 3rd Ave,,Mapleton,ND,58059,USA,7015522891,,http://andersonremodeling.com/,10035-000,Contractors - General,10/30/2012 0:00,4/7/2021 0:00,False,NR,0.0,,0.0,False,Micro-small,False,4/9/2021 4:44,Search
1413,704,96543945,M D J Insurance Group,168 Lake St N,,Forest Lake,MN,55025,USA,6514645400,,https://noahinsurancegroup.com/forest-lake-mn-insurance/,20080-000,Insurance Services,3/12/2013 0:00,7/5/2018 0:00,False,NR,0.0,,0.0,False,Micro-small,False,7/6/2021 4:05,Search
1414,704,96544740,J & C Urban Gear,2961 Brookdale Dr,,Minneapolis,MN,55444,USA,7635608805,,https://www.facebook.com/profile.php?id=100066720409447,55093-000,Clothing - Retail,,,False,A+,100.0,,,False,Micro-small,False,7/1/2020 4:26,Search
1415,704,96544937,Mid-America Auction,1025 Broadway St NE,,Minneapolis,MN,55413,USA,6127887886,,https://www.midamericanauctioninc.com/,60088-000,Auctioneers,4/30/2014 0:00,,False,A+,100.0,1.0,0.0,False,Micro-small,False,11/2/2022 8:36,Search
1416,704,96544274,Floors Less,3020 N Service Dr,,Red Wing,MN,55066,USA,6513885423,,https://www.redwingshoes.com/work/comfortpro-family/,50133-000,Carpet & Rug Dealers - New,4/30/2014 0:00,,False,A+,100.0,1.0,0.0,False,Micro-small,False,3/2/2022 10:32,Search
1417,704,96544011,Nordic Ware Factory Store,4925 Highway 7,,Minneapolis,MN,55416,USA,9529249672,,http://www.nordicware.com/,50248-000,"Outlets - Stores, Factory, Mills",4/30/2014 0:00,,False,A+,100.0,1.0,0.0,False,Micro-small,False,10/11/2021 3:53,Search
1418,704,96544560,Tiffany Park Lp,2020 Lone Oak Cir,,Saint Cloud,MN,56301,USA,3202594936,,https://www.remax.com/homes-for-sale/mn/st-cloud/tiffany-park/neighborhood/547489,60042-000,Apartments,,,False,A+,100.0,,,False,Micro-small,False,7/2/2020 4:06,Search
1419,704,96543930,Neighbors For Ian Keith,2053 Dayton Ave,,Saint Paul,MN,55104,USA,6516475798,,https://educational-services.cmac.ws/neighbors-for-ian-keith/65085/,60860-000,Teachers Agencies,4/30/2014 0:00,,False,A+,100.0,1.0,0.0,False,Micro-small,False,2/4/2022 9:35,Search
1420,704,96544078,Stephen's Hair Tanning & Nails,1125 County Road B W,,Roseville,MN,55113,USA,6514876818,,https://www.stephenssalon.com/,60134-000,Beauty Salons,4/30/2014 0:00,,False,NR,0.0,1.0,0.0,False,Micro-small,False,12/13/2021 4:01,Search
1421,704,96544190,Lee J Sackett Inc,421 Main St S,,Waltham,MN,55982,USA,5074773454,,https://www.leejsackett.com/,80746-000,Tractor Repair & Service,,,False,A+,100.0,,,False,Micro-small,False,7/7/2020 4:07,Search
1422,704,96544715,Shining Star Home Care Inc,8409 Zenith Rd,,Minneapolis,MN,55431,USA,9528316761,,https://profiles.health.ny.gov/home_care/view/17652,60441-000,Home Health Services,4/30/2014 0:00,,False,A+,100.0,1.0,0.0,False,Micro-small,False,10/24/2021 3:54,Search
1423,704,96544695,Haynes Inc,311 Wildwood Rd,,Willernie,MN,55090,USA,6514290004,,https://www.yellowpages.com/willernie-mn/mip/haynes-inc-471881033,60134-000,Beauty Salons,4/30/2014 0:00,,False,A+,100.0,1.0,0.0,False,Micro-small,False,10/27/2021 4:17,Search
1424,704,96545087,Buck Shots Inc,2288 90th St E,,Northfield,MN,55057,USA,5073012984,,https://auto-repair-services.cmac.ws/buck-shots-inc/9872/,60103-000,Auto Repair & Service,6/23/2004 0:00,,False,A+,100.0,1.0,0.0,False,Micro-small,False,11/1/2022 8:13,Search
1425,704,96544428,"Hughes, Hele",5036 France Ave S,,Minneapolis,MN,55410,USA,9529201091,,https://www.yellowpages.com/minneapolis-mn/mip/hughes-hele-459452244,60729-102,Real Estate Agents,,,False,A+,100.0,,,False,Micro-small,False,7/3/2020 4:12,Search
1426,704,96545079,Bsum,860 Blue Gentian Rd Ste 195,,Eagan,MN,55121,USA,6514065630,,https://www.hudl.com/profile/13054967,20080-000,Insurance Services,4/30/2014 0:00,,False,NR,0.0,,0.0,False,Micro-small,False,2/27/2021 4:08,Search
1427,704,96544459,Kramer Rentals,7403 Ingram Ave NW,,Maple Lake,MN,55358,USA,3209633644,,https://www.manta.com/c/mm8xt8n/kramer-rentals,60729-102,Real Estate Agents,,,False,NR,0.0,1.0,,False,Micro-small,False,6/3/2022 9:03,Search
1428,704,96543894,"Jurkovich, Dawn",683 Bielenberg Dr Ste 206,,Woodbury,MN,55125,USA,6512682925,,https://wallmine.com/adviser/235003/jurkovich-dawn,20045-000,Investment Advisory Service,,,False,A+,100.0,,,False,Micro-small,False,1/26/2021 4:03,Search
1429,704,96545034,Angel on Wheels,1009 Otto Ave,,Saint Paul,MN,55102,USA,6512289571,,https://www.buzzfile.com/business/Angel-On-Wheels-651-228-9571,60441-000,Home Health Services,4/30/2014 0:00,,False,A+,100.0,,0.0,False,Micro-small,False,12/6/2020 3:57,Search
1430,704,96544620,Frozen Solid Software,9709 Oliver Ave N,,Minneapolis,MN,55444,USA,7634934373,,https://www.buzzfile.com/business/Frozen-Solid-Software-763-493-4373,60539-200,Marketing Software,,,False,A+,100.0,,,False,Micro-small,False,7/2/2020 4:06,Search
1431,704,96544799,"Kemp, Roger",4940 Viking Dr Ste 102,,Minneapolis,MN,55435,USA,9529412220,,https://www.linkedin.com/in/roger-kemp-5261b98,20080-000,Insurance Services,,,False,A+,100.0,1.0,,False,Micro-small,False,12/7/2021 4:13,Search
1432,704,96545240,Citizen Newspaper,14054 Bank St,,Becker,MN,55308,USA,7632615880,,"https://en.wikipedia.org/wiki/Becker,_Minnesota",30418-000,Newspapers,,,False,A+,100.0,,,False,Micro-small,False,6/26/2020 4:02,Search
1433,704,96544863,MN Salon Spa Assn,6950 France Ave S Ste 18,,Edina,MN,55435,USA,9529254245,,https://www.facebook.com/people/Salon-Spa-Professional-Association/100068023029948/,60134-000,Beauty Salons,,,False,NR,0.0,,,False,Micro-small,False,1/6/2021 4:29,Search
1434,704,96544145,Integrated Massage Techniques,911 Hennepin Ave N,,Glencoe,MN,55336,USA,3205520275,,https://www.yellowpages.com/glencoe-mn/mip/integrated-massage-techniques-470535410,60543-000,Massage Therapists,4/30/2014 0:00,,False,A+,100.0,1.0,0.0,False,Micro-small,False,4/8/2022 8:24,Search
1435,704,96545073,Buzz,1850 Adams St Ste 532,,Mankato,MN,56001,USA,5073456777,,https://foursquare.com/v/the-buzz/4bf863135efe2d7f72b66a34,60134-000,Beauty Salons,4/30/2014 0:00,12/10/2019 0:00,False,NR,0.0,1.0,0.0,False,Micro-small,False,12/12/2022 9:00,Search
1436,704,96544142,Hop Salon,1316 4th St SE,,Minneapolis,MN,55414,USA,6123790079,,https://www.facebook.com/hopssalon/,60134-000,Beauty Salons,4/30/2014 0:00,,False,A+,100.0,1.0,0.0,False,Micro-small,False,5/5/2022 8:23,Search
1437,704,96544734,House Tax Committee,100 Rev Dr Martin Luther King Jr Blvd Ste 363,,Saint Paul,MN,55155,USA,6512965367,,https://www.stpaul.gov/jptac,60857-000,Tax Return Preparation,4/30/2014 0:00,,False,A+,100.0,1.0,0.0,False,Micro-small,False,2/17/2022 9:43,Search
1438,704,96544600,Ward Virginia,4731 Hodgson Rd,,Saint Paul,MN,55126,USA,6514841011,,https://www.manta.com/c/mmlp44m/virginia-ward,60478-000,Janitor Service,4/30/2014 0:00,,False,NR,0.0,1.0,0.0,False,Micro-small,False,11/16/2021 3:59,Search
1439,704,96544087,Green Castle Condominium Association,250 Freemont Ave SE Apt 100,,Hutchinson,MN,55350,USA,3205874040,,https://www.buzzfile.com/business/Greencastle-Condominiums-320-587-4040,60617-000,Nursing Homes,5/19/1986 0:00,,False,A+,100.0,1.0,0.0,False,Micro-small,False,5/23/2021 3:54,Search
1440,704,96544918,Moonhouse Enterprises Llc,4116 19th Ave S,,Minneapolis,MN,55407,USA,6127242138,,https://www.buzzfile.com/business/Moonhouse-Enterprises-LLC-612-724-2138,60533-000,Management Consultants,4/30/2014 0:00,,False,NR,0.0,1.0,0.0,False,Micro-small,False,3/23/2022 8:48,Search
1441,704,96544427,Howard Lake Cremation Service,1030 Industries Cir,,Howard Lake,MN,55349,USA,3205430081,,https://www.heritagecremationprovider.com/cremation-services-costs/minnesota/howard-lake,61013-000,Funeral Related Services,4/30/2014 0:00,,False,A+,100.0,1.0,0.0,False,Micro-small,False,3/16/2022 8:53,Search
1442,704,96544192,Interactive Retirement Systems,3800 American Blvd W Ste 1455,,Bloomington,MN,55431,USA,9528975145,,https://pitchbook.com/profiles/company/170563-96,20059-000,Pension & Profit Sharing Plans,,10/29/2019 0:00,False,NR,0.0,1.0,,False,Micro-small,False,10/31/2022 7:56,Search
1443,704,96544314,Guardian Insurance,,,,,,,,,https://www.guardianlife.com/,20019-100,Insurance Agency,,7/1/2019 0:00,False,NR,0.0,1.0,,False,Micro-small,False,4/14/2022 8:45,Search
1444,704,96544462,K J Ande Photography,17021 Kettle River Blvd NE,,Forest Lake,MN,55025,USA,6123561691,,https://www.linkedin.com/in/kali-anderson-0ab81928,60658-000,Photographers - Portrait,,,False,A+,100.0,,,False,Micro-small,False,7/2/2020 4:06,Search
1445,704,96544300,Jsh Construction,15551 20th St SW,,Cokato,MN,55321,USA,3202867026,,https://jshconstructionllc.com/,10035-000,Contractors - General,4/30/2014 0:00,,False,A+,100.0,1.0,0.0,False,Micro-small,False,10/7/2021 3:58,Search
1446,704,96544565,Walsh Video & Photo Voice Mail,16526 Foliage Ave,,Apple Valley,MN,55124,USA,9528916718,,https://www.yellowpages.com/apple-valley-mn/photography,60658-000,Photographers - Portrait,4/30/2014 0:00,,False,NR,0.0,,0.0,False,Micro-small,False,6/22/2021 4:12,Search
1447,704,96545295,Cornerstone Village,40 Saint Michael Pkwy,,Saint Michael,MN,55376,USA,7634970852,,http://www.move2cornerstone.com/,60729-102,Real Estate Agents,4/30/2014 0:00,,False,A+,100.0,1.0,0.0,False,Micro-small,False,3/1/2022 9:57,Search
1448,704,96543969,"Langer Real Estate Services, Inc.",1540 Humboldt Ave Ste 105,,West St Paul,MN,55118,USA,6514509669,,http://www.langercommercial.com/,60729-102,Real Estate Agents,8/9/1991 0:00,,False,A+,100.0,1.0,0.0,False,Micro-small,False,2/3/2022 9:57,Search
1449,704,96544075,Roger Brandel Glass Wood,7234 144th Ct,,Saint Paul,MN,55124,USA,6514913108,,https://paint-stores.cmac.ws/roger-brandel-glass-wood/12451/,80536-000,Paint - Wholesale & Manufacturers,4/30/2014 0:00,,False,NR,0.0,,0.0,False,Micro-small,False,3/31/2021 4:53,Search
1450,704,96544819,Jenco Financial,13911 Ridgedale Dr Ste 250,,Hopkins,MN,55305,USA,9527460770,,https://www.yellowpages.com/hopkins-mn/mip/jenco-financial-8154335,20045-000,Investment Advisory Service,,,False,A+,100.0,,,False,Micro-small,False,8/3/2021 4:12,Search
1451,704,96544412,Little Ts Yorkshires,18 Randall St,,Sheldon,ND,58068,USA,7018823291,,https://www.superpages.com/sheldon-nd/bpp/little-ts-yorkshires-18101864,00153-000,Pet Boarding & Kennels,4/30/2014 0:00,,False,NR,0.0,1.0,0.0,False,Micro-small,False,10/14/2021 4:03,Search
1452,704,96544931,Mis Accessories Ohlala,2001 Cliff Rd E,,Burnsville,MN,55337,USA,9528822970,,https://www.allbiz.com/business/ohlala-boutique-651-470-4533,50740-000,Womens Apparel - Retail,4/30/2014 0:00,,False,NR,0.0,,0.0,False,Micro-small,False,3/27/2021 4:08,Search
1453,704,96544874,Lyles Offset Repair Inc,10238 York Ln,,Minneapolis,MN,55431,USA,9528931487,,https://www.yellowpages.com/minneapolis-mn/lyles-offset-repair-inc,60371-000,Fix-It Shops,,,False,A+,100.0,,,False,Micro-small,False,7/1/2020 4:26,Search
1454,704,96544994,"Armstrong, Jim",816 S Broadway,,Rochester,MN,55904,USA,5072544594,,https://www.realtor.com/realestateagents/567455e40fa4170100722217,60729-102,Real Estate Agents,4/30/2014 0:00,,False,A+,100.0,,0.0,False,Micro-small,False,12/6/2020 3:57,Search
1455,704,96545062,B & L Creations,1685 Highwood Dr,,Chaska,MN,55318,USA,9523682904,,https://beauty-salons.cmac.ws/b-l-creations/167141/,60134-000,Beauty Salons,5/25/2007 0:00,,False,NR,0.0,1.0,0.0,False,Micro-small,False,6/22/2022 11:34,Search
1456,704,96544772,Just Cuts,503 del Rio Dr,,Chanhassen,MN,55317,USA,,,https://www.yellowpages.com/chanhassen-mn/mip/just-cuts-25766938,60134-000,Beauty Salons,4/30/2014 0:00,10/26/2021 0:00,False,NR,0.0,1.0,0.0,False,Micro-small,False,10/27/2021 4:17,Search
1457,704,96544099,Royce King,1772 26th Ave NW,,Saint Paul,MN,55112,USA,6516363453,,https://www.dnb.com/business-directory/company-profiles.royce_king.deddcc4b69fa7a92e9e1b848b7fd1463.html,60172-100,Coaching - Business,1/1/2001 0:00,,False,A+,100.0,1.0,0.0,False,Micro-small,False,4/1/2022 8:40,Search
1458,704,96544798,Karner Blue Photography,4452 Churchill St,,Saint Paul,MN,55126,USA,6514829429,,https://www.dnb.com/business-directory/company-profiles.karner_blue_photography.eb731b1aad335fa002e5d0e969aeaa01.html,60658-000,Photographers - Portrait,,,False,A+,100.0,,,False,Micro-small,False,7/1/2020 4:27,Search
1459,704,96545153,Akc Purebred Labrador Dogs,PO Box 437,,Janesville,MN,56048,USA,5074613466,,https://www.yellowpages.com/janesville-mn/mip/akc-purebred-labrador-dogs-479019223,00153-000,Pet Boarding & Kennels,4/30/2014 0:00,,False,A+,100.0,1.0,0.0,False,Micro-small,False,11/18/2021 4:09,Search
1460,704,96543964,Kwh Global,970 Southdale Ctr,,Edina,MN,55435,USA,9529261632,,https://www.solarenergylocal.com/states/minnesota/edina/,50291-000,Furniture - Retail,4/30/2014 0:00,,False,NR,0.0,,0.0,False,Micro-small,False,3/22/2021 4:00,Search
1461,704,96544821,Jossi Associates Inc,1810 Hartford Ave,,Saint Paul,MN,55116,USA,6516909211,,https://www.manta.com/c/mmlyclh/jossi-associates-inc,60013-000,Advertising - Direct Mail,4/30/2014 0:00,,False,NR,0.0,,0.0,False,Micro-small,False,3/21/2021 3:53,Search
1462,704,96545111,Cody's Customs,1422 1/2 N Broadway St,,New Ulm,MN,56073,USA,5077661413,,https://www.yellowpages.com/new-ulm-mn/mip/codys-customs-481250532,60180-000,Car Wash & Polish,,,False,A+,100.0,1.0,,False,Micro-small,False,5/5/2022 8:23,Search
1463,704,96544684,"Saar, Aaron",PO Box 64805,,Saint Paul,MN,55164,USA,6513104549,,https://www.linkedin.com/in/aaron-saar-b2071455,20080-000,Insurance Services,,,False,A+,100.0,,,False,Micro-small,False,7/2/2020 4:06,Search
1464,704,96545221,Blackwell Tool Inc,1409 Circle Ln,,Delano,MN,55328,USA,7639728907,,https://www.yellowpages.com/delano-mn/mip/blackwell-tool-inc-473280973,50333-000,Hardware - Retail,6/6/2000 0:00,,False,A+,100.0,1.0,0.0,False,Micro-small,False,2/25/2022 9:44,Search
1465,704,96544645,Hayman CO,7301 Ohms Ln # 130,,Minneapolis,MN,55439,USA,9522249898,,https://haymancompany.com/,60729-102,Real Estate Agents,4/30/2014 0:00,,False,A+,100.0,1.0,0.0,False,Micro-small,False,2/6/2022 9:10,Search
1466,704,96544611,Src Computers Inc,4826 Chicago Ave,,Minneapolis,MN,55417,USA,6128237900,,https://www.yellowpages.com/minneapolis-mn/mip/src-computers-inc-15019556,50173-000,Computers - Dealers,4/30/2014 0:00,6/22/2021 0:00,False,NR,0.0,,0.0,False,Micro-small,False,6/24/2021 4:06,Search
1467,704,96544781,Hank's Handyman Service,2341 Sundance Cir S,,Fargo,ND,58103,USA,7012120394,,http://www.manta.com/c/mbdzmkk/hank-s-handyman-service,10035-000,Contractors - General,,,False,A+,100.0,1.0,,False,Micro-small,False,10/14/2021 4:03,Search
1468,704,96544501,Southwest Lawn Service,18890 Deerfield Trl,,Eden Prairie,MN,55346,USA,9529343948,,https://photos.nextdoor.com/pages/southwest-lawn-service-eden-prairie-mn/,00155-000,Landscape Contractors,,5/23/2018 0:00,False,NR,0.0,,,False,Micro-small,False,5/25/2021 3:56,Search
1469,704,96544663,Hairitage Beauty Salon,465 Broadway Ave,,Saint Paul Park,MN,55071,USA,6517568143,,http://loriwoulf.salonrunner.com/,60134-000,Beauty Salons,,,False,A+,100.0,1.0,,False,Micro-small,False,8/18/2021 5:26,Search
1470,704,96545145,Cedar Crest of Cosmos,130 Neptune St N,,Cosmos,MN,56228,USA,3208779100,,https://www.seniorcare.com/assisted-living/mn/cosmos/cedar-crest-of-cosmos/28649/,60617-000,Nursing Homes,4/30/2014 0:00,,False,NR,0.0,,0.0,False,Micro-small,False,1/13/2020 4:53,Search
1471,704,96545012,Amazing Cleaning & Maintenance,601 4th Ave E,,West Fargo,ND,58078,USA,7012008082,,https://www.buzzfile.com/business/Amazing-Cleaning.And.Maintenance-701-200-8082,60478-000,Janitor Service,11/5/2012 0:00,6/23/2021 0:00,False,NR,0.0,1.0,0.0,False,Micro-small,False,9/1/2022 8:30,Search
1472,704,96544483,Kb Auto Repair Service,7762 7th Ave,,New Auburn,MN,55366,USA,3208644375,,https://auto-repair-services.cmac.ws/kb-auto-repair-service/79982/,60103-000,Auto Repair & Service,,,False,A+,100.0,1.0,,False,Micro-small,False,3/16/2022 8:53,Search
1473,704,96544385,John Brunner Construction,58 Dunbar Way,,Saint Paul,MN,55115,USA,6517703193,,https://www.buildzoom.com/contractor/john-brunner-construction-inc,10035-000,Contractors - General,4/30/2014 0:00,,False,A+,100.0,1.0,0.0,False,Micro-small,False,10/1/2021 4:12,Search
1474,704,96544690,Union River Title,2594 Rice St,,Saint Paul,MN,55113,USA,6517669500,,https://www.yellowpages.com/saint-paul-mn/mip/union-river-title-452657322,20001-000,Abstracters,4/30/2014 0:00,,False,NR,0.0,1.0,0.0,False,Micro-small,False,3/30/2022 9:07,Search
1475,704,96545278,Butler Vacuum,1169B Larpenteur Ave W,,Saint Paul,MN,55113,USA,6513302199,,https://www.yellowpages.com/saint-paul-mn/mip/butler-vacuum-531258130,50016-000,Appliances - Major - Dealers,4/30/2014 0:00,9/12/2019 0:00,False,NR,0.0,,0.0,False,Micro-small,False,9/13/2019 4:30,Search
1476,704,96544322,True Insurance,5425 Spring Ln,,Minnetonka,MN,55345,USA,9522175322,,https://trustedinsurance.com/,20080-000,Insurance Services,4/30/2014 0:00,,False,A+,100.0,1.0,0.0,False,Micro-small,False,2/6/2022 9:11,Search
1477,704,96543907,"Mcguire, J A OD",113 State St N,,Waseca,MN,56093,USA,5078351775,,https://www.yellowpages.com/waseca-mn/mip/olde-world-optical-15384595,60629-000,Optometrists,4/30/2014 0:00,,False,NR,0.0,,0.0,False,Micro-small,False,7/7/2019 4:06,Search
1478,704,96545146,Business & Business Systems Consulting Inc,436 3rd St,,Greenwood,MN,55331,USA,9529414141,,https://opencorporates.com/companies/us_in/2003060300186,60235-000,"Computers Hardware, Software & Services",12/20/1993 0:00,,False,A+,100.0,1.0,0.0,False,Micro-small,False,3/2/2022 10:32,Search
1479,704,96544732,Homes With Soul Inc,3233 Harriet Ave,,Minneapolis,MN,55408,USA,6128236382,,https://www.allbiz.com/business/homes-with-soul-inc-612-823-6382,60729-000,Real Estate,4/30/2014 0:00,,False,A+,100.0,1.0,,False,Micro-small,False,3/19/2022 8:30,Search
1480,704,96544480,Langstaff Construction Llc,633 13th St NE,,Fargo,ND,58103,USA,7014780527,,https://www.yasabe.com/en/west-fargo-nd/d-703108211-langstaff-construction-llc-development-building-contractors-general-contractor.html,10035-000,Contractors - General,,12/12/2017 0:00,False,NR,0.0,,,False,Micro-small,False,12/15/2020 4:06,Search
1481,704,96545124,Davies Enterprise,2406 Penn Ave N,,Minneapolis,MN,55411,USA,6128861089,,https://www.enterprise.com/en/car-rental/locations/us/mn/downtown-minneapolis-1942.html?mcid=yext:245709,60857-000,Tax Return Preparation,4/30/2014 0:00,,False,A+,100.0,,0.0,False,Micro-small,False,5/23/2021 3:54,Search
1482,704,96543933,Nicholas J Solinger,5521 Kellogg Ave,,Minneapolis,MN,55424,USA,9524056862,,https://www.yellowpages.com/minneapolis-mn/mip/nicholas-j-solinger-25724698,60172-100,Coaching - Business,4/30/2014 0:00,,False,A+,100.0,1.0,0.0,False,Micro-small,False,9/26/2021 3:52,Search
1483,704,96544950,Kragness Chiropractic,18505 Highway 65 NE,,Cedar,MN,55011,USA,6129876666,,https://www.yellowpages.com/cedar-mn/mip/kragness-chiropractic-463789329,60205-000,Chiropractors D.C.,,,False,A+,100.0,,,False,Micro-small,False,6/27/2020 3:57,Search
1484,704,96544777,Kaycan Limited,17808 Highway 65 NE,,Andover,MN,55304,USA,7634139960,,https://garage-doors-opener-stores.cmac.ws/kaycan-limited/9781/,80450-000,Lumber - Wholesale,4/30/2014 0:00,,False,A+,100.0,1.0,0.0,False,Micro-small,False,3/30/2022 9:07,Search
1485,704,96544900,Midland Construction,1400 S 2nd St Apt A200,,Minneapolis,MN,55454,USA,6127472704,,https://www.midlandconstructionmn.com/,10035-000,Contractors - General,,,False,A+,100.0,,,False,Micro-small,False,6/27/2021 4:01,Search
1486,704,96545209,Bj Lundervold CO,830 Woodduck Dr,,Saint Paul,MN,55125,USA,6515012727,,https://www.yellowpages.com/saint-paul-mn/mip/bj-lundervold-co-25700667,60172-100,Coaching - Business,4/29/2005 0:00,9/7/2021 0:00,False,NR,0.0,1.0,0.0,False,Micro-small,False,9/9/2021 4:03,Search
1487,704,96544097,"Sannes, Kevin",4101 70th Ave NW,,Byron,MN,55920,USA,5074217523,,https://www.realtor.com/realestateagents/56bbd840bb954c01006b90be,60729-102,Real Estate Agents,4/30/2014 0:00,,False,NR,0.0,1.0,0.0,False,Micro-small,False,1/17/2022 9:20,Search
1488,704,96544456,King Rory Designs,11200 Hampshire Ave S,,Minneapolis,MN,55438,USA,9526460000,,https://www.yellowpages.com/minneapolis-mn/mip/king-rory-designs-6931115,50291-000,Furniture - Retail,,,False,A+,100.0,1.0,,False,Micro-small,False,3/3/2022 9:49,Search
1489,704,96544985,Applause Music,71 Snelling Ave N,,Saint Paul,MN,55104,USA,6516445115,,https://www.dnb.com/business-directory/company-profiles.applause_music_inc.d2895c746c9814da3a4aaff0b316b123.html,50447-000,Musical Instruments - Dealers,4/30/2014 0:00,,False,A+,100.0,1.0,0.0,False,Micro-small,False,11/5/2022 8:14,Search
1490,704,96545067,D L Couch Wallcovering Inc,833 3rd St SW Ste 2,,New Brighton,MN,55112,USA,6516336049,,https://www.allbiz.com/business/d-l-couch-wallcovering-inc_6u-651-633-6049,80536-000,Paint - Wholesale & Manufacturers,4/30/2014 0:00,,False,NR,0.0,1.0,0.0,False,Micro-small,False,6/8/2022 8:46,Search
1491,704,96544817,Jds Products,195 Old Constance Blvd NW,,Andover,MN,55304,USA,7634343906,,https://jdsproducts.com/,50333-000,Hardware - Retail,,,False,A+,100.0,,,False,Micro-small,False,7/1/2020 4:26,Search
1492,704,96544386,Joseph Martin Design,2154 Hastings Ave Ste 100,,Newport,MN,55055,USA,6517690073,,https://nextdoor.com/pages/martin-joseph-design-construction-newport-mn/,10035-000,Contractors - General,4/30/2014 0:00,,False,NR,0.0,,0.0,False,Micro-small,False,3/21/2021 3:53,Search
1493,704,96544601,Wellness Division,10911 Highway 55 Ste 201E,,Minneapolis,MN,55441,USA,7632086943,,https://www.hennepinhealthcare.org/department-of-medicine/integrative-health-and-wellness/,60971-000,Health & Medical - General,4/30/2014 0:00,,False,NR,0.0,,0.0,False,Micro-small,False,6/20/2021 3:58,Search
1494,704,96544028,Precise Communications,13920 102nd St,,Cologne,MN,55322,USA,9524673682,,https://www.iicom.org/event/annual-conference-2023-in-person/,60712-000,Public Relations Counselors,,,False,A+,100.0,,,False,Micro-small,False,7/9/2020 4:10,Search
1495,704,96544330,Talent Hunters,4848 W 132nd St,,Savage,MN,55378,USA,9527070673,,https://www.yellowpages.com/savage-mn/mip/talent-hunters-25786916/gallery?lid=25786916,60235-000,"Computers Hardware, Software & Services",,,False,A+,100.0,,,False,Micro-small,False,7/3/2020 4:12,Search
1496,704,96544120,Ids Marketing Corp,900 Long Lake Rd,,New Brighton,MN,55112,USA,6516312208,,https://www.yellowpages.com/saint-paul-mn/mip/ids-marketing-corp-452605532,20045-000,Investment Advisory Service,,,False,A+,100.0,1.0,,False,Micro-small,False,3/9/2022 10:12,Search
1497,704,96543941,Lofgren Auto Specialties,18130 Dahlia St NW,,Cedar,MN,55011,USA,7637537573,,https://www.manta.com/c/mm2txb5/lofgren-auto-specialties,50040-000,Auto Dealers - Used Cars,6/29/2005 0:00,,False,A+,100.0,,0.0,False,Micro-small,False,5/23/2021 3:54,Search
1498,704,96544928,Mike Service Carpet Cleaning,10133 Goodrich Cir,,Minneapolis,MN,55437,USA,9528352827,,https://carpet-cleaners.cmac.ws/mike-service-carpet-cleaning/33499/,85306-100,Upholstery & Carpet Cleaning,3/21/2007 0:00,,False,A+,100.0,1.0,0.0,False,Micro-small,False,12/14/2022 9:35,Search
1499,704,96545242,Commitment Title Service,2585 Hamline Ave N,,Saint Paul,MN,55113,USA,6512898470,,https://www.finduslocal.com/title-abstract-offices/minnesota/saint-paul/commitment-title-service-llc_2585-hamline-avenue-north/,20001-000,Abstracters,4/30/2014 0:00,,False,A+,100.0,1.0,0.0,False,Micro-small,False,1/23/2022 9:52,Search
1500,704,96544168,Kenneth Merdan Insurance Agcy,7711 Humboldt Ave N Ste 101,,Brooklyn Park,MN,55444,USA,7635616000,,https://www.manta.com/c/mbn9ywg/kenneth-merdan-insurance-agcy,20080-000,Insurance Services,4/30/2014 0:00,,False,A+,100.0,1.0,0.0,False,Micro-small,False,2/17/2022 9:42,Search
1501,704,96544112,Spider Designing,11331 7th St NE,,Minneapolis,MN,55434,USA,7637553091,,https://www.yellowpages.com/minneapolis-mn/mip/spider-designing-25767184,60280-000,Data Processing Service,,7/23/2021 0:00,False,NR,0.0,,,False,Micro-small,False,7/25/2021 4:13,Search
1502,704,96544206,Jones Auto Sales,119 Park Ave W,,Hollandale,MN,56045,USA,5074388493,,https://www.manta.com/c/mtrrqs1/jones-auto-sales,50040-000,Auto Dealers - Used Cars,,,False,A+,100.0,1.0,,False,Micro-small,False,3/2/2022 10:32,Search
1503,704,96544037,Pride Assembly,540 3rd Ave NW,,Hutchinson,MN,55350,USA,3205876955,,https://www.pridesolutions.com/,30784-000,Manufacturers & Producers,,,False,A+,100.0,,,False,Micro-small,False,7/8/2020 4:45,Search
1504,704,96543908,Med USA,1154 Hennepin Ave,,Minneapolis,MN,55403,USA,6123382086,,https://www.instagram.com/medusamn/?hl=en,60134-000,Beauty Salons,4/30/2014 0:00,,False,A+,100.0,1.0,0.0,False,Micro-small,False,5/5/2022 8:23,Search
1505,704,96545277,Bungum Construction Inc,66862 330th St,,Sargeant,MN,55973,USA,5074400950,,https://www.buildzoom.com/contractor/bungum-construction-inc,10035-000,Contractors - General,9/23/2003 0:00,,False,A+,100.0,1.0,0.0,False,Micro-small,False,7/20/2022 9:11,Search
1506,704,96544725,Iea Wealth Mgmt,119 4th St N Ste 3,,Cannon Falls,MN,55009,USA,5072635773,,https://www.linkedin.com/company/iea-wealth-management,20045-000,Investment Advisory Service,,,False,A+,100.0,,,False,Micro-small,False,1/26/2021 4:03,Search
1507,704,96544351,Thinklegal Llc,2277 Highway 36 W Ste 220,,Roseville,MN,55113,USA,6512003832,,https://www.dnb.com/business-directory/company-profiles.thinklegal_llc.486f65d01ec9ee703cc4d4a0cfc4f753.html,60246-000,Computers - Sys Designers & Consult,,,False,NR,0.0,1.0,,False,Micro-small,False,7/8/2022 12:27,Search
1508,704,96545120,Bare Esthetic Studio Bare Salon,2825 Johnson St NE,,Minneapolis,MN,55418,USA,6123064522,,https://www.barefacedesthetic.com/,60134-000,Beauty Salons,4/30/2014 0:00,,False,NR,0.0,,0.0,False,Micro-small,False,2/22/2021 3:54,Search
1509,704,96544727,Instant Repair Service,3718 Vincent Ave N,,Minneapolis,MN,55412,USA,6125204078,,https://www.yellowpages.com/minneapolis-mn/mip/instant-repair-service-459849339,60107-700,Auto Repair - Maintenance,,,False,A+,100.0,,,False,Micro-small,False,7/2/2020 4:06,Search
1510,704,96544109,Silverness & Silverness,2802 W 15th St,,Duluth,MN,55806,USA,2187228274,,https://www.usaopps.com/government_contractors/contractor-5820121-SILVERNESS-SILVERNESS.htm,60729-102,Real Estate Agents,4/30/2014 0:00,,False,NR,0.0,1.0,0.0,False,Micro-small,False,1/7/2022 14:13,Search
1511,704,96545057,Apollo Surgical Inc,235 Board Cir,,Saint Paul,MN,55115,USA,6512615660,,https://www.buzzfile.com/business/Apollo-Surgical-Inc-651-261-5660,61009-000,Surgical Centers,1/16/2004 0:00,,False,A+,100.0,,0.0,False,Micro-small,False,12/21/2017 4:05,Search
1512,704,96544613,Steve Carroll Insurance Inc,215 22nd St SE,,Owatonna,MN,55060,USA,5074551660,,http://www.car-roll.com/?cmpid=jyum_blm_0001,20080-000,Insurance Services,4/30/2014 0:00,,False,NR,0.0,1.0,0.0,False,Micro-small,False,12/12/2021 4:01,Search
1513,704,96544249,Keepsake Photography,5493 Old Highway 61,,Proctor,MN,55810,USA,2184612569,,https://www.michelleproctorphotography.com/product/keepsake-box/59,60658-000,Photographers - Portrait,4/30/2014 0:00,,False,NR,0.0,,0.0,False,Micro-small,False,3/21/2021 3:53,Search
1514,704,96544860,Linda K Kukura,521 Hackmore Ct,,Saint Paul,MN,55123,USA,6516831918,,https://pet-grooming-and-boarding-services.cmac.ws/linda-k-kukura/30167/,00153-000,Pet Boarding & Kennels,,9/12/2019 0:00,False,NR,0.0,,,False,Micro-small,False,9/13/2019 4:30,Search
1515,704,96544634,E R Skruppy Productions,3307 Lincoln St NE,,Minneapolis,MN,55418,USA,6127887594,,https://www.yellowpages.com/minneapolis-mn/adult-film-studios,60582-000,Motion Picture Producers & Studios,4/30/2014 0:00,,False,NR,0.0,1.0,0.0,False,Micro-small,False,8/9/2022 8:29,Search
1516,704,96545115,Cleanstarr Carpet Cleaning,5051 Jefferson St NE,,Minneapolis,MN,55421,USA,7632272196,,https://www.facebook.com/cleanstarr/,85306-100,Upholstery & Carpet Cleaning,,,False,A+,100.0,1.0,,False,Micro-small,False,11/22/2022 8:45,Search
1517,704,96544792,Mck Group Llc,5305 Woodlawn Blvd,,Minneapolis,MN,55417,USA,6127225534,,https://opencorporates.com/companies/us_mn/d2771e18-add4-e011-a886-001ec94ffe7f,50291-000,Furniture - Retail,4/30/2014 0:00,,False,A+,100.0,1.0,0.0,False,Micro-small,False,10/11/2021 3:53,Search
1518,704,96544157,Hearthside Stonework & Landscp,16658 Hearthside Ct,,Lakeville,MN,55044,USA,9524315166,,https://www.facebook.com/jeff.grubb.16/,00155-000,Landscape Contractors,,,False,A+,100.0,,,False,Micro-small,False,7/7/2020 4:07,Search
1519,704,96544304,K Komputers,1143 1st St NW,,Rochester,MN,55901,USA,5072268133,,https://www.yellowpages.com/rochester-mn/mip/k-komputers-469018244,50173-000,Computers - Dealers,4/30/2014 0:00,,False,NR,0.0,,0.0,False,Micro-small,False,6/22/2021 4:12,Search
1520,704,96544246,K T Designs-Karen Tetzloff,219 S Victory Dr # 200,,Mankato,MN,56001,USA,5073883020,,https://www.linkedin.com/in/karen-tetzloff-87444a47,60470-000,Interior Decorators & Designers,4/30/2014 0:00,,False,A+,100.0,1.0,0.0,False,Micro-small,False,10/19/2022 8:27,Search
1521,704,96544901,Jim Roe Museum Planning,865 Lenox Ave,,Saint Paul,MN,55119,USA,6512496126,,https://www.mnhs.org/preservation/directory/17196,60596-000,Museums,4/30/2014 0:00,,False,A+,100.0,1.0,0.0,False,Micro-small,False,10/15/2021 4:11,Search
1522,704,96544876,Magco Inc,1746 Elm St,,Saint Paul,MN,55110,USA,6124188703,,https://www.dnb.com/business-directory/company-profiles.magco_inc.67f768581d0c4497430013eaf8c874d9.html,60172-100,Coaching - Business,4/30/2014 0:00,,False,A+,100.0,1.0,0.0,False,Micro-small,False,9/11/2021 4:05,Search
1523,704,96544926,National Coatings & Supply,415 S Owasso Blvd E,,Saint Paul,MN,55117,USA,6514844022,,https://www.ncsssi.com/,60094-000,Auto Body Repair & Painting,4/30/2014 0:00,,False,A+,100.0,1.0,0.0,False,Micro-small,False,4/22/2022 8:18,Search
1524,704,96543920,Magic City Striping,525 18th St SW,,Minot,ND,58701,USA,7018525139,,https://driveway-and-parking-lot-contractors.cmac.ws/magic-city-striping/5054/,10121-000,Road Building Contractors,4/30/2014 0:00,,False,A+,100.0,1.0,0.0,False,Micro-small,False,9/19/2021 3:53,Search
1525,704,96544143,I 4 Solutions Llc,1385 Mendota Heights Rd Ste 400,,Saint Paul,MN,55120,USA,6514525882,,https://i4.solutions/,50173-000,Computers - Dealers,4/30/2014 0:00,,False,A+,100.0,1.0,0.0,False,Micro-small,False,6/8/2022 8:46,Search
1526,704,96544627,Green Edge Inc,11800 Singletree Ln Ste 301,,Eden Prairie,MN,55344,USA,9528410600,,http://thegreenedge.com/,60010-000,Advertising Agencies & Counselors,,,False,A+,100.0,1.0,,False,Micro-small,False,11/18/2022 9:13,Search
1527,704,96544921,"Murrans, Linda E",347 Smith Ave N Ste 402,,Saint Paul,MN,55102,USA,6512206880,,http://www.childrensmn.org/,60971-000,Health & Medical - General,4/30/2014 0:00,,False,NR,0.0,1.0,0.0,False,Micro-small,False,8/15/2022 8:03,Search
1528,704,96544709,Healthy Life Alternatives,12310 Sunset Trl,,Minneapolis,MN,55441,USA,7637722768,,https://www.yellowpages.com/minneapolis-mn/mip/healthy-life-alternatives-464118285,60971-000,Health & Medical - General,4/30/2014 0:00,,False,A+,100.0,1.0,0.0,False,Micro-small,False,2/18/2022 9:11,Search
1529,704,96544635,Edina Towers,6400 Barrie Rd,,Edina,MN,55435,USA,9529251040,,https://www.edinatowers.com/,60134-000,Beauty Salons,,,False,A+,100.0,,,False,Micro-small,False,5/21/2021 3:41,Search
1530,704,96544096,"Saiki, Zachary",2774 Commerce Dr NW Ste C,,Rochester,MN,55901,USA,5073223650,,https://www.ameripriseadvisors.com/zachary.w.saiki/,20045-000,Investment Advisory Service,4/30/2014 0:00,,False,NR,0.0,1.0,0.0,False,Micro-small,False,1/20/2022 9:52,Search
1531,704,96543998,Roseville Corporate Ctr,2700 Snelling Ave N Ste 500,,Roseville,MN,55113,USA,6516040137,,https://www.commercialcafe.com/commercial-property/us/ca/roseville/roseville-corporate-center/,60729-102,Real Estate Agents,4/30/2014 0:00,,False,NR,0.0,1.0,0.0,False,Micro-small,False,4/21/2022 8:28,Search
1532,704,96545105,David L Homyak & Associates,5811 216th St N,,Forest Lake,MN,55025,USA,6514645719,,https://www.allbiz.com/business/david-l-homyak-associates-651-464-5719,50173-000,Computers - Dealers,4/30/2014 0:00,6/9/2016 0:00,False,NR,0.0,,0.0,False,Micro-small,False,6/10/2019 4:04,Search
1533,704,96544632,Harry's Travel Electronics,1810 Riverside Ave Ste 118,,Minneapolis,MN,55454,USA,6123322080,,https://www.groupon.com/biz/minneapolis/harrys-travel-electronics,50651-000,Television & Radio - Dealers,,,False,A+,100.0,1.0,,False,Micro-small,False,12/14/2021 4:08,Search
1534,704,96544210,Keala Brown Writing Service,8876 W Beatrice Dr,,Clear Lake,MN,55319,USA,7632503119,,https://start.cortera.com/company/research/l5o6qvo6l/keala-brown-writing-service/,60644-000,Patent Agents,4/30/2014 0:00,,False,NR,0.0,,0.0,False,Micro-small,False,3/21/2021 3:53,Search
1535,704,96544105,Scg & E Mr Tire & Auto,100 Highway Ave S,,Hector,MN,55342,USA,3208486255,,http://www.local.com/details/hector-mn/scge-mr-tire-and-auto-118309120/,30478-000,Petroleum,,,False,A+,100.0,,,False,Micro-small,False,7/8/2020 4:45,Search
1536,704,96543974,Macgyver's Computer Fix It,1014 24th Ave S,,Fargo,ND,58103,USA,7017932377,,https://www.dnb.com/business-directory/company-profiles.macgyvers_computer_fix_it.bb044d6df25cd8e1b0776e2e17e65225.html,60245-000,Computers - Service & Repair,4/30/2014 0:00,5/24/2021 0:00,False,NR,0.0,,0.0,False,Micro-small,False,5/25/2021 3:56,Search
1537,704,96544805,Kmt Services,2922 Dolores Dr,,Saint Cloud,MN,56303,USA,3202533124,,https://www.yellowpages.com/saint-cloud-mn/mip/kmt-services-25676411,00155-103,Landscape Maintenance,,,False,A+,100.0,1.0,,False,Micro-small,False,5/11/2022 8:37,Search
1538,704,96544689,Twin City Pilot Car,2118 Pioneer Rd Trlr 153,,Red Wing,MN,55066,USA,6513884758,,https://www.manta.com/c/mmspbhx/twin-city-pilot-car,60327-000,Employment Contractors - Temporary Help,,,False,A+,100.0,,,False,Micro-small,False,7/2/2020 4:06,Search
1539,704,96544009,Newtech Solution Inc,217 Shamrock Dr,,Saint Paul,MN,55115,USA,6512105636,,https://www.linkedin.com/company/newtech-solution-inc,50651-000,Television & Radio - Dealers,4/30/2014 0:00,,False,NR,0.0,,0.0,False,Micro-small,False,3/28/2021 3:53,Search
1540,704,96544938,Midwest Trade Printing Service,16 5th St NW,,Faribault,MN,55021,USA,5072091927,,http://www.faribaultprintshop.com/index.html,30352-000,Lithographers,,12/5/2017 0:00,False,NR,0.0,,,False,Micro-small,False,12/8/2020 4:09,Search
1541,704,96544878,Magnum It,250 Prairie Center Dr Ste 260,,Eden Prairie,MN,55344,USA,9524260188,,https://www.dnb.com/business-directory/company-profiles.magnum_it.5de85f8ff13d7649f95204b8b8d2edf7.html,50173-000,Computers - Dealers,4/30/2014 0:00,,False,A+,100.0,1.0,0.0,False,Micro-small,False,2/25/2022 9:44,Search
1542,704,96544414,Lou Enterprises Inc,16835 49th Pl N,,Minneapolis,MN,55446,USA,7632423936,,"https://www.buzzfile.com/business/Lou-Enterprises,-Inc.-763-242-3936",60172-100,Coaching - Business,4/30/2014 0:00,,False,A+,100.0,1.0,0.0,False,Micro-small,False,10/3/2021 3:52,Search
1543,704,96545136,Crown Title,490 Highway 96 W,,Saint Paul,MN,55126,USA,6512883010,,https://www.yellowpagesdirectory.com/Saint+Paul-MN/Crown+Title/303084,20001-000,Abstracters,4/30/2014 0:00,,False,A+,100.0,1.0,0.0,False,Micro-small,False,6/14/2022 8:20,Search
1544,704,96544430,Judisch & Judisch Ent Inc,2621 Oak Hills Dr SW,,Rochester,MN,55902,USA,5072888096,,https://www.judisch.com/,80800-000,Wool,,,False,A+,100.0,,,False,Micro-small,False,7/2/2020 4:06,Search
1545,704,96544231,J Black Designs,1938 Woodstone Dr,,Victoria,MN,55386,USA,9524433707,,https://www.vagaro.com/jblackdesigns,60134-000,Beauty Salons,,,False,A+,100.0,1.0,,False,Micro-small,False,3/2/2022 10:32,Search
1546,704,96544038,Pro Spine,7114 Shady Oak Rd,,Eden Prairie,MN,55344,USA,9529432424,,https://www.edenprairiespine.com/,60205-000,Chiropractors D.C.,,,False,A+,100.0,,,False,Micro-small,False,7/8/2020 4:45,Search
1547,704,96543968,"Langenfeld, Amy E",1315 E 24th St,,Minneapolis,MN,55404,USA,6127219898,,https://amyelangenfeld.com/,60971-000,Health & Medical - General,,,False,A+,100.0,,,False,Micro-small,False,7/9/2020 4:10,Search
1548,704,96544375,K & L Lawncare,11768 280th St,,Saint Joseph,MN,56374,USA,3202488839,,http://www.manta.com/c/mmnf6yb/k-l-lawncare,00155-000,Landscape Contractors,,3/21/2016 0:00,False,NR,0.0,,,False,Micro-small,False,3/25/2019 3:59,Search
1549,704,96544403,Jp Construction,900 24th Ave N,,Saint Cloud,MN,56303,USA,3206549643,,https://www.manta.com/c/mmdvq72/jp-construction,10035-000,Contractors - General,,,False,A+,100.0,,,False,Micro-small,False,7/3/2020 4:12,Search
1550,704,96544828,Managing Opportunities Inc,15366 Red Oaks Rd SE,,Prior Lake,MN,55372,USA,9524407196,,https://www.allbiz.com/business/managing-opportunities-inc,60235-000,"Computers Hardware, Software & Services",9/13/1993 0:00,,False,NR,0.0,1.0,0.0,False,Micro-small,False,7/8/2022 12:27,Search
1551,704,96544707,Harbor Hill Graphics Llc,116 Harbor Hill Dr,,Mankato,MN,56001,USA,5073274246,,http://www.harborhillgraphics.com/,60065-000,Artists - Commercial,,,False,A+,100.0,1.0,,False,Micro-small,False,12/13/2022 9:03,Search
1552,704,96544217,Kirk's Maintenance Service,8201 Thomas Ave S,,Minneapolis,MN,55431,USA,9528882397,,https://www.kirksrepair.com/,20060-200,Home Repair & Maintenance,,,False,NR,0.0,,,False,Micro-small,False,7/17/2021 4:10,Search
1553,704,96544419,Jon Secrest Homes Llc,1095 Holly Ln,,Chanhassen,MN,55317,USA,9524747043,,https://www.manta.com/c/mmd5xx0/jon-secrest-homes-llc/reviews,10035-000,Contractors - General,4/30/2014 0:00,6/10/2021 0:00,False,NR,0.0,,0.0,False,Micro-small,False,6/12/2021 6:07,Search
1554,704,96544875,Lynn Renee Cosmetics,11320 48th Ave N,,Minneapolis,MN,55442,USA,6127912754,,https://www.buzzfile.com/business/Renee-Lynn-Cosmetics-612-791-2754,60134-000,Beauty Salons,4/30/2014 0:00,,False,NR,0.0,1.0,0.0,False,Micro-small,False,4/16/2022 8:14,Search
1555,704,96544592,Uff Da Etc,3440 26th Ave S,,Fargo,ND,58103,USA,7018662241,,https://www.yellowpages.com/fargo-nd/mip/uff-da-etc-475743072,50310-000,Gift Shops,4/30/2014 0:00,,False,NR,0.0,1.0,0.0,False,Micro-small,False,4/7/2022 9:01,Search
1556,704,96544498,Indulgence,500 Dakota Ave,,Wahpeton,ND,58075,USA,7016424247,,https://www.facebook.com/people/Indulgence-Salon/100069437296671/,60134-000,Beauty Salons,,,False,A+,100.0,,,False,Micro-small,False,7/2/2020 4:06,Search
1557,704,96544970,Ami Systems Inc,7815 Telegraph Rd,,Minneapolis,MN,55438,USA,9526970792,,https://ami-imaging.com/,60280-000,Data Processing Service,4/30/2014 0:00,,False,NR,0.0,1.0,0.0,False,Micro-small,False,2/1/2022 9:32,Search
1558,704,96544479,Lakeville Heating & Cooling,17555 Ionia Path,,Lakeville,MN,55044,USA,9525134384,,https://lakevilleheating.com/,60323-000,Electronic Equipment & Suppliers - Service & Repair,,12/12/2017 0:00,False,NR,0.0,,,False,Micro-small,False,12/15/2020 4:06,Search
1559,704,96544630,Hair Studio 32,177 S Washington St,,Lake City,MN,55041,USA,6513455411,,https://www.yellowpages.com/lake-city-mn/mip/hair-studio-32-465826386,60134-000,Beauty Salons,4/30/2014 0:00,,False,NR,0.0,,0.0,False,Micro-small,False,3/13/2021 4:08,Search
1560,704,96545265,Business Capital Consultant LLC,7614 Bloomington Ave,,Minneapolis,MN,55423,USA,6128698831,,https://www.buzzfile.com/business/Business-Capital-Conslnt-LLC-612-869-8831,85310-000,Contractor - Commercial,4/30/2014 0:00,,False,NR,0.0,1.0,0.0,False,Micro-small,False,3/2/2022 10:31,Search
1561,704,96544520,S Griffin Photography,2500 University Ave W # S8,,Saint Paul,MN,55114,USA,6512746998,,https://www.facebook.com/SGriffinPhotography/,60658-000,Photographers - Portrait,4/30/2014 0:00,,False,NR,0.0,1.0,0.0,False,Micro-small,False,1/26/2022 10:08,Search
1562,704,96544139,Lasting Impression Salon,104 County Road 37 # 200,,New Prague,MN,56071,USA,9527583770,,https://www.vagaro.com/lastingimpressionssalon,60134-000,Beauty Salons,,,False,A+,100.0,,,False,Micro-small,False,7/8/2020 4:45,Search
1563,704,96544871,Lock Doc,14626 S Robert Trl,,Rosemount,MN,55068,USA,6519642779,,https://www.emerson.com/documents/automation/reference-manual-rosemount-3051-pressure-transmitter-hart-r-protocol-en-89452.pdf,60522-000,Locks & Locksmiths,,,False,A+,100.0,,,False,Micro-small,False,7/1/2020 4:26,Search
1564,704,96544986,Allstate National Lease,3575 Sibley Memorial Hwy Ste 4,,Saint Paul,MN,55122,USA,6516814900,,https://www.manta.com/c/mm3m0hw/allstate-leasing-corporation,60909-000,Truck Rent & Lease,4/30/2014 0:00,,False,A+,100.0,,0.0,False,Micro-small,False,5/23/2021 3:54,Search
1565,704,96543981,"Ovrebo, Robert DVM",22799 Highland Ln,,Arlington,MN,55307,USA,5079645665,,https://www.buzzfile.com/business/Robert-Ovrebo-Dvm-507-964-5665,00222-000,Veterinarians,,,False,A+,100.0,,,False,Micro-small,False,7/9/2020 4:10,Search
1566,704,96545084,Brandt Lindgren,2 Enterprise Ave NE,,Isanti,MN,55040,USA,7634449139,,https://www.manta.com/c/mtrbqyc/brandt-lindgren,50016-000,Appliances - Major - Dealers,4/30/2014 0:00,4/1/2021 0:00,False,NR,0.0,,0.0,False,Micro-small,False,4/2/2021 4:01,Search
1567,704,96545191,Argyle Aviation,270 Airport Rd,,Saint Paul,MN,55107,USA,6516026049,,https://www.yellowpages.com/saint-paul-mn/mip/argyle-aviation-16206306,65114-000,Aviation Services,4/3/1998 0:00,,False,NR,0.0,,0.0,False,Micro-small,False,6/27/2020 3:57,Search
1568,704,96543889,Elite Gourmet Catering,830 12th St N,,Fargo,ND,58102,USA,7012324221,,https://www.manta.com/c/mttxqdd/elite-catering,50544-000,Restaurants,,,False,A+,100.0,1.0,,False,Micro-small,False,12/9/2022 9:20,Search
1569,704,96544131,Kevin J Anderson Pub Llc,4728 Oxborough Ct,,Minneapolis,MN,55443,USA,7633918067,,https://www.dnb.com/business-directory/company-profiles.kevin_j_anderson_pub_llc.9fa79c59ca43495044b3b302b5d89513.html,30543-000,Publishers - Book,,,False,A+,100.0,,,False,Micro-small,False,7/8/2020 4:45,Search
1570,704,96544674,Rod Nelson,10145 110th St SE,,Chatfield,MN,55923,USA,5078673086,,https://www.manta.com/c/mtv9r9h/rod-nelson,00128-000,Farms,,,False,A+,100.0,,,False,Micro-small,False,7/2/2020 4:06,Search
1571,704,96544528,Smart Insurance Agency Llc,407 Schilling Cir NW,,Forest Lake,MN,55025,USA,6515288809,,https://www.manta.com/c/mbs487l/smart-insurance-agency-llc,20080-000,Insurance Services,4/30/2014 0:00,,False,A+,100.0,,0.0,False,Micro-small,False,12/22/2018 4:05,Search
1572,704,96544148,Isd 742 Technology & Media Service,115 13th Ave S,,Saint Cloud,MN,56301,USA,3202528770,,http://www.isd742.org/,60246-100,Computers - Programming,,,False,A+,100.0,,,False,Micro-small,False,7/8/2020 4:45,Search
1573,704,96545016,Badillo Auto Electric,4202 14th Ave N,,Fargo,ND,58102,USA,7012829113,,https://unitedautotech.com/,60103-000,Auto Repair & Service,4/30/2014 0:00,,False,NR,0.0,1.0,0.0,False,Micro-small,False,6/8/2022 8:45,Search
1574,704,96544418,John D Anderson Inc,3508 E 28th St,,Minneapolis,MN,55406,USA,6127211721,,https://www.yellowpages.com/minneapolis-mn/mip/john-d-anderson-inc-7045788,60729-102,Real Estate Agents,,,False,A+,100.0,,,False,Micro-small,False,7/3/2020 4:12,Search
1575,704,96544345,Style At Home,4018 156th St W,,Rosemount,MN,55068,USA,6128496687,,https://www.houzz.com/professionals/interior-designer/rosemount-mn-us-probr0-bo~t_11785~r_5043779,60470-000,Interior Decorators & Designers,4/30/2014 0:00,,False,A+,100.0,1.0,0.0,False,Micro-small,False,1/28/2022 9:32,Search
1576,704,96544735,Humboldt Holdings Llc,7990 Island Rd,,Eden Prairie,MN,55347,USA,9529492845,,https://www.manta.com/c/mmg65qb/humboldt-holdings-llc,20017-000,Holding Companies,4/30/2014 0:00,,False,A+,100.0,1.0,0.0,False,Micro-small,False,10/6/2021 4:13,Search
1577,704,96544515,Stonegate Mortgage Corp,7900 International Dr Ste 750,,Minneapolis,MN,55425,USA,6123545460,,https://stonegaterate.com/,25053-000,Mortgage Bankers,4/30/2014 0:00,,False,NR,0.0,1.0,0.0,False,Micro-small,False,6/1/2022 21:26,Search
1578,704,96544475,"Lehto, Michael J",2025 Springvale Rd,,Duluth,MN,55811,USA,2183913030,,https://www.linkedin.com/in/mike-lehto-9258573a,60729-102,Real Estate Agents,,,False,A+,100.0,1.0,,False,Micro-small,False,4/6/2022 9:00,Search
1579,704,96544692,Sonus Center-Golden Valley,7738 Highway 55,,Golden Valley,MN,55427,USA,7632004961,,https://www.goldenvalleyhearing.com/?utm_source=google&utm_medium=organic&utm_campaign=gmb&utm_content=gmb_website,60323-000,Electronic Equipment & Suppliers - Service & Repair,4/30/2014 0:00,,False,NR,0.0,,0.0,False,Micro-small,False,7/13/2021 4:13,Search
1580,704,96544563,Tony J Brown,2626 7th St NE,,Minneapolis,MN,55418,USA,6127897081,,https://www.yellowpages.com/minneapolis-mn/mip/tony-j-brown-25726981?lid=25726981,60172-100,Coaching - Business,4/30/2014 0:00,,False,NR,0.0,,0.0,False,Micro-small,False,8/17/2021 4:06,Search
1581,704,96544685,Touch of Class Catering,141 Lewis Ave S Apt 202,,Watertown,MN,55388,USA,6122853622,,https://caterers.cmac.ws/touch-of-class-catering/72719/,50544-000,Restaurants,4/30/2014 0:00,,False,NR,0.0,1.0,0.0,False,Micro-small,False,8/18/2021 5:26,Search
1582,704,96545032,Anderson Jack Veterinarian,47410 170th Ave,,Zumbrota,MN,55992,USA,5077325988,,https://www.andersonveterinaryservice.com/,00222-000,Veterinarians,,,False,A+,100.0,,,False,Micro-small,False,12/2/2020 4:42,Search
1583,704,96544794,Med Grade,PO Box 24139,,Minneapolis,MN,55424,USA,6128863132,,https://biopharmguy.com/links/state-mn-all-alpha.php,50173-000,Computers - Dealers,7/20/2011 0:00,,False,A+,100.0,1.0,0.0,False,Micro-small,False,2/17/2022 9:42,Search
1584,704,96545165,Adek Investments,1600 University Ave W,,Saint Paul,MN,55104,USA,6516419806,,https://www.manta.com/c/mmsvzbj/adek-investments,20067-000,Stock & Bond Brokers,2/3/1999 0:00,8/29/2019 0:00,False,NR,0.0,,0.0,False,Micro-small,False,8/30/2019 4:29,Search
1585,704,96544646,Healtheast Optimum Rehab Ctr,1099 Helmo Ave N Ste 110,,Saint Paul,MN,55128,USA,6512325075,,https://web.stpaulchamber.com/Health-Care-Facilities/HealthEast-Optimum-Rehabilitation-Maplewood-6451,60445-000,Hospitals,,,False,A+,100.0,,,False,Micro-small,False,7/2/2020 4:06,Search
1586,704,96544431,Judith Kahn Consulting,3228 Dakota Ave S,,Minneapolis,MN,55416,USA,6122197457,,https://www.allbiz.com/business/judith-kahn-consulting-612-219-7457,60533-000,Management Consultants,4/30/2014 0:00,,False,NR,0.0,1.0,0.0,False,Micro-small,False,1/5/2023 9:23,Search
1587,704,96544797,Metro Transit Unloan Unbank,1700 Rice St,,Saint Paul,MN,55113,USA,6514898513,,https://weloans.com/store/metro-transit-unloan-unbank-2fd228f9,20003-000,Banks,4/30/2014 0:00,,False,A+,100.0,1.0,0.0,False,Micro-small,False,9/24/2021 3:48,Search
1588,704,96544517,Rose Temps & CO,1983 Sloan Pl,,Saint Paul,MN,55117,USA,6517889255,,https://www.roseint.com/,60327-000,Employment Contractors - Temporary Help,4/30/2014 0:00,6/6/2018 0:00,False,NR,0.0,,0.0,False,Micro-small,False,6/8/2021 4:14,Search
1589,704,96543960,New Neighbor Welcome Service,1848 Kathryn Cir,,Saint Paul,MN,55122,USA,6514569014,,https://www.visualvisitor.com/companies/2007283/new_neighbor_welcome_service,80010-000,Advertising Specialties,4/30/2014 0:00,,False,A+,100.0,1.0,0.0,False,Micro-small,False,2/6/2022 9:11,Search
1590,704,96544782,Kabloona Inc,3789 Briarwood Ln,,Eagan,MN,55123,USA,6514526600,,https://www.manta.com/c/mt448rj/kabloona-inc,60172-100,Coaching - Business,,9/10/2021 0:00,False,NR,0.0,1.0,,False,Micro-small,False,9/12/2021 3:47,Search
1591,704,96544132,Robb Stidger Photography,13570 Technology Dr Apt 2107,,Eden Prairie,MN,55344,USA,9522702136,,https://www.linkedin.com/in/robb-stidger-b4345322,60657-000,Photographers - Commercial,,,False,A+,100.0,,,False,Micro-small,False,7/8/2020 4:45,Search
1592,704,96544370,Jim Grussendorf Landscaping,6084 Highway 2,,Duluth,MN,55810,USA,2187298028,,https://www.grussendorfnursery.com/aboutus,00155-000,Landscape Contractors,,,False,A+,100.0,1.0,,False,Micro-small,False,9/10/2022 8:39,Search
1593,704,96544920,Mphasis,3600 American Blvd W Ste 330,,Bloomington,MN,55431,USA,6518822400,,https://www.mphasis.com/home/corporate/mphasis-contact-us.html,60246-100,Computers - Programming,4/30/2014 0:00,,False,A+,100.0,,0.0,False,Micro-small,False,1/24/2021 3:50,Search
1594,704,96544083,"Swanberg, Greg",1650 Madison Ave Ste 107,,Mankato,MN,56001,USA,5073878950,,https://www.manta.com/c/mrsnbr5/swanberg-greg,20080-000,Insurance Services,4/30/2014 0:00,,False,NR,0.0,1.0,0.0,False,Micro-small,False,12/8/2021 4:46,Search
1595,704,96544526,Sequin,4915 W 35th St Ste 205,,Minneapolis,MN,55416,USA,9529263797,,https://www.sequin-nyc.com/,30312-000,Jewels - Imitation,4/30/2014 0:00,,False,NR,0.0,1.0,0.0,False,Micro-small,False,1/10/2022 9:26,Search
1596,704,96544668,Healthy Weighs Clinic,7460 Market Place Dr Ste A,,Eden Prairie,MN,55344,USA,9528568900,,https://www.showmelocal.com/profile.aspx?bid=14366511,60946-000,Weight Control Services,,,False,A+,100.0,1.0,,False,Micro-small,False,2/12/2022 9:25,Search
1597,704,96544372,"Joyce, Karla DC",3353 Lexington Ave N,,Arden Hills,MN,55126,USA,6514903397,,https://www.manta.com/c/mbgqjmw/joyce-karla-dc,60205-000,Chiropractors D.C.,,,False,A+,100.0,,,False,Micro-small,False,7/3/2020 4:12,Search
1598,704,96545097,Catering Nichol,5412 Penn Ave N,,Minneapolis,MN,55430,USA,7635618560,,https://damicocatering.com/about/meet-the-team/,50544-000,Restaurants,4/30/2014 0:00,,False,A+,100.0,1.0,0.0,False,Micro-small,False,2/13/2022 9:10,Search
1599,704,96545154,All For the Family Hair Care,1750 Weir Dr Ste 5,,Woodbury,MN,55125,USA,6517354145,,https://www.groupon.com/biz/saint-paul/all-for-the-family-hair-care,60134-000,Beauty Salons,5/18/1989 0:00,9/11/2019 0:00,False,NR,0.0,,0.0,False,Micro-small,False,9/12/2019 4:12,Search
