,BBBID,BusinessID,BusinessName,StreetAddress,StreetAddress2,City,StateProvince,PostalCode,Country,Phone,Email,Website,TOBID,TOBDescription,DateBusinessStarted,DateBusinessClosed,IsBBBAccredited,BBBRatingGrade,BBBRatingScore,NumberOfEmployees,NumberOfPartTimeEmployees,IsHQ,SizeOfBusiness,IsCharity,CDWLastUpdate,FoundVia,status_code
0,704.0,96558521,Hibbing Heating and AC,800 Greyhound Blvd,,Hibbing,MN,55746.0,USA,2182638133.0,shawn@hibbingheatingac.com,http://www.hibbingheatingac.com/,10113-000,Plumbers,12/31/2013 0:00,,False,A+,100.0,1.0,0.0,False,Micro-small,False,10/27/2022 8:14,BBB,200
1,704.0,96386254,Derby4All LLC,2566 Ellis Ave Apt 109,,Saint Paul,MN,55114.0,USA,6512472869.0,derby4all@gmail.com,http://www.Derby4All.com,50608-000,Sporting Goods - Retail,1/6/2010 0:00,,False,A+,100.0,1.0,0.0,False,Micro-small,False,10/19/2022 8:27,BBB,200
2,704.0,1000012886,St. Paul Metro Treatment Center,2311 Woodbridge St,,Saint Paul,MN,55113.0,USA,6517730832.0,stpaul.mn@cmglp.com,https://newseason.com/clinics/st-paul-metro-treatment-center/,60311-000,Drug Abuse & Addiction - Info & Treatment,6/9/1999 0:00,,False,A+,100.0,1.0,0.0,False,Micro-small,False,8/26/2022 8:32,BBB,200
3,704.0,96010521,Penates Homes Inc,14643 Edgewood Dr Ste 115,,Baxter,MN,56425.0,USA,2188248333.0,kristophers@kuepers.com,https://www.kuepers.com/,10078-000,Home Builders,1/1/2002 0:00,,False,A+,100.0,2.0,,False,Micro-small,False,7/7/2021 4:58,Email,200
4,704.0,1000040120,Academia Elze LLC,4 W Franklin Ave,,Minneapolis,MN,55404.0,USA,6123455370.0,info@academiaelze.com,https://www.academiaelze.com/,60199-000,Child Care Centers,1/10/2018 0:00,,False,A+,100.0,1.0,,False,Micro-small,False,7/8/2022 12:31,BBB,200
5,704.0,1000057741,Professional Education Resources LLC,29491 Hay Creek Trl,,Red Wing,MN,55066.0,USA,6513012121.0,jolson@proedresource.com,https://proedresource.com/,85364-100,Online Education,9/18/2012 0:00,,False,A+,100.0,1.0,0.0,False,Micro-small,False,11/23/2022 9:43,BBB,200
6,704.0,96075270,Priority Plumbing & Drains,13220 County Road 6 Ste 150,,Plymouth,MN,55441.0,USA,7634778675.0,info@callpriority.com,http://www.callpriority.com/,10113-000,Plumbers,12/2/2005 0:00,,False,A+,100.0,2.0,0.0,False,Micro-small,False,1/13/2023 9:01,BBB,200
7,704.0,23002126,Alpha Omega Decorating,4429 Hodgson Rd,,Saint Paul,MN,55126.0,USA,6517650600.0,remodel@aodecorating.com,http://www.aodecorating.com,60470-000,Interior Decorators & Designers,10/1/1995 0:00,,False,A+,100.0,5.0,,False,Micro-small,False,7/22/2022 8:23,BBB,200
8,704.0,96083673,Peters Billiards,6150 Lyndale Ave S,,Minneapolis,MN,55419.0,USA,6128668433.0,jan@petersbilliards.com,http://www.petersbilliards.com,50076-000,Billiard Equipment & Supplies,1/1/1984 0:00,,False,A+,100.0,30.0,,False,Small,False,5/27/2022 8:35,BBB,200
9,704.0,43001931,Smart Sweep Chimney Service,7151 123rd St W,,Saint Paul,MN,55124.0,USA,9529973502.0,,http://www.smartsweepchimney.com,60201-000,Chimney Cleaning,7/1/1999 0:00,,False,A+,100.0,1.0,,False,Micro-small,False,10/5/2022 8:45,BBB,200
10,704.0,96142620,City Air Mechanical Inc,3505 E Rosser Ave,,Bismarck,ND,58501.0,USA,7012233775.0,,http://www.cityairmechanical.com,10113-000,Plumbers,1/1/1984 0:00,,False,A+,100.0,20.0,,False,Small,False,6/12/2022 8:06,BBB,200
11,704.0,96558492,Jay Fletch Real Estate Group,8631 Eagle Point Blvd,,Lake Elmo,MN,55042.0,USA,6515022972.0,jayfletch@edinarealty.com,http://www.jayfletchrealty.com/,60729-102,Real Estate Agents,,,False,A+,100.0,1.0,0.0,False,Micro-small,False,11/18/2022 9:13,BBB,200
12,704.0,96379008,"My Exteriors, Inc.",18996 Lincoln St NW,,Elk River,MN,55330.0,USA,7632414900.0,Rick@MyExteriorsMN.com,http://www.myexteriorsmn.com,10035-200,Contractor - Remodel & Repair,7/12/2006 0:00,,False,A+,98.67,8.0,0.0,False,Micro-small,False,9/10/2022 8:39,BBB,200
13,704.0,96008160,B N R Excavating,PO Box 4154,,Hastings,MN,55033.0,USA,6514388692.0,nadeau@usinternet.com,https://www.usinternet.com/,10050-000,Excavating Contractors,,11/25/2015 0:00,False,NR,0.0,1.0,,False,Micro-small,False,1/27/2023 9:08,Email,200
14,704.0,51001468,Austin Area Chamber of Commerce,329 N Main St Ste 102,,Austin,MN,55912.0,USA,5074374561.0,execdir@austincoc.com,http://www.austincoc.com,60194-000,Chambers Of Commerce,1/1/1939 0:00,,True,A+,100.0,3.0,0.0,False,Micro-small,False,1/24/2023 8:57,BBB,200
15,704.0,96130069,United Methodist First Choice FCU,122 W Franklin Ave Ste 400,,Minneapolis,MN,55404.0,USA,6128700058.0,,http://www.minnesotaumc.org,20009-000,Credit Unions,1/1/1992 0:00,,False,NR,0.0,25.0,,False,Micro-small,False,11/29/2021 3:59,BBB,200
16,704.0,23002635,"ECOsmarte Planet Friendly, Inc.",9437 Garfield Ave S Ste 110,Suite 110,Minneapolis,MN,55420.0,USA,6128661200.0,larryc@ecosmarte.com,http://www.ecosmarte.com,80779-000,Water Filtration & Purification Equipment,3/15/1996 0:00,,True,A+,100.0,14.0,0.0,False,Small,False,1/27/2023 9:08,BBB,200
17,704.0,96110396,TUCS Equipment,755 S Old Highway 18,,Princeton,MN,55371.0,USA,7636318827.0,dcoleman@tucsequipment.com,http://www.tucsequipment.com,30784-000,Manufacturers & Producers,1/1/1984 0:00,,False,A+,100.0,35.0,,False,Micro-small,False,9/15/2021 4:36,BBB,200
18,704.0,96107731,Southern Living House Plans,1000 County Road E W,,Shoreview,MN,55126.0,USA,6123555700.0,sharon.herbert@homeplans.com,http://www.coastallivinghouseplans.com,60439-000,Home Design & Planning,10/16/2008 0:00,,False,A+,100.0,1.0,0.0,False,Micro-small,False,10/5/2022 8:45,BBB,200
19,704.0,21001144,Active Research Investigations Inc,949 Vadnais Dr Ste B,,Vadnais Heights,MN,55127.0,USA,6516599551.0,,http://www.arinvestigation.com,60476-000,Investigators,11/17/2008 0:00,,False,A+,100.0,1.0,0.0,False,Micro-small,False,7/20/2022 9:09,BBB,200
20,704.0,96108583,"Redwood Building Center, Inc.",811 E Bridge St,,Redwood Falls,MN,56283.0,USA,5076378461.0,michaelw@redwoodbuildingcenter.com,http://www.redwoodbuildingcenter.com,10035-000,Contractors - General,1/1/1984 0:00,,False,A+,100.0,8.0,,False,Micro-small,False,6/17/2021 4:20,BBB,200
21,704.0,96281964,Fire Audiology & Hearing Center,121 North Washington St.,,Grand Forks,ND,58203.0,USA,7017875862.0,,http://www.hearingnd.com,50337-000,Hearing Aids & Assistive Devices,1/1/2002 0:00,,False,NR,0.0,2.0,,False,Micro-small,False,12/8/2022 9:14,BBB,200
22,704.0,1000031981,Shakopee Candle Company,611 Hennes Ave,,Shakopee,MN,55379.0,USA,6128047486.0,,https://shakopeecandle.com/,62100-000,Online Retailer,11/18/2016 0:00,,False,NR,0.0,1.0,,False,Micro-small,False,11/13/2022 9:01,BBB,200
23,704.0,1000011932,Launch 5 Media Inc,319 Nevada St ,,Northfield,MN,55057.0,USA,6127563922.0,info@launch5media.com,https://www.launch5media.com/,60473-600,Digital Marketing,11/24/2014 0:00,,False,A+,100.0,1.0,0.0,False,Micro-small,False,12/2/2021 4:07,BBB,200
24,704.0,1000012090,Jerry's Military Exchange,501 Bluff Ave,,St Charles,MN,55972.0,USA,7156713259.0,balkolikesbeer@gmail.com,https://jerrysmilitaryexchange-com.3dcartstores.com,50024-100,Military Goods,,,False,A+,97.0,1.0,0.0,False,Micro-small,False,12/1/2021 4:53,BBB,200
25,704.0,96360798,Justin Ruby&#39;s Bookkeeping Solutions,7459 96th St S,,Cottage Grove,MN,55016.0,USA,6512312307.0,jdruby11@smumn.edu,https://www.smumn.edu/,60155-000,Bookkeeping Service,,,False,A+,100.0,1.0,,False,Micro-small,False,9/14/2022 8:40,Email,200
26,704.0,96366497,"Stroman Tile, LLC",11016 Johnson Ave S,,Bloomington,MN,55437.0,USA,6122211630.0,stromantile@gmail.com,https://sites.google.com/site/stromantile/,10159-000,Tile - Ceramic - Contractors & Dealers,7/18/2011 0:00,,False,A+,100.0,1.0,,False,Micro-small,False,11/25/2020 4:56,BBB,200
27,704.0,1000006794,"Dance, Etc",1305 Dyke Ave,,Grand Forks,ND,58203.0,USA,7017753476.0,director@dance-etc-nd.com,http://www.dance-etc-nd.com/,60277-000,Dance Companies,9/7/1995 0:00,,False,NR,0.0,1.0,0.0,False,Micro-small,False,1/9/2023 8:32,BBB,200
28,704.0,96162328,Good Samaritan Society -Oakes,213 N 9th St,,Oakes,ND,58474.0,USA,7017423274.0,gss6260@good-sam.com,http://www.good-sam.com,60617-000,Nursing Homes,1/1/1984 0:00,,False,A+,100.0,118.0,0.0,False,Micro-small,False,8/4/2022 8:30,BBB,200
29,704.0,1000044769,Cass Precision Machining - Heartland Equity Management LLC,4800 N Lilac Drive ,,Brooklyn Center,MN,55429.0,USA,7635350501.0,info@cassprecision.com,https://cassprecisionmachining.com/,30366-000,Machine Shops,1/1/1945 0:00,,False,A+,100.0,1.0,0.0,False,Micro-small,False,8/30/2022 8:18,BBB,200
30,704.0,96036865,Potbelly Sandwich Works,8251 Flying Cloud Dr Ste 2332,,Eden Prairie,MN,55344.0,USA,9528290050.0,,http://www.potbelly.com,50555-000,Sandwiches,1/1/2004 0:00,,False,NR,0.0,25.0,,False,Small,False,9/2/2022 8:26,BBB,200
31,704.0,96190789,CNH Architects,7300 147th St W Ste 504,,Apple Valley,MN,55124.0,USA,9524314433.0,,http://www.cnharch.com,60057-000,Architects,11/12/1969 0:00,,False,A+,100.0,4.0,,False,Small,False,2/4/2023 9:01,BBB,200
32,704.0,1000000143,Lake Country Lawn & Landscape LLC,4475 Forest Lake Lndg,,Mound,MN,55364.0,USA,9523808953.0,lakecountrylawn@gmail.com,http://lakecountrylawnandlandscape.com,00155-000,Landscape Contractors,1/1/2007 0:00,,False,A+,100.0,2.0,0.0,False,Micro-small,False,12/3/2022 9:06,BBB,200
33,704.0,96342152,Visiting Angels,2000 Old West Main St Ste 345,,Red Wing,MN,55066.0,USA,6512126600.0,angelsredwing@comcast.net,http://www.visitingangels.com,85273-000,In-Home Care,12/1/2008 0:00,,False,A+,100.0,4.0,0.0,False,Micro-small,False,5/5/2022 8:23,BBB,200
34,704.0,96185116,Doeren Sales & Associates,217 Macarthur St E,,South St Paul,MN,55075.0,USA,6514931201.0,info@doerensales.com,http://doerensales.com,10086-000,Lighting Consultants,9/1/2006 0:00,,False,A+,100.0,4.0,,False,Micro-small,False,7/30/2020 4:00,BBB,200
35,704.0,96098614,Digital Illusion,6502 Glacier Ln N,,Maple Grove,MN,55311.0,,6126730085.0,bob@digitalillusioninc.com,http://www.digitalillusioninc.com,89000-000,Digital Media,10/1/1996 0:00,,False,A+,100.0,1.0,,False,Micro-small,False,2/9/2023 9:11,BBB,200
36,704.0,1000035550,"Cricket Wireless, LLC",1703 Rice St,,Saint Paul,MN,55113.0,USA,8559246246.0,,http://www.cricketwireless.com,70535-000,Cellular Telephone Service & Supplies,,8/9/2021 0:00,False,NR,0.0,1.0,0.0,False,Micro-small,False,6/1/2022 21:28,BBB,200
37,704.0,96541120,C & C Special Products Company,9640 Humboldt Ave S,,Minneapolis,MN,55431.0,USA,9528810073.0,,http://www.ccspecial.com/,30352-000,Lithographers,4/30/2014 0:00,,False,A+,100.0,1.0,0.0,False,Micro-small,False,7/8/2022 12:28,BBB,200
38,704.0,51001493,Wagner Construction Company Inc,2209 4th St NW,,Austin,MN,55912.0,USA,5074331878.0,,http://www.wagnerconstructioninc.com/,10078-000,Home Builders,1/1/1912 0:00,,False,NR,0.0,12.0,,False,Small,False,2/7/2023 8:59,BBB,200
39,704.0,96096694,Irrigation Management LLC,3500 Vicksburg Ln N Ste 359,,Minneapolis,MN,55447.0,USA,7636841880.0,billing@irrigationmgt.com,http://www.irrigationmgt.com,80404-000,Irrigation Systems & Equipment,1/1/2000 0:00,,False,A+,100.0,5.0,,False,Micro-small,False,2/7/2023 8:59,BBB,200
40,704.0,96043500,"HC Overhead Systems, Inc.",PO Box 10658,,Fargo,ND,58106.0,USA,7017990452.0,jhaakenson@702com.net,https://www.702com.net/,80398-000,Industrial Equipment & Supplies,1/1/2001 0:00,4/27/2016 0:00,False,NR,0.0,5.0,,False,Micro-small,False,4/29/2019 4:01,Email,200
41,704.0,96108500,"Hearing Planet, Inc.",100 Westwood Pl Ste 300,,Brentwood,TN,37027.0,USA,6152485910.0,,http://www.hearingplanet.com,50337-000,Hearing Aids & Assistive Devices,10/27/2008 0:00,,False,NR,0.0,2.0,,False,Micro-small,False,9/20/2016 4:29,BBB,200
42,704.0,1000005709,Trouble's Restaurant,928 6th St,,Howard Lake,MN,55349.0,USA,3205431100.0,,http://www.troublesrestaurant.com,50544-000,Restaurants,3/23/2011 0:00,,False,NR,0.0,1.0,0.0,False,Micro-small,False,2/24/2022 9:32,BBB,200
43,704.0,1000035429,OneMain Financial,401 40th Ave SW,Ste 141,Minot,ND,58701.0,USA,7018397537.0,,https://www.onemainfinancial.com/,20049-000,Consumer Finance & Loan Companies,,,True,NR,0.0,1.0,0.0,False,Micro-small,False,6/1/2022 21:28,BBB,200
44,704.0,96094666,"Free Geothermal Energy, LLC",2507 Eastwood Ln,,Monticello,MN,55362.0,USA,8779484436.0,bryon@freegeothermalenergy.com,http://www.freegeothermalenergy.com,10182-100,Geothermal Heating & Cooling,1/1/1995 0:00,,False,A+,100.0,1.0,,False,Micro-small,False,11/23/2022 9:42,BBB,200
45,704.0,96594097,Front Street Install Pros,1416 E. Front,,Bismarck,ND,58502.0,USA,7012551636.0,ken@frontstreetmillwork.com,https://www.frontstreetmillwork.com/,10078-000,Home Builders,2/22/2016 0:00,,False,NR,0.0,1.0,0.0,False,Micro-small,False,3/27/2022 8:19,Email,200
46,704.0,24000192,"Hales Machine Tool, Inc.",2730 Niagara Ln N,,Minneapolis,MN,55447.0,USA,7635531711.0,dhales@halesmachinetool.com,http://www.halesmachinetool.com,30367-000,Machine Tools,1/1/1983 0:00,,False,A+,100.0,26.0,,False,Medium,False,1/3/2023 8:39,BBB,200
47,704.0,96488578,"Tilford Contracting, LLC",6530 Balsam Ln N,,Maple Grove,MN,55369.0,USA,7632275952.0,tilfordcontracting@gmail.com,http://www.tilfordcontracting.com,10073-000,Gutters & Downspouts,3/12/2012 0:00,,False,A+,100.0,1.0,0.0,False,Micro-small,False,8/13/2022 8:19,BBB,200
48,704.0,96100558,"Yira Law Office, Ltd.",102 Main St S # 201,,Hutchinson,MN,55350.0,USA,3205870305.0,myira@yiralaw.com,http://www.yiralaw.com,60075-125,Attorneys & Lawyers - Personal Injury & Property Damage,1/1/2000 0:00,,False,A+,100.0,2.0,,False,Micro-small,False,10/7/2021 3:58,BBB,200
49,704.0,1000052331,Sue's Cut & Curl,102 4th St NE,,Fairfax,MN,55332.0,USA,5074267356.0,sgblack@gmail.com,https://m.facebook.com/suescutncurl/?ref=py_c,60134-000,Beauty Salons,1/1/1984 0:00,,False,A+,100.0,1.0,,False,Micro-small,False,2/16/2022 10:07,BBB,200
50,704.0,1000055861,"Front Line Consultants, LLC",4707 Highway 61 N # 1058,,White Bear Lake,MN,55110.0,,9522474335.0,info@flco.us,https://www.flco.us,60789-100,Security Guard Training,4/17/2020 0:00,,True,A+,97.04,2.0,,False,Micro-small,False,2/9/2023 9:12,BBB,200
51,704.0,96155815,Kallsen Internet Consulting LLC,13700 Theresa Pl,,Eden Prairie,MN,55346.0,USA,9529375954.0,,http://www.kallsen-internet-consulting.com,60980-000,Web Design,1/1/2004 0:00,,False,A+,100.0,1.0,,False,Micro-small,False,5/29/2020 3:58,BBB,200
52,704.0,96023428,Electric Motor Supply Company,4650 Main St NE,,Fridley,MN,55421.0,USA,7635719005.0,bbullock@emscomn.com,http://www.emscomn.com,60321-000,Electric Equipment - Service & Repair,11/4/1949 0:00,,True,A+,100.0,30.0,0.0,False,Small,False,1/11/2023 9:00,BBB,200
53,704.0,1000038532,Monticello Auto Body,213 Sandberg Rd,,Monticello,MN,55362.0,USA,7632954122.0,,http://www.monticelloautobody.com,60094-000,Auto Body Repair & Painting,1/1/2001 0:00,,False,A+,100.0,5.0,,False,Micro-small,False,7/15/2020 4:20,BBB,200
54,704.0,96149075,"Galvanizers, Inc.",1202 7th Ave NE,,West Fargo,ND,58078.0,USA,7012823906.0,sales@galvanizersinc.com,http://www.galvanizersinc.com,30255-000,Galvanizing,1/1/1988 0:00,,False,A+,100.0,50.0,0.0,False,Micro-small,False,6/12/2022 8:06,BBB,200
55,704.0,1000016228,Ez-Mow Minnesota LLC,1359 Glenview Rd,,Winona,MN,55987.0,USA,6124608332.0,sam@ezmowmn.com,https://ezmowmn.com/,10035-000,Contractors - General,1/23/2017 0:00,,False,A+,100.0,2.0,0.0,False,Micro-small,False,11/29/2022 9:07,BBB,200
56,704.0,1000008819,"Hafner's Greenhouse, Inc",16925 170th St,,Park Rapids,MN,56470.0,USA,2187328033.0,hafners@unitelc.com,http://www.hafnersgreenhouse.com/,10072-000,Greenhouses,9/4/2003 0:00,,False,A+,100.0,1.0,0.0,False,Micro-small,False,4/30/2020 3:57,BBB,200
57,704.0,96147783,Oak Park Wine & Spirits,5805 Neal Ave N,,Stillwater,MN,55082.0,USA,6514392184.0,,http://www.oakswine.com,50399-000,Liquor Stores,1/1/2009 0:00,6/8/2018 0:00,False,NR,0.0,2.0,,False,Micro-small,False,6/15/2021 4:23,BBB,200
58,704.0,38000697,B & C Plumbing Inc,15 Monroe St SE,,Hutchinson,MN,55350.0,USA,3202346900.0,bobarthur10@hotmail.com,http://www.b-cplumbing.com,10113-000,Plumbers,9/1/1997 0:00,,False,A+,100.0,8.0,,False,Small,False,1/10/2023 8:48,BBB,200
59,704.0,1000013202,Feline Snoozers Pack N Nap,18640 Harrow Ave N,,Forest Lake,MN,55025.0,USA,6514643294.0,nancy@felinesnoozers.com,http://www.felinesnoozers.com,50486-000,Pet Supplies & Foods - Retail,7/3/2008 0:00,,False,A+,100.0,1.0,0.0,False,Micro-small,False,9/10/2021 4:01,BBB,200
60,704.0,1000018887,Sharp-Edge Hardwood Floors LLC,24948 Hawthorn Rd,,Pierz,MN,56364.0,USA,7632621600.0,sharpedgefloors@hotmail.com,http://www.sharpedgefloors.com/,15058-000,Hardwood Floor Contractors,4/13/2005 0:00,,False,A+,100.0,1.0,0.0,False,Micro-small,False,5/12/2021 4:36,BBB,200
61,704.0,96199515,Jag Adjusting,15067 County Road 44,,Annandale,MN,55382.0,USA,3202742506.0,jody@jagadjusting.com,http://www.jagadjusting.com,20080-000,Insurance Services,1/1/2008 0:00,,False,A+,100.0,20.0,,False,Micro-small,False,6/15/2021 4:23,BBB,200
62,704.0,96133000,"Associated Finishing, Inc.",320 Mallard Ln,,Mankato,MN,56001.0,USA,5073455861.0,,http://www.associatedfinishing.com,80474-000,Metal Finishers,1/1/1984 0:00,,False,A+,100.0,85.0,0.0,False,Small,False,1/26/2023 8:50,BBB,200
63,704.0,96085590,Banner Engineering Corporation,9714 10th Ave N,,Minneapolis,MN,55441.0,USA,7635443164.0,,http://www.bannerengineering.com,60334-000,Engineers - Professional,1/1/1966 0:00,,False,A+,100.0,250.0,,False,Medium,False,11/23/2022 9:42,BBB,200
64,704.0,96092901,Widseth Smith Nolting & Associates Inc,216 S Main St Ste 1,,Crookston,MN,56716.0,USA,2182816522.0,crookston@wsn.us.com,http://www.widsethsmithnolting.com,60335-000,Engineering Contractors - General,1/13/1975 0:00,,False,A+,100.0,180.0,0.0,False,Small,False,10/22/2022 8:10,BBB,200
65,704.0,1000002457,Giefer Sales Company,630 Weston Ridge Pkwy,,Chaska,MN,55318.0,USA,6127474804.0,csteffensen@giefersales.com,http://www.giefersales.com/,85278-100,Metal Fabricating Machinery,1/2/1963 0:00,,False,NR,0.0,1.0,0.0,False,Micro-small,False,10/10/2022 7:59,BBB,200
66,704.0,1000051493,Pit Stop Express Lube,117 4th St NW,,Jamestown,ND,58401.0,USA,7019527867.0,pitstop@daktel.com,https://www.facebook.com/profile.php?id=100063744212053,60523-000,Lubricating Service - Automotive,12/2/2017 0:00,,True,A+,100.0,5.0,,False,Micro-small,False,1/28/2023 8:48,BBB,200
67,704.0,1000004622,Tri-County Organics,40 35th Ave NE,,Saint Cloud,MN,56304.0,USA,3204933270.0,,http://tri-countyorganics.com,86500-000,Composting Systems,7/30/2012 0:00,,False,A+,100.0,1.0,0.0,False,Micro-small,False,3/22/2020 4:00,BBB,200
68,704.0,1000022018,Advanced Plumbing & Drain Cleaning,311 3rd Ave SE,,E Grand Forks,MN,56721.0,USA,7017395460.0,jsuedel@rocketmail.com,https://www.facebook.com/Advanced-Plumbing-Drain-Cleaning-370156813470297/,10113-000,Plumbers,3/8/2018 0:00,,False,A+,100.0,1.0,0.0,False,Micro-small,False,7/20/2022 9:11,BBB,200
69,704.0,96144080,Klimpel Excavating Inc,1900 Parkside Dr,,Minot,ND,58701.0,USA,7018384406.0,klimpel@srt.com,https://www.srt.com/,10050-000,Excavating Contractors,8/1/1992 0:00,,False,A+,100.0,3.0,,False,Micro-small,False,5/19/2021 4:27,Email,200
70,704.0,96538701,Personnel Resources LLC,900 American Blvd E,,Minneapolis,MN,55420.0,USA,9523033042.0,wclayton@partnerwithexperts.com,http://www.partnerwithexperts.com,60326-000,Employment Agencies,,,False,A+,100.0,1.0,,False,Micro-small,False,4/29/2022 8:16,BBB,200
71,704.0,932,"Rental Research Services, Inc.",7525 Mitchell Rd Ste 301,,Eden Prairie,MN,55344.0,USA,9529355700.0,Lee.Mikkelson@rentalresearch.com,http://www.RentalResearch.com,85294-000,Screening - Tenant,1/1/1969 0:00,,False,A+,100.0,20.0,,False,Large,False,3/11/2021 4:07,BBB,200
72,704.0,96295889,Today&#39;s Driving School,100 Century Avenue SE,,Hutchinson,MN,55350.0,USA,8443748315.0,tim@todaysdrivingschool.com,http://www.todaysdrivingschool.com,60309-101,Auto Driving School,6/1/2002 0:00,,False,A+,100.0,14.0,0.0,False,Medium,False,2/2/2023 8:52,BBB,200
73,704.0,96037942,Minnesota Carpet Outlet,2421 Coon Rapids Blvd NW,,Minneapolis,MN,55433.0,USA,7637577322.0,minnesotacarpet@live.com,https://www.live.com/,50133-000,Carpet & Rug Dealers - New,2/28/1998 0:00,,False,A+,100.0,3.0,,False,Small,False,12/10/2022 9:02,Email,200
74,704.0,1000019754,Photopixels,2885 Knox Ave S Ste 805,,Minneapolis,MN,55408.0,USA,6127412345.0,,http://Photopixels.com,60655-100,Photographers,2/1/1999 0:00,,False,A+,100.0,1.0,0.0,False,Micro-small,False,1/1/2020 7:41,BBB,200
75,704.0,96223962,Mortgage & Investment Cnsltnt,26 6th Ave N Ste 220,,Saint Cloud,MN,56303.0,USA,3202020222.0,,http://Nationwidemortgageinc.com,20053-000,Mortgage Brokers,,6/16/2017 0:00,False,NR,0.0,5.0,,False,Micro-small,False,6/22/2020 3:55,BBB,200
76,704.0,96083101,Interstate Detroit Diesel,1921 S 16th Ave,,Virginia,MN,55792.0,USA,2187494484.0,trdmonds@istate.com,http://www.istate.com,60340-000,Engines - Fuel Injection Service & Parts,1/1/2000 0:00,,False,A+,100.0,7.0,,False,Micro-small,False,6/15/2022 9:01,BBB,200
77,704.0,96153748,National Karate,9770 Schreiber Ter N,,Minneapolis,MN,55445.0,USA,7634248868.0,,http://www.nationalkarate.com,60541-000,Martial Arts,1/1/1997 0:00,,False,A+,100.0,2.0,,False,Micro-small,False,8/1/2019 4:20,BBB,200
78,704.0,96090127,"Boe Ornamental Iron, Inc.",484 Lilac St,,Lino Lakes,MN,55014.0,USA,6517802627.0,dave@boeironinc.com,http://www.boeironinc.com,30438-000,Ornamental Metal Work,1/1/1979 0:00,,False,A+,100.0,10.0,,False,Micro-small,False,4/20/2022 8:35,BBB,200
79,704.0,15000912,Select Properties,1621 W Saint Germain St,,Saint Cloud,MN,56301.0,USA,3202531154.0,,http://www.selectprop.com,61003-000,Real Estate - Rentals by Individuals,1/1/1993 0:00,,False,A+,100.0,1.0,,False,Micro-small,False,7/26/2022 8:43,BBB,200
80,704.0,1000038120,Aset Supply & Paper Inc,7600 Boone Ave N Ste 71,,Brooklyn Park,MN,55428.0,USA,7634327263.0,customerservice@asetsupplyandpaper.com,http://www.asetsupplyandpaper.com/,80515-000,Office Supplies,1/21/1998 0:00,,False,A+,100.0,50.0,0.0,False,Medium,False,2/8/2023 9:28,BBB,200
81,704.0,96289069,Schaefer Vermeer Equipment LLP,11234 25th St SE,,Valley City,ND,58072.0,USA,7016466089.0,bigyellowironag@yahoo.com,https://bigyellowironag.wixsite.com/schaefervermeer,00103-000,Agricultural Services,3/21/2021 0:00,,False,A,94.52,6.0,0.0,False,Micro-small,False,1/10/2023 8:49,BBB,200
82,704.0,11164,Reed's Sales & Service,1260 Payne Ave,,Saint Paul,MN,55130.0,USA,6517749515.0,tool.repairmn@comcast.net,http://www.reedssalesandservice.com,50665-000,Tools - Electric,1/1/1956 0:00,,False,A+,100.0,4.0,,False,Large,False,4/2/2022 8:47,BBB,200
83,704.0,1000049757,Morrison Sund PLLC,"5125 County Road 101, Suite 200",,Minnetonka,MN,55345.0,USA,9529750050.0,kquarberg@morrisonsund.com,https://www.morrisonsund.com/,60075-112,Attorneys & Lawyers - Bankruptcy,11/25/1991 0:00,,False,A+,100.0,30.0,,False,Small,False,2/3/2023 9:13,BBB,200
84,704.0,96005969,"C & D Granite, LLC",767 1st St SE,,Richmond,MN,56368.0,USA,7635660522.0,brads@cdgranite.com,http://www.cdgranite.com,50191-000,Countertops,1/1/1994 0:00,,True,A+,100.0,36.0,0.0,False,Small,False,1/10/2023 8:48,BBB,200
85,704.0,96562173,CentraCare Health-Monticello,1013 Hart Blvd,,Monticello,MN,55362.0,USA,7632712384.0,eidemh@centracare.com,http://www.centacare.com,60445-000,Hospitals,3/6/2013 0:00,,False,A+,100.0,1.0,0.0,False,Micro-small,False,11/2/2022 8:36,BBB,200
86,704.0,96030038,Western States Envelope,980 Berwood Ave Ste 400,,Vadnais Heights,MN,55110.0,USA,6517738723.0,brad.cain@westernstatesenvelope.com,http://www.westernstatesenvelope.com/,80277-000,Envelopes - Wholesale & Manufacturers,6/10/1908 0:00,,False,NR,0.0,9.0,,False,Small,False,12/22/2022 9:08,BBB,200
87,704.0,96380533,Northland Polaris,131 Main St W,,Eagle Bend,MN,56446.0,USA,2187382582.0,sales@northlandpolaris.com,http://www.northlandpolaris.com,50595-000,Snowmobiles,1/1/1988 0:00,,False,A+,100.0,7.0,,False,Micro-small,False,10/14/2021 4:03,BBB,200
88,704.0,96354817,Selam Hospitality Services,15571 Finch Ave,,Saint Paul,MN,55124.0,USA,9529977778.0,abera@shshospitality.com,http://www.shshospitality.com,60478-000,Janitor Service,2/25/1999 0:00,,False,A+,100.0,6.0,,False,Small,False,1/7/2021 3:52,BBB,200
89,704.0,1000057703,Cedar Septic & Sewer LLC,19800 Heather St NW,,Cedar,MN,55011.0,USA,7632181397.0,cedar.septic@gmail.com,https://www.cedarsepticandsewer.com/,10129-000,Septic Tanks & Systems Contractors & Dealers,1/4/2021 0:00,,False,A,94.57,1.0,0.0,False,Micro-small,False,11/2/2022 8:36,BBB,200
90,704.0,1000019979,Cannon Pointe Chiropractic PA,1040 Highway 3 S,,Northfield,MN,55057.0,USA,5076458000.0,,https://www.cannonpointe.com/,60205-000,Chiropractors D.C.,6/13/2011 0:00,,False,A+,100.0,1.0,0.0,False,Micro-small,False,7/17/2021 4:10,BBB,200
91,704.0,96115436,Urban Collector LLC,3496 Centerville Rd,,Saint Paul,MN,55127.0,USA,6512460325.0,orders@urban-collector.com,https://www.urban-collector.com/,60974-000,Internet Shopping,1/1/2005 0:00,,False,A+,100.0,2.0,,False,Small,False,5/18/2022 18:23,Email,200
92,704.0,1000035952,Wells Fargo Bank Minnesota,2218 E Lake St Ste B,,Minneapolis,MN,55407.0,USA,6126676256.0,carolyn.h.roby@wellsfargo.com,http://www.wellsfargo.com,20003-000,Banks,1/1/1929 0:00,,False,NR,0.0,16600.0,0.0,False,Giant,False,6/1/2022 21:29,BBB,200
93,704.0,96189648,Ability Communications & Training,1941 Yorkshire Ave,,Saint Paul,MN,55116.0,USA,6518088600.0,ability@pclink.com,http://www.abilitycomm.com,60971-102,CPR Training & Certification,1/1/1990 0:00,,False,A+,100.0,1.0,,False,Micro-small,False,9/3/2021 3:50,BBB,200
94,704.0,96044546,Brighton-Best Socket Screw Mfg.,9060 Zachary Ln N STE 115,,Maple Grove,MN,55369.0,USA,7634259464.0,minnesota@brightonbest.com,http://www.brightonbest.com,50084-000,Bolts & Nuts,1/1/1991 0:00,,False,A+,100.0,500.0,,False,Large,False,8/4/2022 8:29,BBB,200
95,704.0,96098763,Facelogic Spa,8325 Kelzer Pond Dr,,Victoria,MN,55386.0,USA,9529343331.0,info@facelogicspa.com.,http://www.facelogicspa.com,65134-000,Day Spas,,,False,A+,100.0,1.0,,False,Micro-small,False,5/5/2022 8:22,BBB,200
96,704.0,1000006795,"Dale&#39;s Auto Detailing, LLC",203 Cooper Ave N Ste 340,,Saint Cloud,MN,56303.0,USA,3202500440.0,dale_hellickson@yahoo.com,http://www.dalesautodetailing.com/,60096-000,Auto Detailing,10/9/2012 0:00,,False,A+,100.0,1.0,0.0,False,Micro-small,False,1/27/2023 9:09,BBB,200
97,704.0,24000516,"Nexen Group, Inc.",560 Oak Grove Pkwy,,Saint Paul,MN,55127.0,USA,6514845900.0,,http://www.nexengroup.com,80812-000,Industrial Manufacturers,4/26/1990 0:00,,False,NR,0.0,35.0,,False,Medium,False,8/5/2022 8:37,BBB,200
98,704.0,1000002033,Riverwest Apartments,1073 Waterloo Ave,,W Saint Paul,MN,55118.0,USA,6513939205.0,lbradley@firstselect.net,http://www.firstselectequities.com,60042-000,Apartments,4/30/2009 0:00,,False,A+,100.0,1.0,0.0,False,Micro-small,False,12/9/2022 9:20,BBB,200
99,704.0,1000057528,Day 4 Electric,3037 166th Ave NE,,Ham Lake,MN,55304.0,USA,7632843294.0,tim@day-4.com,https://day-4.com/,10035-500,Electricians - Residential,1/28/2022 0:00,,True,A-,92.48,1.0,,False,Micro-small,False,1/25/2023 9:01,BBB,200
100,704.0,1000008779,Crow Wing Crest Lodge,31159 County 23,,Akeley,MN,56433.0,USA,2186523111.0,,http://www.crowwing.com,60447-000,Hotels,1/1/1984 0:00,,False,A+,100.0,17.0,0.0,False,Micro-small,False,2/8/2017 3:57,BBB,200
101,704.0,96039095,Nu Shapes Construction Inc.,8393 213th St W Ste 1,,Lakeville,MN,55044.0,USA,9524698940.0,dave@nushapes.com,http://nushapes.com,10177-000,Construction & Remodeling Services,1/1/1982 0:00,,False,A+,100.0,10.0,,False,Small,False,6/22/2022 11:33,BBB,200
102,704.0,17005249,ASAP Mobile Locksmiths,PO Box 44045,,Eden Prairie,MN,55344.0,USA,6128085900.0,david@asapml.com,http://www.asap-locksmith-minneapolis-mn.com/,60522-000,Locks & Locksmiths,1/1/1996 0:00,,False,A+,100.0,1.0,,False,Micro-small,False,1/18/2023 9:32,BBB,200
103,704.0,96123653,Andrashko Chiropractic Plus PC,8421 Wayzata Blvd Ste 220,,Minneapolis,MN,55426.0,USA,9522533880.0,,http://www.andrashko.com,60205-000,Chiropractors D.C.,1/1/1997 0:00,,False,NR,0.0,3.0,,False,Micro-small,False,5/25/2022 8:47,BBB,200
104,704.0,96024563,Franklin Outdoor Services,PO Box 1621,,Burnsville,MN,55337.0,USA,9529850909.0,jimh@fosinc.org,http://www.fosinc.org,00155-000,Landscape Contractors,12/22/1997 0:00,,False,A+,100.0,22.0,0.0,False,Small,False,5/11/2022 8:36,BBB,200
105,704.0,1000017637,Tenney Construction Services Inc,5652 West Oakes Dr,,Saint Cloud,MN,56303.0,USA,3207740722.0,,http://tenneyconstructionservices.com/,10177-000,Construction & Remodeling Services,11/7/2016 0:00,,False,NR,0.0,1.0,0.0,False,Micro-small,False,10/22/2021 3:46,BBB,200
106,704.0,96556933,C&C Ornamental Iron Works Inc.,4569 124 Rd NW,,Epping,ND,58843.0,USA,7018598768.0,c-coiw@hotmail.com,http://www.ccoiw.com/,10082-000,Iron Work,,,False,A+,100.0,1.0,0.0,False,Micro-small,False,12/29/2022 9:05,BBB,200
107,704.0,1000048274,Plains Mobile Contracting Services,750 Little Beaver Dr,,Linton,ND,58552.0,USA,7013212415.0,jonrichter@plainsmobile.com,https://plainsmobile.com/,00103-000,Agricultural Services,1/3/2011 0:00,,False,A+,100.0,3.0,,False,Micro-small,False,9/24/2022 9:02,BBB,200
108,704.0,96102140,Carbone's Pizzeria,7155 Jorgensen Ln S # 180,,Cottage Grove,MN,55016.0,USA,6514596666.0,janelleerickson@edinarealty.com,https://www.cgcarbones.com,50502-000,Pizza ,5/1/2004 0:00,,False,A+,100.0,18.0,,False,Small,False,10/27/2021 4:17,BBB,200
109,704.0,96367013,J C Wood Co,2840 Wilder Rd NW,,Rochester,MN,55901.0,USA,5072891613.0,rochph@rochph.com,http://www.rochph.com,10113-000,Plumbers,,,False,A+,100.0,1.0,,False,Micro-small,False,12/13/2022 9:03,BBB,200
110,704.0,96016804,"Environment Control Systems of Morris, Inc.",170 County Road 22,,Morris,MN,56267.0,USA,3205893865.0,pattin@hometownsolutions.net,https://ecsofmorris.com/,80443-000,Livestock Equipment & Supplies,1/1/1978 0:00,,False,A+,100.0,10.0,,False,Micro-small,False,7/29/2022 8:30,BBB,200
111,704.0,96141937,Scott Hansen Construction,13250 440th Ave,,Waseca,MN,56093.0,USA,5078354029.0,scott@scotthansenconstruction.com,http://www.scotthansenconstruction.com,10035-000,Contractors - General,1/1/2003 0:00,,False,A+,100.0,4.0,0.0,False,Micro-small,False,3/11/2020 5:21,BBB,200
112,704.0,96155302,Milepost 100 Inc,87311 Kettle Shores Loop,,Sturgeon Lake,MN,55783.0,USA,2183728064.0,,http://milepost100.com,30760-000,Woodworking,1/1/2003 0:00,,False,NR,0.0,1.0,,False,Micro-small,False,5/23/2022 8:18,BBB,200
113,704.0,96371033,"Minnesota Alternatives,LLC",7766 Highway 65 NE # 1,,Minneapolis,MN,55432.0,USA,7637894895.0,info@mnalternatives.com,http://www.mnalternatives.com,60033-000,Alcoholism Info & Treatment Centers,1/1/2009 0:00,,False,A+,100.0,12.0,,False,Micro-small,False,11/12/2020 3:57,BBB,200
114,704.0,96022942,Vargas Company Inc,2551 38th Ave NE Unit 113,,Minneapolis,MN,55421.0,USA,6124177585.0,,https://www.vargascompany.com/,60005-000,Accountants,8/16/1986 0:00,,False,A+,100.0,1.0,0.0,False,Micro-small,False,12/4/2020 4:07,BBB,200
115,704.0,96022410,EVS Inc,10025 Valley View Rd,Ste 140,Eden Prairie,MN,55344.0,USA,9526460236.0,dkim@evs-eng.com,http://www.evs-eng.com,60336-000,Engineers - Civil,10/1/1979 0:00,,False,A+,100.0,125.0,0.0,False,Small,False,9/22/2022 8:55,BBB,200
116,704.0,96382736,R & K Carpet Services Inc,8731 Queen Ave S,,Bloomington,MN,55431.0,USA,,carpetman@q.com,https://www.q.com/,30089-000,Carpet & Rug Binding,8/3/2004 0:00,,False,A+,100.0,1.0,,False,Micro-small,False,10/29/2020 3:52,Email,200
117,704.0,1000005379,"Fresh Look Paintings, LLC",105 2nd Ave SW Apt 4,,Hutchinson,MN,55350.0,USA,3204126749.0,sizzard@hutchtel.net,https://www.hutchtel.net/,10094-000,Paint Removing,1/21/2014 0:00,,False,A+,100.0,1.0,0.0,False,Micro-small,False,4/23/2022 8:16,Email,200
118,704.0,1000026403,Borderline Pest Control LLC,15431 640th Ave,,Adams,MN,55909.0,USA,5074383998.0,,https://www.facebook.com/borderlinepestcontrol/,60650-000,Pest Control Services,3/15/2018 0:00,,False,NR,0.0,1.0,0.0,False,Micro-small,False,5/16/2022 8:04,BBB,200
119,704.0,1000045683,Geek on the Go,1471 4th Ave East,,Dickinson,ND,58601.0,USA,7016907457.0,,http://www.geekonthego.net/,85272-110,Tech Support,4/15/2021 0:00,,False,A,94.0,1.0,,False,Micro-small,False,11/21/2022 8:39,BBB,200
120,704.0,96348555,Clinic Sofia OB GYN,6545 France Ave S STE 490,,Edina,MN,55435.0,USA,9529227600.0,sofia@clinicsofia.com,http://www.clinicsofia.com,60218-000,Clinics,1/1/2005 0:00,,False,A+,100.0,25.0,,False,Micro-small,False,4/28/2022 8:18,BBB,200
121,704.0,96595359,"Park Rapids Hardwood Flooring, LLC",16226 Discovery Cir,,Park Rapids,MN,56470.0,USA,2182551881.0,PRWOODFLOORS@GMAIL.COM,http://www.prhardwoodfloors.com/,85366-000,Contractors - Flooring,10/22/2014 0:00,,False,A+,100.0,1.0,0.0,False,Micro-small,False,1/21/2023 8:56,BBB,200
122,704.0,96176572,Timesavers LLC,11123 89th Ave N,,Maple Grove,MN,55369.0,USA,7634886600.0,glarson@timesaversinc.com,http://www.timesaversinc.com,30132-000,Contract Manufacturing,1/1/1946 0:00,,False,A+,100.0,75.0,,False,Micro-small,False,11/24/2022 9:01,BBB,200
123,704.0,96236502,AEM Electric Services Corporation,8201 Central Ave NE # M,,Minneapolis,MN,55432.0,USA,7637837080.0,schoenrock@aemelectric.com,https://www.yelp.com/biz/aem-electric-services-minneapolis,10049-000,Electricians,8/30/2010 0:00,,False,A+,100.0,20.0,,False,Small,False,7/21/2022 8:46,BBB,200
124,704.0,1000051092,Fireaway Inc,5852 Baker Rd,,Minnetonka,MN,55345.0,USA,9529359745.0,ldillon@statx.com,http://www.statx.com/,55562-000,Fire Protection,1/4/2011 0:00,,False,A+,100.0,1.0,,False,Micro-small,False,12/20/2022 8:57,BBB,200
125,704.0,96174663,Mopar Mel&#39;s Classic Restoration,602 N Mill St,,Fertile,MN,56540.0,USA,2182891185.0,mel@moparmel.com,http://moparmel.com,60105-000,Auto Restoration,1/1/2004 0:00,,False,A+,100.0,1.0,,False,Micro-small,False,7/16/2022 8:36,BBB,200
126,704.0,96112121,"Michael Colbert, DDS",10182 Lancaster Ln N,,Osseo,MN,55369.0,USA,7634244544.0,mikecolbertdds@yahoo.com,http://www.michaelcolbertdds.com,60289-000,Dentists,1/1/1978 0:00,,False,A+,100.0,4.0,,False,Small,False,7/1/2021 4:10,BBB,200
127,704.0,96271374,Sign-Symbol.com,230 Broadway N,,Fargo,ND,58102.0,USA,7012353840.0,,http://www.Sign-Symbol.com,30351-000,"Linings - Plastic, Membrane",1/1/1984 0:00,,False,NR,0.0,2.0,0.0,False,Micro-small,False,1/9/2022 9:15,BBB,200
128,704.0,96101513,Groveland Gallery,25 Groveland Ter,,Minneapolis,MN,55403.0,USA,6123777800.0,,http://www.grovelandgallery.com,60060-000,"Art Galleries, Dealers & Consultants",1/1/1984 0:00,,False,A+,100.0,2.0,,False,Micro-small,False,1/27/2021 4:41,BBB,200
129,704.0,21001939,"Olson Concrete & Masonry, Inc.",9206 Clinton Ave S,,Minneapolis,MN,55420.0,USA,9528981661.0,brad@epgunderson.com,http://www.epgunderson.com,10032-000,Concrete Contractors,4/1/1943 0:00,7/7/2020 0:00,False,NR,0.0,4.0,,False,Micro-small,False,12/1/2021 4:53,BBB,200
130,704.0,96097044,Peter Allen LLC,5610 Maplewood Rd,,Carver,MN,55315.0,USA,9523687177.0,peter@peterallenco.com,http://www.peterallenco.com,61003-000,Real Estate - Rentals by Individuals,1/1/2005 0:00,,False,A+,100.0,,0.0,False,Small,False,4/16/2020 3:53,BBB,200
131,704.0,9000747,KCI Concrete & Masonry Construction Inc,9175 Isanti St NE,,Minneapolis,MN,55449.0,USA,7637863625.0,kciconcrete@gmail.com,http://www.kciconcreteinc.com,10089-000,Mason Contractors,9/1/1965 0:00,,False,A+,100.0,20.0,,False,Micro-small,False,8/11/2022 15:56,BBB,200
132,704.0,96026372,New Market Bank,20151 Icenic Trl,,Lakeville,MN,55044.0,USA,9524691600.0,info@newmarket.bank,http://www.newmarket.bank,20003-000,Banks,1/1/1988 0:00,,False,A+,100.0,21.0,,False,Small,False,10/5/2021 3:59,BBB,200
133,704.0,22000776,"61 Marine & Sports, Inc.",11730 Point Douglas Dr S,,Hastings,MN,55033.0,USA,6514373522.0,alstewart@61marine.com,http://www.61marine.com,30787-000,Marine Sales & Service,8/21/1997 0:00,,False,A+,100.0,15.0,0.0,False,Small,False,5/26/2022 8:10,BBB,200
134,704.0,96591136,JL Beers,1230 Co Rd 42,,Burnsville,MN,55337.0,USA,9524566939.0,burnsvillejlb@gmail.com,http://www.jlbeers.com/burnsville,50544-000,Restaurants,10/6/2011 0:00,,False,A+,100.0,1.0,0.0,False,Micro-small,False,11/20/2022 8:59,BBB,200
135,704.0,96355329,GEC Cabinet LLC,1500 Washington Ave N,,Minneapolis,MN,55411.0,USA,6128776999.0,contact@geccabinetdepot.com,http://www.geccabinetdepot.com,50373-000,Kitchen Cabinets & Equipment - Household,6/1/2011 0:00,,False,A+,100.0,3.0,,False,Micro-small,False,1/7/2021 3:52,BBB,200
136,704.0,96048070,Cummins Npower,3115 Truck Center Dr,,Duluth,MN,55806.0,USA,2186283641.0,joel.d.erickson@cummins.com,http://www.cummins.com,60340-000,Engines - Fuel Injection Service & Parts,2/1/2007 0:00,,False,A+,100.0,11.0,,False,Small,False,1/28/2022 9:32,BBB,200
137,704.0,96350928,Xpress Locksmith Minneapolis,1913 Franklin Ave SE,,Minneapolis,MN,55414.0,USA,6129682317.0,dannycorik12@ymail.com,http://www.xpress-locksmith.com,60522-000,Locks & Locksmiths,1/1/2011 0:00,,False,A+,100.0,3.0,,False,Micro-small,False,1/29/2022 9:44,BBB,200
138,704.0,96158890,"Wildlife Control Now, LLC",8310 Lake Elmo Ave N,,Stillwater,MN,55082.0,USA,6517056585.0,steve@wildlifecontrolnow.com,http://www.wildlifecontrolnow.com,60650-000,Pest Control Services,4/1/2010 0:00,,False,A+,100.0,3.0,0.0,False,Micro-small,False,3/17/2022 8:43,BBB,200
139,704.0,96375329,The Cake Pan Lady,17699 Landmark Ct.,,Lakeville,MN,55044.0,USA,9528927267.0,info@thecakepanlady.com,http://www.thecakepanlady.com,50122-000,Cake Decorating Equipment & Supplies,1/1/2001 0:00,,False,NR,0.0,1.0,0.0,False,Micro-small,False,12/5/2021 3:57,BBB,200
140,704.0,1000010382,Epic Event Rental Inc.,14650 Martin Drive,,Eden Prairie,MN,55344.0,USA,9529446916.0,kim@epicrentalmn.com,http://www.epicrentalmn.com/,65259-000,Event Planners,9/9/2015 0:00,,False,A+,98.87,1.0,0.0,False,Micro-small,False,3/28/2019 4:18,BBB,200
141,704.0,96003408,All My Sons Moving & Storage,2400 Old Mill Rd,,Carrollton,TX,75007.0,USA,6123551313.0,mrichmond@allmysons.com,http://www.allmysons.com/minneapolis/index.aspx,70571-000,Movers,6/25/2003 0:00,1/30/2018 0:00,False,NR,0.0,75.0,,False,Small,False,6/1/2022 21:23,BBB,200
142,704.0,1000002701,Animusecom,3152 Elliot Ave,,Minneapolis,MN,55407.0,USA,6128232880.0,,http://www.animuse.com,60280-000,Data Processing Service,1/1/2009 0:00,,False,NR,0.0,2.0,0.0,False,Micro-small,False,1/30/2023 8:33,BBB,200
143,704.0,96538793,Curbscapes,PO Box 5342,,Fargo,ND,58105.0,USA,7017991231.0,,http://www.facebook.com/curbscapes.fargo?fref=ts,00155-000,Landscape Contractors,1/1/1999 0:00,8/10/2021 0:00,False,NR,0.0,1.0,,False,Micro-small,False,3/17/2022 8:43,BBB,200
144,704.0,1000007858,Lisa Nelson Designs LLC,8800 Humboldt Ave N,,Brooklyn Park,MN,55444.0,USA,7635606060.0,,https://lisanelsondesigns.com/,80411-000,Jewelry Designers,8/30/2010 0:00,,False,NR,0.0,1.0,0.0,False,Micro-small,False,1/22/2023 8:40,BBB,200
145,704.0,1000023728,Tinwood Homes,1084 167th Ave Nw,,Andover,MN,55304.0,USA,6125681208.0,cadie@tinwoodhomes.com,https://tinwoodhomes.com/,10035-000,Contractors - General,9/11/2012 0:00,,False,A+,100.0,1.0,0.0,False,Micro-small,False,8/18/2022 8:20,BBB,200
146,704.0,96148208,S&S Motors,133 Zieske Rd,,Courtland,MN,56021.0,USA,5073548634.0,kschaefer@newulmtel.net,http://www.ssmotors.com,50040-000,Auto Dealers - Used Cars,1/1/1986 0:00,,False,A+,100.0,13.0,,False,Small,False,11/10/2022 9:22,BBB,200
147,704.0,1000038289,Blue Pearl Pet Hospital,7717 Flying Cloud Dr,,Eden Prairie ,MN,55344.0,USA,9529428272.0,clientcare.mn@bluepearlvet.com,https://bluepearlvet.com/hospital/eden-prairie-mn/,00222-000,Veterinarians,6/18/2020 0:00,,False,A-,92.32,1.0,0.0,False,Micro-small,False,8/4/2022 8:31,BBB,200
148,704.0,43001591,"Multi-Tech Systems, Inc.",2205 Woodale Dr,,Saint Paul,MN,55112.0,USA,7637853500.0,sales@multitech.com,http://www.multitech.com,80229-000,Data Communications Equipment & Systems,1/1/1970 0:00,,False,A+,100.0,250.0,,False,Medium,False,7/21/2021 5:18,BBB,200
149,704.0,1000047961,Aurora Consulting,1229 Tyler St NE Ste 285,,Minneapolis,MN,55413.0,USA,6125843953.0,scohn@auroraconsult.com,https://www.auroraconsult.com/,44021-000,Consultant,10/28/2016 0:00,,False,A+,100.0,1.0,0.0,False,Micro-small,False,8/19/2021 4:23,BBB,200
150,704.0,1000057156,Corner Bait,500 Walnut Ave,,Madison Lake,MN,56063.0,USA,5072434464.0,nate@cornerbait.org,http://www.cornerbait.org,50265-000,Fishing Bait,10/6/2016 0:00,,False,A+,100.0,1.0,0.0,False,Micro-small,False,2/1/2023 8:58,BBB,200
151,704.0,96345568,HomeNeeds.co LLC,3950 N Shore Dr,,Mound,MN,55364.0,USA,6518080171.0,hailpros@gmail.com,http://www.homeneeds.co,10177-000,Construction & Remodeling Services,1/1/2009 0:00,,False,A+,100.0,1.0,0.0,False,Micro-small,False,8/9/2020 4:12,BBB,200
152,704.0,57000086,Integrated Equity Management Inc,8009 34th Ave S Ste 1550,,Bloomington,MN,55425.0,USA,9528545544.0,ted@integratedequity.net,http://www.integratedequity.net/,60349-000,Estate Planning & Management,2/1/1984 0:00,,False,A+,100.0,15.0,0.0,False,Micro-small,False,4/27/2022 8:40,BBB,200
153,704.0,96595887,SEEK Careers/Staffing,1981 Silver Bell Road,,Eagan,MN,55122.0,USA,6512003456.0,Info@seekcareers.com,http://www.seekcareers.com,60328-100,Employment Service,9/28/2006 0:00,,False,A+,100.0,1.0,0.0,False,Micro-small,False,12/2/2022 9:29,BBB,200
154,704.0,1000061495,CDA,705 N Walnut St ,,Chaska,MN,55318.0,USA,9524487715.0,,https://www.carvercda.org/,65840-200,Low Income Housing,,,False,NR,0.0,1.0,,False,Micro-small,False,1/4/2023 9:06,BBB,200
155,704.0,1000060599,Vogel Venture LLC,10621 McCool Ct,,Burnsville,MN,55337.0,USA,6123277735.0,heather@vogelventure.com,https://www.vogelventure.com/,60538-000,Marketing Consultants,11/3/2021 0:00,,False,A-,92.58,1.0,0.0,False,Micro-small,False,11/15/2022 9:13,BBB,200
156,704.0,1000016689,Derry D Walker Independent Agent - The Assurance Group,1065 212th Ave NE,,East Bethel,MN,55011.0,USA,6513871266.0,ddwalker@assuregrp.com,http://www.assuregrp.com,20029-000,Insurance - Life,1/1/2017 0:00,,False,A+,100.0,1.0,0.0,False,Micro-small,False,8/20/2021 4:26,BBB,200
157,704.0,96326357,"1-2 Tree Moving & Transplanting, LLC",13541 Hemlock Ln N,,Dayton,MN,55327.0,USA,7632213999.0,trsinmn@yahoo.com,http://12treemoving.com/,00219-000,Tree Service,12/16/2009 0:00,,False,A+,100.0,1.0,0.0,False,Micro-small,False,9/2/2022 8:26,BBB,200
158,704.0,96090487,Joint Powers Water Board,11100 50th St NE,,Albertville,MN,55301.0,USA,7634973611.0,kelly.daleiden@veoliawaterna.com,https://jointpowerswater.com/,70647-000,Water Companies - Utility,12/31/1978 0:00,,False,A+,100.0,10.0,,False,Small,False,7/8/2022 12:23,BBB,200
159,704.0,96557935,Luxury Bath Remodeling LLC,2717 Highway 14 W STE L,,Rochester,MN,55901.0,USA,5072815637.0,loren@luxurybathrochester.com,http://www.luxurybathrochester.com,10177-101,Bathroom Remodeling,6/19/2014 0:00,,False,A+,100.0,1.0,0.0,False,Micro-small,False,8/5/2022 8:38,BBB,200
160,704.0,1000019590,Point Electric Inc,8201 10th Ave S,,Minneapolis,MN,55420.0,USA,9528579867.0,info@pointelectric.net,https://pointelectric.net/,10049-000,Electricians,10/19/2016 0:00,,False,A+,100.0,1.0,0.0,False,Micro-small,False,11/24/2021 4:23,BBB,200
161,704.0,96010139,A-1 Concrete Leveling,22522 165th St NW,,Elk River,MN,55330.0,USA,7632622827.0,vande@connections-etc.net,http://www.a1concrete.com,00171-000,Mud Jacking Contractors,1/1/2000 0:00,,True,A+,100.0,3.0,0.0,False,Micro-small,False,1/4/2023 9:04,BBB,200
162,704.0,96062568,Minnesota FAIR Plan,1128 Harmon Pl STE 311,,Minneapolis,MN,55403.0,USA,6123387584.0,danj@mnfairplan.org,http://www.mnfairplan.org,20019-000,Insurance Companies,8/1/1968 0:00,,False,A+,100.0,11.0,,False,Small,False,6/22/2022 11:33,BBB,200
163,704.0,96096780,Anytime Fitness,975 Frontenac Dr Ste C,,Winona,MN,55987.0,USA,5074940000.0,,http://www.anytimefitness.com,60353-000,Exercise & Physical Fitness Programs,1/1/2006 0:00,,False,NR,0.0,6.0,,False,Micro-small,False,1/10/2022 9:26,BBB,200
164,704.0,96369024,Morris Construction,5075 124th St N,,White Bear Lake,MN,55110.0,USA,6122724428.0,info@morrisbuild.com,https://www.morrisbuild.com/,10177-000,Construction & Remodeling Services,,,False,A+,100.0,1.0,,False,Micro-small,False,3/23/2022 8:48,BBB,200
165,704.0,96133343,"Landkamer, Johnson, Boman Funeral Home",825 S Front St,,Mankato,MN,56001.0,USA,5073454574.0,,http://www.landkamer.com,62000-000,Funeral Homes,1/1/1991 0:00,12/3/2019 0:00,False,NR,0.0,2.0,,False,Micro-small,False,12/5/2022 8:56,BBB,200
166,704.0,96372912,"Gibson's Refrigeration, Inc.",1696 155th Ave NW,,Andover,MN,55304.0,USA,7632219951.0,gri.ref@gmx.com,https://www.gmx.com/,80600-000,Refrigeration Equipment - Commercial - Sales & Service,9/6/2010 0:00,,False,A+,100.0,1.0,,False,Micro-small,False,11/7/2020 4:08,Email,200
167,704.0,96119511,Schmitz Electric Co.,308 W Main St,,Adams,MN,55909.0,USA,5075823528.0,alanschmitz@schmitzelectric.com,http://www.schmitzelectric.com,10049-000,Electricians,1/1/1948 0:00,,True,A+,100.0,9.0,0.0,False,Micro-small,False,1/28/2023 8:47,BBB,200
168,704.0,96378488,"In & Out Home Improvements, LLC",1695 Arkwright St,,Saint Paul,MN,55117.0,USA,6129402209.0,inandouthomeimprovements@gmail.com,https://in-out-home-improvements-llc.business.site/,10035-000,Contractors - General,6/2/2011 0:00,,True,A+,100.0,1.0,0.0,False,Micro-small,False,4/1/2022 8:40,BBB,200
169,704.0,96580111,Montana-Dakota Utilities Company,220 2nd Ave E,,Williston,ND,58801.0,USA,7015721600.0,customerservice@mdu.com,http://montana-dakota.com,70554-000,Natural Gas Companies,11/5/2015 0:00,,False,A+,100.0,1.0,0.0,False,Micro-small,False,11/20/2022 8:59,BBB,200
170,704.0,1000053940,MedSource International LLC,8600 Shelby Ct,,Chanhassen,MN,55317.0,USA,9524720131.0,info@medsourcelabs.com,http://www.gomedsource.com,80385-100,Medical Equipment & Supplies,1/3/2002 0:00,,False,A+,100.0,10.0,,False,Micro-small,False,7/8/2022 12:32,BBB,200
171,704.0,1000012618,T Bar L Lodging,10247 156th Ave,,Hettinger,ND,58639.0,USA,7015673552.0,tbarl@ndsupernet.com,https://www.facebook.com/t-bar-l-lodging-188732797831959/,60447-000,Hotels,10/1/2003 0:00,,False,A+,100.0,1.0,0.0,False,Micro-small,False,11/12/2021 4:01,BBB,200
172,704.0,96505707,Good Samaritan Society - Westbrook,PO Box 218,,Westbrook,MN,56183.0,USA,5072746155.0,,http://Good-Sam.com,60617-000,Nursing Homes,1/20/2014 0:00,,False,NR,0.0,1.0,0.0,False,Micro-small,False,8/4/2022 8:30,BBB,200
173,704.0,1000020855,"Flickertail VIPS, LLC",8011 51st St NW,,Belden,ND,58784.0,USA,7014218813.0,jordan@flickertailvips.com,https://www.flickertailvips.com/,60539-000,Marketing Programs & Services,8/17/2018 0:00,9/14/2021 0:00,False,NR,0.0,1.0,0.0,False,Micro-small,False,9/16/2021 4:15,Email,200
174,704.0,1000035324,Associated Bank,1985 Commerce Dr NW,,Rochester,MN,55901.0,USA,6123594434.0,chris.niles@associatedbank.com,http://www.associatedbank.com,20003-100,Banking Services,1861-12-31 00:00:00,,False,A+,100.0,4400.0,0.0,False,Giant,False,6/1/2022 21:27,BBB,200
175,704.0,1000023667,All About Fun Rentals,3460 251st Ave,,Madison,MN,56256.0,USA,2313012269.0,flightjunkiebob@yahoo.com,http://allaboutfunrentals.com/contact/,44041-000,Entertainment,4/18/2017 0:00,,False,A+,100.0,1.0,0.0,False,Micro-small,False,8/10/2022 8:52,BBB,200
176,704.0,96160561,On the Limit,2224 W Superior St,,Duluth,MN,55806.0,USA,2187238266.0,,http://www.otlduluth.com,30198-000,Embroidery,1/1/1988 0:00,,False,A+,100.0,20.0,,False,Small,False,9/3/2021 3:50,BBB,200
177,704.0,96028773,Carlsen & Frank Architects,524 Selby Ave,,Saint Paul,MN,55102.0,USA,6512274576.0,sfrank@carlsenfrank.com,http://www.carlsenfrank.com,60057-000,Architects,1/1/1983 0:00,,False,A+,100.0,2.0,,False,Micro-small,False,4/12/2022 9:14,BBB,200
178,704.0,96489198,Sarah Pierce Photography,12301 Whitewater Dr. Ste. 105,,Minnetonka,MN,55343.0,USA,6122342714.0,sarah@sarahpiercephotography.com,http://www.sarahpiercephotography.com/,60655-100,Photographers,12/10/2012 0:00,,False,A+,100.0,1.0,0.0,False,Micro-small,False,4/22/2022 8:18,BBB,200
179,704.0,96038277,McArthur's Banquet & Reception,26155 Nicolai Ave,,Cannon Falls,MN,55009.0,USA,5072632507.0,,http://www.gopherhills.com,50055-000,Banquet Facilities,11/1/2003 0:00,,False,NR,0.0,50.0,,False,Medium,False,5/23/2022 8:18,BBB,200
180,704.0,96143947,Duffy&#39;s Hockey & Sports,1525 31st Ave SW Ste B,,Minot,ND,58701.0,USA,7018399220.0,,http://www.duffyshockey.com,50608-000,Sporting Goods - Retail,1/1/2005 0:00,,False,A+,100.0,6.0,,False,Micro-small,False,8/4/2022 8:30,BBB,200
181,704.0,96175380,Cuyuna Regional Medical Center,320 E Main St,,Crosby,MN,56441.0,USA,2185467000.0,peggy.stebbins@cuyunamed.org,https://www.cuyunamed.org,60445-000,Hospitals,5/8/1964 0:00,,False,A+,100.0,1200.0,,False,Large,False,9/28/2022 10:19,BBB,200
182,704.0,96159286,Straightline Sealcoating & Striping,7759 3rd St S,,Moorhead,MN,56560.0,USA,7017998686.0,callstraightline@yahoo.com,http://straightlinepavement.com/,10097-000,Parking Area Maintenance & Marking,4/21/2005 0:00,,True,A+,100.0,1.0,0.0,False,Micro-small,False,1/26/2023 8:49,BBB,200
183,704.0,1000013346,Antiques America,107 Tobies Mill Pl,,Hinckley,MN,55037.0,USA,3203847272.0,,https://antiques-america.com/,50626-000,Surplus & Salvage Merchandise,1/1/1999 0:00,,False,A+,100.0,1.0,0.0,False,Micro-small,False,6/25/2021 4:15,BBB,200
184,704.0,15002651,Ultimate Transportation,492 36th St S,,Fargo,ND,58103.0,USA,7012826060.0,ron@ideaone.net,http://www.ultimatetrailers.com,85356-000,Trailer Sales,1/1/1995 0:00,,False,A+,100.0,8.0,0.0,False,Small,False,8/6/2021 4:09,BBB,200
185,704.0,96224517,Alex Viking Towing Inc,207 Irving St,,Alexandria,MN,56308.0,USA,3207636738.0,avtowing@outlook.com,https://www.facebook.com/alexvikingtowing/,60891-000,Towing - Automotive,1/1/1985 0:00,,False,A+,100.0,1.0,,False,Micro-small,False,9/27/2022 8:58,BBB,200
186,704.0,96294467,Little Beginnings Learning Center,12140 120th St S,,Hastings,MN,55033.0,USA,6514801416.0,littlebeginnings@mac.com,http://littlebeginningslc.com,60199-000,Child Care Centers,1/1/1999 0:00,,False,A+,100.0,15.0,,False,Micro-small,False,2/18/2022 9:11,BBB,200
187,704.0,96343258,Knoblauch Builders LLC,1450 Knob Hill Ln,,Excelsior,MN,55331.0,USA,9524745662.0,jknobs@knoblauchbuilders.com,http://knoblauchbuilders.com,10078-000,Home Builders,7/6/2000 0:00,,False,A+,100.0,2.0,0.0,False,Micro-small,False,12/31/2020 3:54,BBB,200
188,704.0,96192455,"Dock & Door Tec, Inc.",19941 Iguana St NW,,Elk River,MN,55330.0,USA,7637530792.0,sales@dockdoortec.com,https://www.dockdoortec.com/,50221-500,Doors - Commercial,5/16/2006 0:00,,False,A+,100.0,18.0,,False,Small,False,4/21/2022 8:28,BBB,200
189,704.0,96088865,Aavin Venture Capital,118 3rd Ave SE Ste 630,,Cedar Rapids,IA,52401.0,USA,3192471072.0,,http://www.aavin.com,20068-000,Stock & Bond Transfer Agents,1/1/2001 0:00,,False,A+,100.0,7.0,0.0,False,Micro-small,False,6/16/2021 4:54,BBB,200
190,704.0,96131147,Physicians Resource Network,2510 Hillsboro Ave N,,Minneapolis,MN,55427.0,USA,7635452842.0,,http://www.physiciansresourcenetwork.com,60970-000,Physicians - Specialists,1/1/1999 0:00,10/12/2015 0:00,False,NR,0.0,6.0,,False,Micro-small,False,10/15/2018 4:05,BBB,200
191,704.0,1000046391,DK Sales Consulting LLC,7270 Divinity Ln,,Eden Prairie,MN,55346.0,USA,6123083705.0,dave@dksalesconsulting.com,https://www.dksalesconsulting.com/,60772-000,Sales Training,6/6/2018 0:00,,False,A+,98.04,1.0,0.0,False,Micro-small,False,8/24/2021 4:06,BBB,200
192,704.0,96156661,Quiznos Subs & Sandwichs,1100 19th Ave N Ste 3,,Fargo,ND,58102.0,USA,7018939296.0,,http://www.quiznos.com,50544-000,Restaurants,1/1/2003 0:00,6/5/2017 0:00,False,NR,0.0,6.0,,False,Small,False,6/8/2020 3:56,BBB,200
193,704.0,1000024068,Ewing & Hrastich Real Estate Team,520 Commons Dr,,Woodbury,MN,55125.0,USA,6513346124.0,amandadwyer@edinarealty.com,https://www.edinarealty.com/dixie-ewing-realtor#/,60729-102,Real Estate Agents,10/1/1978 0:00,,True,A+,100.0,5.0,0.0,False,Micro-small,False,10/7/2022 8:31,BBB,200
194,704.0,96372732,Great Waters Financial,510 1st Ave N Ste 410,,Minneapolis,MN,55403.0,USA,6123602127.0,info@mygreatwaters.com,http://greatwatersfinancial.com/,20063-000,Retirement Planning Service,9/11/2012 0:00,,True,A+,100.0,48.0,0.0,False,Small,False,1/4/2023 9:05,BBB,200
195,704.0,1000010565,Hart and Soul Herbal,4124 Lane Ct N,,Brooklyn Park,MN,55443.0,USA,7635164915.0,info@hartandsoluherbal.com,http://www.hartandsoulherbal.com/,60542-000,Massage Therapeutic,5/25/2011 0:00,,False,A+,100.0,1.0,0.0,False,Micro-small,False,9/14/2022 8:40,BBB,200
196,704.0,43000954,"Industrial Construction Services, Inc.",215 15th St S,,Saint James,MN,56081.0,USA,5073754633.0,cbrown@icsmn.com,https://www.icsmn.com,10013-000,Building Contractors,8/1/1994 0:00,,False,NR,0.0,20.0,,False,Small,False,8/16/2022 8:19,BBB,200
197,704.0,96379837,Dent Werks PDR LLC,13810 24th Ave N Ste 440,,Plymouth,MN,55441.0,USA,6122379026.0,jakekelm@dentwerkspdr.com,http://www.dentwerkspdr.com,60094-100,Auto Paintless Dent Repair,5/4/2010 0:00,,False,A+,100.0,1.0,,False,Micro-small,False,4/20/2022 8:35,BBB,200
198,704.0,96091469,City of Champlin Engineering Department,11955 Champlin Dr,,Champlin,MN,55316.0,USA,7634211955.0,email@ci.champlin.mn.us,http://ci.champlin.mn.us/,60335-000,Engineering Contractors - General,10/1/1987 0:00,,False,A+,100.0,,0.0,False,Micro-small,False,4/10/2021 4:12,BBB,200
199,704.0,1000045255,Betsy Rewald - Coldwell Banker Realty,7550 France Ave S Ste 300,,Edina,MN,55435.0,USA,6515038549.0,betsyrewald@cbburnet.com,https://www.betsyrewald.com/,60729-102,Real Estate Agents,1/20/2004 0:00,,False,A+,100.0,,,False,Micro-small,False,7/10/2021 4:23,BBB,200
200,704.0,96564184,"North Shore Cleaning Services, Inc.",2021 Highway 61 ,,Two Harbors,MN,55616.0,USA,2182605743.0,april.schultz@northshorecleaningservices.net,http://northshorecleaning.business.site,60449-000,House Cleaning,3/1/2010 0:00,,False,A+,100.0,5.0,0.0,False,Micro-small,False,8/23/2022 8:26,BBB,200
201,704.0,1000052345,Atman Law Firm PLLC,1001 Johnson Pkwy Ste A3,,Saint Paul,MN,55106.0,USA,6126431199.0,anivuin@atmanlawfirm.com,https://www.facebook.com/atmanlawfirm/,60075-000,Attorneys & Lawyers,12/11/2015 0:00,,False,A+,100.0,1.0,,False,Micro-small,False,1/25/2023 9:01,BBB,200
202,704.0,96085757,"Arctic Heating & Air Conditioning, Inc.",20706 Georgia Avenue Cir N,,Forest Lake,MN,55025.0,USA,6514642887.0,,http://www.arcticheating.org,10182-000,Heating & Air Conditioning,1/1/1998 0:00,,False,A+,100.0,1.0,,False,Micro-small,False,12/13/2022 9:03,BBB,200
203,704.0,96008871,"Commercial Collectors, Inc.",PO Box 337,,Montrose,MN,55363.0,USA,8003280793.0,barmstrong@commercialcollectors.com,http://www.commercialcollectors.com,60226-000,Collection Agencies,5/11/1961 0:00,,True,A+,100.0,10.0,,False,Micro-small,False,2/3/2023 9:12,BBB,200
204,704.0,96015254,Wire Master Electric Inc,7146 Shady Oak Rd,,Eden Prairie,MN,55344.0,USA,9529213400.0,sales@wiremasterav.com,http://www.wiremasterav.com,50031-000,Audio-Visual Equipment - Supplies & Parts,1/1/2001 0:00,6/3/2016 0:00,False,NR,0.0,5.0,,False,Micro-small,False,11/11/2022 9:28,BBB,200
205,704.0,1000015133,OMG Health LLC,5002 6th Street NE,,Columbia Hts,MN,55421.0,USA,7632028681.0,craigmalwitz@comcast.net,http://www.omghealthsupplements.com,60971-000,Health & Medical - General,8/14/2017 0:00,,False,A+,97.0,1.0,0.0,False,Micro-small,False,6/2/2020 3:56,BBB,200
206,704.0,96110664,Cross Telecom Corporation,10900 Nesbitt Ave S,,Bloomington,MN,55437.0,USA,9524563500.0,dschilling@crosstelecom.com,https://www.crosstelecom.com/,70618-000,Telephone Communications,11/15/1996 0:00,,False,A+,100.0,310.0,0.0,False,Medium,False,7/8/2022 12:23,Email,200
207,704.0,1000054241,Search Marketing Wizards LLC,2613 Clover Field Cir,,Chaska,MN,55318.0,USA,9524483806.0,info@search-marketing-wizards.com,https://search-marketing-wizards.com/,60473-200,Search Engine Optimization Services,2/15/2012 0:00,,False,A+,100.0,1.0,0.0,False,Micro-small,False,11/9/2022 9:17,BBB,200
208,704.0,96135928,Northland Fishing Tackle Inc,1001 Naylor Dr SE,,Bemidji,MN,56601.0,USA,2182865441.0,rmainville@northlandtackle.com,http://www.northlandtackle.com,80311-000,Fishing Tackle - Wholesale & Manufacturers,1/1/1999 0:00,,False,A+,100.0,45.0,,False,Small,False,6/17/2022 8:35,BBB,200
209,704.0,1000015808,Taco Bell,565 Snelling Ave N,,Saint Paul,MN,55104.0,USA,6516465900.0,snellingtb@borderfoods.com,https://www.borderfoods.com/,50544-000,Restaurants,,,False,A+,99.84,1.0,0.0,False,Micro-small,False,11/11/2021 4:02,Email,200
210,704.0,96569808,Sport Clips Chaska,2908 N Chestnut St,,Chaska,MN,55318.0,USA,9525560123.0,,http://haircutmenchaskamn.com,60420-000,Hair Styling and Services,6/2/2015 0:00,,False,NR,0.0,1.0,0.0,False,Micro-small,False,12/15/2021 4:25,BBB,200
211,704.0,96124568,United Cerebral Palsy of Minnesota,1821 University Ave W Ste 219,,Saint Paul,MN,55104.0,USA,6516467588.0,,http://www.uco.org,61090-000,Non Profit Organizations - General Membership,,,False,NR,0.0,,,False,Micro-small,False,3/4/2020 5:16,BBB,200
212,704.0,96084600,Puzzle Warehouse,21699 Eureka Ave N,,Forest Lake,MN,55025.0,USA,6514662118.0,,http://www.puzzlewarehouse.com,50295-000,Games & Supplies,,,False,A+,100.0,1.0,,False,Micro-small,False,6/8/2022 8:45,BBB,200
213,704.0,96009572,"Stinson Services, Inc.",7391 Bush Lake Rd,,Edina,MN,55439.0,USA,9529334510.0,info@stinsonservices.com,http://www.stinsonservices.com,10177-000,Construction & Remodeling Services,8/1/2003 0:00,,True,A+,100.0,10.0,,False,Micro-small,False,5/27/2022 8:35,BBB,200
214,704.0,1000008748,A Clean Plate Local & Organic Grocery,13 Birch Ave S,,Menahga,MN,56464.0,USA,2185641010.0,,http://acleanplategrocery.com/,80320-100,Food Products - Organic,6/7/2012 0:00,,False,NR,0.0,1.0,0.0,False,Micro-small,False,1/31/2023 8:46,BBB,200
215,704.0,96174292,Memories and Milestones Academy,1501 1st St NE,,New Prague,MN,56071.0,USA,6517628911.0,,http://www.appleacademychildcare.com,60780-000,Schools - Academic - Pre & Kindergarten,,,False,A+,100.0,1.0,,False,Micro-small,False,10/12/2022 8:42,BBB,200
216,704.0,1000025790,Dakota Cat,600 Main Ave W,,West Fargo,ND,58078.0,USA,7012828336.0,wayne@dakotacat.com,http://dakotacat.com,50595-000,Snowmobiles,7/28/2006 0:00,,False,NR,0.0,1.0,0.0,False,Micro-small,False,9/27/2022 8:59,BBB,200
217,704.0,1000000065,"FurnitureDealer.net, Inc.",4639 Pinetree Curve,,Eagan,MN,55122.0,USA,9523457171.0,clientrelations@furnituredealer.net,http://www.furnituredealer.net,60974-000,Internet Shopping,8/2/2006 0:00,,False,A+,100.0,1.0,0.0,False,Micro-small,False,12/2/2022 9:29,BBB,200
218,704.0,96133521,Prairie Pride BBQ Catering,59597 185th St,,Mankato,MN,56001.0,USA,5073403612.0,phubmer03@gmail.com,http://www.prairiepridepork.com,50138-000,Caterers,1/1/2009 0:00,,False,A+,100.0,1.0,,False,Micro-small,False,5/15/2022 8:12,BBB,200
219,704.0,7295,Mankato Motor Company,1815 Madison Ave,,Mankato,MN,56001.0,USA,5076255641.0,karisimon@mankatomotors.com,http://www.mankatomotors.com,50039-000,Auto Dealers - New Cars,1/5/2009 0:00,,True,A+,100.0,110.0,,False,Small,False,2/7/2023 8:59,BBB,200
220,704.0,14000547,GCI Gallagher Concrete Inc.,1729 Adrian St,,Saint Paul,MN,55116.0,USA,6516904710.0,gallagherconcrete@gmail.com,http://www.MyMNConcreteGuy.com,10089-000,Mason Contractors,1/1/1990 0:00,,False,A+,100.0,3.0,,False,Micro-small,False,10/21/2022 8:06,BBB,200
221,704.0,1000011737,"Ms. Kay&#39;s Services, LLC",646 W River Dr,,New London,MN,56273.0,USA,3202126126.0,ms.kays.services@gmail.com,https://mskays.com/,66002-000,Cleaning Services,3/16/2016 0:00,,True,A+,100.0,3.0,,False,Micro-small,False,1/25/2023 9:01,BBB,200
222,704.0,96011497,"Quality Choice Mortgage, LLC",13750 Crosstown Dr NW Ste 200,,Andover,MN,55304.0,USA,7637543100.0,kyle@qualityllc.com,http://www.qualityllc.com,20053-000,Mortgage Brokers,12/1/2004 0:00,,True,A+,100.0,2.0,,False,Micro-small,False,7/14/2022 8:24,BBB,200
223,704.0,96026792,Ace Auto Repair,155 18th St SW,,Owatonna,MN,55060.0,USA,5074552402.0,engineroom@live.com,https://www.live.com/,60103-000,Auto Repair & Service,4/1/1984 0:00,,False,A+,100.0,1.0,,False,Micro-small,False,10/12/2022 8:42,Email,200
224,704.0,96543046,Chris Pendergast Agency (Farmers Insurance),214 Main St,,Cold Spring,MN,56320.0,USA,3206859943.0,cpendergast@farmersagent.com,http://www.farmersagent.com/cpendergast,20080-000,Insurance Services,4/30/2014 0:00,,False,NR,0.0,1.0,,False,Small,False,6/1/2022 21:26,BBB,200
225,704.0,96121624,"North American Mat Company, LLC",304 Central Ave N,,Hollandale,MN,56045.0,USA,5078892088.0,namco@northamericanmat.com,http://www.northamericanmat.com,50273-000,Floor Materials - Retail,2/6/2002 0:00,,False,A+,100.0,3.0,,False,Micro-small,False,10/8/2021 4:04,BBB,200
226,704.0,1000020074,Mr. Rooter Plumbing of the Twin Cities,5155 E River Rd Ste 418,,Fridley,MN,55421.0,USA,7632995077.0,dispatch@mrrootermn.com,http://www.mrrooter.com/minneapolis,10043-010,Drain Cleaning,11/16/2017 0:00,,True,A+,100.0,15.0,0.0,False,Small,False,1/25/2023 9:01,BBB,200
227,704.0,96093081,Advanced Engineering,3101 S Frontage Rd Ste 100,,Moorhead,MN,56560.0,USA,7017468087.0,Charles.Vein@ae2s.com,http://www.ae2s.com,60335-000,Engineering Contractors - General,1/1/1998 0:00,,False,A+,100.0,9.0,,False,Micro-small,False,4/7/2022 9:01,BBB,200
228,704.0,1000035399,Banfield Pet Hospital,11341 Highway 7,,Hopkins,MN,55305.0,USA,5032567299.0,clientadvocate.support@banfield.net,http://banfield.com,00222-000,Veterinarians,8/1/1995 0:00,,False,NR,0.0,299.0,0.0,False,Small,False,6/1/2022 21:28,BBB,200
229,704.0,96176612,"JNBA Financial Advisors, LLC",8500 Normandale Lake Blvd STE 450,,Minneapolis,MN,55437.0,USA,9528440995.0,info@jnba.com,https://jnba.com/,20012-000,Financial Planning Consultants,12/26/1978 0:00,,False,A+,100.0,31.0,,False,Small,False,1/27/2023 9:09,BBB,200
230,704.0,96135461,Eric&#39;s Plumbing,631 2nd St NW,,Menahga,MN,56464.0,USA,2185644203.0,,http://www.ericsplumbing.com,10113-000,Plumbers,1/1/2006 0:00,,False,NR,0.0,2.0,0.0,False,Micro-small,False,11/8/2022 9:18,BBB,200
231,704.0,1000006131,Hagen Dental PC,102 Langer Ave N,,Casselton,ND,58012.0,USA,7013475345.0,jesse@casseltondentist.com,http://www.casseltondentist.com/,60289-000,Dentists,7/17/2007 0:00,,False,A+,100.0,1.0,0.0,False,Micro-small,False,10/13/2021 4:28,BBB,200
232,704.0,96353390,Maund Entertainment Inc,6560 S Saunders Lake Dr,,Mound,MN,55364.0,USA,9524723378.0,,http://www.maundentertainment.com,60344-000,Entertainers,1/1/2002 0:00,,False,A+,100.0,1.0,,False,Micro-small,False,7/27/2022 9:07,BBB,200
233,704.0,96143234,Dakota Skies Bingo,825 S 8th St,,Bismarck,ND,58504.0,USA,7012240869.0,,https://www.facebook.com/Dakota-Skies-Bingo-199711210189619/,70654-000,Bingo & Gaming Halls,10/7/2009 0:00,,False,NR,0.0,1.0,0.0,False,Micro-small,False,7/29/2022 8:30,BBB,200
234,704.0,96091856,"Abri Construction, LLC",150 Eaton St,,Saint Paul,MN,55107.0,USA,6515600538.0,gina@abriconstruction.co,https://www.abriconstruction.co/,10035-000,Contractors - General,1/1/2008 0:00,,False,F,59.0,4.0,0.0,False,Micro-small,False,5/11/2022 17:10,Email,200
235,704.0,43002251,Construction Plans Exchange,215 Airport Rd Ste 8,,Bismarck,ND,58504.0,USA,7015266491.0,nick.thompson@ae2s.com,http://biscpe.org/,60253-000,Construction Management,1/1/1977 0:00,,False,A+,100.0,1.0,0.0,False,Micro-small,False,11/18/2020 4:55,BBB,200
236,704.0,1000017114,Bluewater Residential Services LLC,1501 E Superior St,,Duluth,MN,55812.0,USA,2187241286.0,info@brsduluth.com,http://brsduluth.com/,65135-000,Adult Foster Care,1/19/2005 0:00,,False,A+,100.0,1.0,0.0,False,Micro-small,False,10/25/2022 8:10,BBB,200
237,704.0,96086207,Lake Weeders Digest LLC,5701 International Pkwy,,New Hope,MN,55428.0,USA,7635511441.0,Info@WeedersDigest.com,http://www.weedersdigest.com,62100-000,Online Retailer,1/22/2008 0:00,,False,A+,100.0,12.0,,False,Medium,False,11/9/2022 9:16,BBB,200
238,704.0,1000046079,All Furniture Installation LLC,63 Saint Anthony Pkwy,,Minneapolis,MN,55418.0,USA,6122383200.0,,https://www.allfurnitureinc.com/,70571-100,Movers - Office,7/5/2016 0:00,,False,A+,100.0,,,False,Micro-small,False,6/23/2021 4:54,BBB,200
239,704.0,96591684,100X Retrievers,9360 32nd Ave SE,,Venturia,ND,58413.0,USA,7016846397.0,info@100xretrievers.com,http://www.100xretrievers.com,00198-100,Pet Training - Dog,11/15/2007 0:00,,False,A+,100.0,1.0,,False,Micro-small,False,2/1/2023 8:58,BBB,200
240,704.0,1000005713,Mid-MN Property Services LLC,6680 Canary Rd NW,,Royalton,MN,56373.0,USA,2182565485.0,midmnpropertyservices@gmail.com,https://mid-mn-property-services-llc.business.site/,60469-000,Home Inspection Service,6/22/2015 0:00,,False,A+,100.0,1.0,0.0,False,Micro-small,False,1/21/2023 8:56,BBB,200
241,704.0,96565263,"Maximized Chiropractic, Pllc",2000 N 12th St STE 101,,Bismarck,ND,58501.0,USA,7017516000.0,maximizedchiro@gmail.com,http://www.maximizedchiro.com,60205-000,Chiropractors D.C.,7/1/2013 0:00,,False,NR,0.0,2.0,0.0,False,Small,False,5/9/2022 8:19,BBB,200
242,704.0,1000019938,Martz Mobile Welding & Fabrication,116 4th St NW,,Aitkin,MN,56431.0,USA,2186700534.0,s.martz56431@gmail.com,https://www.facebook.com/24workingdog/,60948-000,Welding,6/24/2015 0:00,,False,A+,100.0,1.0,0.0,False,Micro-small,False,12/14/2022 9:35,BBB,200
243,704.0,1000060736,Prarie pest control,11344 PO Box ,,Fargo,ND,58106.0,USA,7018938660.0,prairiepestcontrol@yahoo.com,https://www.prairiepestcontrol.net/,60650-000,Pest Control Services,,,False,D+,67.25,1.0,,False,Micro-small,False,12/3/2022 9:06,BBB,200
244,704.0,96579968,Eye Candy Refind,218 2nd St E,,Hastings,MN,55033.0,USA,6122720584.0,lacy@eyecandymn.com,https://www.eyecandymn.com/,50159-000,Clothes - Consignment & Resale,11/26/2014 0:00,,False,C+,77.0,1.0,0.0,False,Micro-small,False,1/27/2023 9:09,BBB,200
245,704.0,25001598,ASK Property Management,5605 W 36th St Ste 205,,St Louis Park,MN,55416.0,USA,9526532100.0,emilyk@ASKprop.com,http://www.ask-properties.com,60732-000,Property Management,3/1/1996 0:00,,False,A+,100.0,10.0,,False,Small,False,9/13/2022 8:17,BBB,200
246,704.0,96280872,Western Cooperative Credit Union,1300 Bison Dr,,Williston,ND,58801.0,USA,7015724000.0,mstillwell@wccu.org,http://www.wccu.org,20009-000,Credit Unions,6/14/1938 0:00,,False,A+,100.0,71.0,,False,Small,False,10/29/2021 3:56,BBB,200
247,704.0,1000024059,Weeks Automotive LLC,37878 County 39,,Laporte,MN,56461.0,USA,2187607098.0,,https://b-m.facebook.com/Weeks-Automotive-843043379076498/,60103-000,Auto Repair & Service,2/8/2017 0:00,,False,NR,0.0,1.0,0.0,False,Micro-small,False,12/2/2022 9:30,BBB,200
248,704.0,96013873,"Select Metrix, LLC",505 7th Ave SE,,Saint Paul,MN,55124.0,USA,9522320900.0,info@selectmetrix.com,http://www.selectmetrix.com,60326-000,Employment Agencies,2/1/2004 0:00,,False,A+,100.0,4.0,,False,Micro-small,False,11/11/2020 4:55,BBB,200
249,704.0,1000011674,Hazen Drug Co.,30 Main St W,,Hazen,ND,58545.0,USA,7017482636.0,,https://www.facebook.com/528hazendrug/?rf=159164494118534,50488-000,Pharmacies,7/24/1964 0:00,,False,A+,100.0,1.0,0.0,False,Micro-small,False,1/25/2022 9:40,BBB,200
250,704.0,96292773,WACOSA,320 Sundial Dr,,Waite Park,MN,56387.0,USA,3202510087.0,jmatvick@wacosa.org,http://www.wacosa.org,60744-000,Rehabilitation Services,1/1/1963 0:00,,False,NR,0.0,120.0,0.0,False,Small,False,11/23/2021 6:32,BBB,200
251,704.0,1000009165,Title Werks LLC,26357 Forest Blvd Ste 6,,Wyoming,MN,55092.0,USA,6514622042.0,erin@titlewerks.com,https://www.titlewerks.com,20072-000,Title Companies & Agents,7/26/2010 0:00,,False,A+,100.0,1.0,0.0,False,Micro-small,False,2/8/2023 9:28,BBB,200
252,704.0,1000052061,Truelson Electric,558 21st St NE,,Rochester,MN,55906.0,USA,5072028725.0,roy@truelsonelectric.com,https://www.truelsonelectric.com/,10049-000,Electricians,12/1/2021 0:00,,False,A-,92.79,1.0,,False,Micro-small,False,1/12/2023 8:55,BBB,200
253,704.0,1000060972,Electric Vehicle Charging Solutions and Installations,4869 19th St NW #102,,Rochester,MN,55901.0,,5072064635.0,info@evchargingsolutions.world,https://www.evchargingsolutions.world,10049-000,Electricians,9/23/2022 0:00,,False,NR,0.0,1.0,0.0,False,Micro-small,False,2/9/2023 9:12,BBB,200
254,704.0,96156766,"Hill Company, Inc",8505 Virginia Rd,,Minneapolis,MN,55438.0,USA,9529443514.0,,http://www.aussiepetmobile.com,00196-100,Pet Grooming - Mobile,1/1/2007 0:00,,False,A+,100.0,2.0,,False,Small,False,7/8/2022 12:25,BBB,200
255,704.0,1000006416,Magellan Medical Technology Consultants Inc,120 S 6th St Ste 2150,,Minneapolis,MN,55402.0,USA,6126770000.0,pwolfe@magellanmed.com,http://www.magellanmed.com,60971-101,Consultants - Medical,6/29/1995 0:00,,False,A+,100.0,1.0,0.0,False,Micro-small,False,1/12/2023 8:54,BBB,200
256,704.0,96119512,"Redeemer Services, Inc.",6053 Hudson Rd Ste 300,,Woodbury,MN,55125.0,USA,6512241678.0,francis@redeemerservices.com,http://www.redeemerservices.com,60746-000,Relocation Service,4/6/2007 0:00,,True,A+,100.0,15.0,,False,Micro-small,False,1/24/2023 8:57,BBB,200
257,704.0,96376923,Milless Interiors LLC,425 Pond View Rd NW,,Saint Michael,MN,55376.0,USA,7632388202.0,tom@millessinteriors.com,http://millessinteriors.com,10177-000,Construction & Remodeling Services,,,False,A+,100.0,1.0,,False,Micro-small,False,3/16/2022 8:52,BBB,200
258,704.0,96081974,"Ramsay & Associates, Ltd",1620 Mahtomedi Ave,,Mahtomedi,MN,55115.0,USA,6514299111.0,Brady@RamsayCPA.com,http://www.ramsaycpa.com,60004-000,Accountants - Certified Public,4/1/1976 0:00,,False,A+,100.0,14.0,0.0,False,Small,False,11/16/2022 9:42,BBB,200
259,704.0,96379678,Image Cleaning LLC,8200 Humboldt Ave S,,Minneapolis,MN,55431.0,USA,6124199444.0,tony@imagecleaning.net,http://www.imagecleaning.net,66002-000,Cleaning Services,1/1/2012 0:00,,False,A+,100.0,4.0,,False,Micro-small,False,10/4/2022 8:07,BBB,200
260,704.0,96040680,The Wellington,2235 Rockwood Ave,,Saint Paul,MN,55116.0,USA,6516992664.0,chansen@stuartco.com,http://www.wellingtonresidence.com,61002-000,Assisted Living Centers & Adult Family Homes,1/1/2004 0:00,,False,A+,100.0,24.0,0.0,False,Small,False,10/19/2022 8:27,BBB,200
261,704.0,96019147,No Sick Fish,PO Box 4643,,Saint Paul,MN,55104.0,USA,6513403339.0,info@nosickfish.com,http://www.nosickfish.com,50682-000,Tropical Fish,1/1/2004 0:00,,False,A+,100.0,10.0,,False,Micro-small,False,8/20/2021 4:25,BBB,200
262,704.0,96110666,"Fostar, Inc",6301 W Lake St,,Saint Louis Park,MN,55416.0,USA,9527461000.0,info@fostar.com,http://www.fostar.com,70618-000,Telephone Communications,6/1/2000 0:00,,False,A+,100.0,1.0,,False,Micro-small,False,5/25/2021 3:56,BBB,200
263,704.0,96085358,"Bobby & Steve&#39;s Auto World,West Bloomington",10740 Normandale Blvd,,Bloomington,MN,55437.0,USA,9528811024.0,mark.myers@bsaw.com,http://www.bobbyandstevesautoworld.com,50567-000,Service Stations - Gasoline & Oil,6/1/2007 0:00,,False,A+,100.0,15.0,0.0,False,Micro-small,False,7/9/2022 8:20,BBB,200
264,704.0,96576328,A. B. Exteriors LLC,23 Hillcrest Ln,,Circle Pines,MN,55014.0,USA,6517282480.0,,https://www.facebook.com/abexteriors2014/,10177-000,Construction & Remodeling Services,8/6/2014 0:00,,False,A+,100.0,3.0,0.0,False,Micro-small,False,1/25/2023 19:20,BBB,200
265,704.0,1000049672,Dollhaus Skinbar,3034 Lyndale Ave S Studio 24,,Minneapolis,MN,55408.0,USA,6124326240.0,Dollhausskinbar@gmail.com,https://www.dollhausskinbar.com/,60134-000,Beauty Salons,11/8/2020 0:00,,False,A,94.0,1.0,,False,Micro-small,False,6/15/2022 9:02,BBB,200
266,704.0,96095820,Viking Portable Storage,7035 Winnetka Ave N # 100,,Minneapolis,MN,55428.0,USA,7634327620.0,dwayne@podsminn.com,http://www.pods.com,70610-000,Storage Units - Household & Commercial,7/3/2008 0:00,,False,A+,100.0,6.0,0.0,False,Micro-small,False,3/16/2022 8:51,BBB,200
267,704.0,96548806,Fantom Optics,622 Watson Ave,,Saint Paul,MN,55102.0,USA,6512275560.0,info@fantomoptics.com,http://www.fantomoptics.com,50624-100,Eyeglass Suppliers,3/21/2007 0:00,,False,NR,0.0,4.0,0.0,False,Small,False,12/7/2019 4:19,BBB,200
268,704.0,1000035328,Associated Bank,433 Main St,,Green Bay,WI,54301.0,USA,9204917007.0,chris.niles@associatedbank.com,http://www.associatedbank.com,20003-100,Banking Services,1861-12-31 00:00:00,,False,A+,100.0,4400.0,0.0,False,Giant,False,6/1/2022 21:28,BBB,200
269,704.0,96100224,St Agnes Baking Co,644 Olive St,,Saint Paul,MN,55130.0,USA,6512907633.0,,http://www.saintagnesbaking.com,80055-000,Bakers - Wholesale,1/1/1996 0:00,,False,NR,0.0,35.0,0.0,False,Small,False,12/14/2021 4:09,BBB,200
270,704.0,96359365,Carousel Craft Shows,10380 National St NE,,Circle Pines,MN,55014.0,USA,6512499772.0,ron@ccshows.com,http://www.ccshows.com,60893-000,"Trade Shows, Expositions & Fairs",4/24/1990 0:00,,False,A+,100.0,,,False,Micro-small,False,8/15/2020 3:55,BBB,200
271,704.0,96354571,Trust Marketing Solutions Inc,15767 Fairoaks Ave N,,Hugo,MN,55038.0,USA,6513487356.0,anelson@trustmarketingsolutions.com,http://www.trustmarketingsolutions.com,60538-000,Marketing Consultants,12/19/2001 0:00,,False,A+,100.0,1.0,0.0,False,Micro-small,False,5/15/2022 8:13,BBB,200
272,704.0,96072671,Northern States Power St. Paul Credit Union,825 Rice St,,Saint Paul,MN,55117.0,USA,6512287668.0,office@mynspcu.org,https://www.mynspcu.org,20009-000,Credit Unions,2/22/1933 0:00,,True,A+,100.0,6.0,,False,Small,False,5/20/2022 8:11,BBB,200
273,704.0,96342204,"NTC Homes, Inc.",8675 County Road 43,,Chaska,MN,55318.0,USA,6126855580.0,klingelhutz3@msn.com,http://www.ntchomesinc.com,10078-000,Home Builders,1/1/1993 0:00,,True,A+,100.0,5.0,,False,Micro-small,False,1/8/2022 9:19,BBB,200
274,704.0,96559341,"Rocket Crane Service, Inc.",8401 54th Avenue N,,New Hope,MN,55428.0,USA,6125299686.0,,http://rocketcrane.com,10036-000,Crane Service,2/12/2015 0:00,,False,NR,0.0,1.0,0.0,False,Small,False,3/6/2022 9:22,BBB,200
275,704.0,96562962,"Quad City Contracting, LLC",PO Box 462,,Waite Park,MN,56387.0,USA,3203338135.0,quadcityseamless@gmail.com,http://www.quadcitycontracting.net,10126-000,Roofing Contractors,3/21/2011 0:00,,True,A+,100.0,1.0,,False,Small,False,7/15/2022 8:34,BBB,200
276,704.0,1000043267,Fieldstone Kennels,13151 185th St,,Milaca,MN,56353.0,USA,3202502143.0,Fieldstonekennels@frontier.com,http://www.fieldstonekennels.com/,05195-000,Dog Breeders,6/11/2013 0:00,,False,A+,100.0,1.0,0.0,False,Micro-small,False,9/11/2021 4:05,BBB,200
277,704.0,1000047806,Vittorio Contracting LLC,5483 FISH LAKE DAM RD,,Duluth,MN,55803.0,USA,2189405426.0,,http://vittoriocontracting.com/,10050-000,Excavating Contractors,4/27/2020 0:00,,False,NR,0.0,1.0,,False,Micro-small,False,9/22/2022 8:56,BBB,200
278,704.0,1000005791,Old Log Theatre,5185 Meadville St,,Greenwood,MN,55331.0,USA,9524745951.0,greg.frankenfield@oldlog.com,http://www.oldlog.com/,60874-000,Theaters,7/31/1979 0:00,,False,NR,0.0,,0.0,False,Micro-small,False,12/17/2019 4:18,BBB,200
279,704.0,1000027252,Gabriel Roofing LLC,1350 127th Ln NE,,Blaine,MN,55434.0,USA,6128873109.0,isaacfl@gabrielroofingllc.com,https://gabrielcommercialroofing.com/,10126-200,Commercial Roofing,8/20/2018 0:00,,False,A+,100.0,1.0,0.0,False,Micro-small,False,12/13/2022 9:03,BBB,200
280,704.0,96564389,Lorrie Nantt - RE/MAX Integrity Realty,669 12th St W,,Dickinson,ND,58601.0,USA,7012604278.0,lnantt@remax.net,http://www.remax.com/realestateagentoffice/dickinson-nd-58601-lorrienantt-id28086401.html,61100-000,Real Estate Services,4/29/2014 0:00,,False,NR,0.0,1.0,0.0,False,Micro-small,False,11/29/2021 3:59,BBB,200
281,704.0,96098124,Ann Mc Gilvray & Co.,10301 Bren Rd W # 378,,Hopkins,MN,55343.0,USA,9529327153.0,info@annemcgilvray.com,http://www.annemcgilvray.com,50310-000,Gift Shops,7/30/2008 0:00,,False,A+,100.0,5.0,,False,Micro-small,False,4/16/2022 8:13,BBB,200
282,704.0,36000654,Dok Holiday Resort,3529 State Highway 84 NE,,Longville,MN,56655.0,USA,2183632473.0,dokholidayrst@netins.net,http://www.dokholidayresort.net,60752-000,Resorts,12/1/2004 0:00,,False,A+,100.0,6.0,,False,Micro-small,False,10/28/2021 4:09,BBB,200
283,704.0,96022673,"MTEC Electric, Inc.",3707 50th Ave N,,Minneapolis,MN,55429.0,USA,7635371570.0,Info@MtecElectric.com,http://www.mtecelectric.com,60337-000,Engineers - Electrical,7/28/1999 0:00,,False,A+,100.0,30.0,,False,Micro-small,False,7/2/2020 4:06,BBB,200
284,704.0,96566918,"Accounting Solutions, Inc.",1419 2nd Ave SW,,Minot,ND,58701.0,USA,7018370348.0,,http://www.accountingsolutionsnd.com/,60005-000,Accountants,7/1/2013 0:00,,False,NR,0.0,1.0,0.0,False,Micro-small,False,9/13/2022 8:18,BBB,200
285,704.0,24000129,Range Water Conditioning,1520 NW 3rd Ave,,Grand Rapids,MN,55744.0,USA,2183271144.0,water@rangewater.com,http://www.rangewater.com,50722-000,Water Softening & Conditioning Equipment Service & Supplies,1/1/1969 0:00,,True,A+,100.0,11.0,,False,Small,False,6/3/2022 9:01,BBB,200
286,704.0,96353480,"Midwest Security, LLC",4711 Clark Ave,,Saint Paul,MN,55110.0,USA,6512003937.0,midwestsecuritymn@gmail.com,http://www.monitronics.com,60788-000,Security Control Equipment & System Monitors,8/4/2011 0:00,,False,A+,100.0,2.0,0.0,False,Small,False,10/29/2021 3:56,BBB,200
287,704.0,1000041696,"SnapAir Heating, Cooling, and Plumbing",24440 MN Highway 15,,Dassel,MN,55325.0,,3202751246.0,office@gosnapair.com,https://snapairservice.com/,10182-000,Heating & Air Conditioning,2/7/2020 0:00,,False,A+,97.52,1.0,,False,Micro-small,False,2/9/2023 9:12,BBB,200
288,704.0,23001442,"Cozy Homes, LLC",14315 Prairie Rd NW,,Andover,MN,55304.0,USA,6128030775.0,cozyhomesllc@yahoo.com,http://www.cozyhomes.com,10078-000,Home Builders,1/1/1983 0:00,,False,A+,100.0,4.0,,False,Micro-small,False,8/12/2022 8:32,BBB,200
289,704.0,96020387,"Isanti Auto Parts, Inc.",38459 Highway 65 NE,,Stanchfield,MN,55080.0,USA,7636890390.0,isantistanchfiel@aol.com,http://www.isantiautoparts.com,80041-000,Auto Parts & Supplies - Used & Rebuilt,5/6/1999 0:00,,False,A+,100.0,6.0,,False,Micro-small,False,2/8/2022 9:23,BBB,200
290,704.0,96003011,Grand Ely Lodge Resort & Conference Center,400 N Pioneer Rd,,Ely,MN,55731.0,USA,2183656565.0,denise@grandelylodge.com,http://www.grandelylodge.com,60752-000,Resorts,1/1/1988 0:00,,False,A+,100.0,60.0,,False,Small,False,10/27/2022 8:13,BBB,200
291,704.0,1000012423,Minnesota MicroNet,3432 Denmark Ave Ste 530,,Eagan,MN,55123.0,USA,6516818018.0,,http://www.mnmicro.net,60473-100,Internet Access Provider,6/6/1994 0:00,,False,A+,100.0,1.0,0.0,False,Micro-small,False,7/3/2020 4:13,BBB,200
292,704.0,96269071,Business Specialties CPA's,3001A 32nd Ave S Ste 5A,,Grand Forks,ND,58201.0,USA,7017722491.0,dona@donacpa.com,http://www.donacpa.com,60005-000,Accountants,1/1/2004 0:00,,False,NR,0.0,7.0,,False,Micro-small,False,6/22/2022 11:34,BBB,200
293,704.0,23001850,Creative Publishing International,400 1st Ave N,Ste 300,Minneapolis,MN,55401.0,USA,6123448100.0,sales@creativepub.com,http://www.quartoknows.com/Creative-Publishing-international,30543-000,Publishers - Book,3/26/1997 0:00,,False,A+,100.0,1.0,,False,Small,False,7/26/2022 8:43,BBB,200
294,704.0,1000051080,Stable Feed LLC,302 5th St SE,,Kasson,MN,55944.0,USA,5074872323.0,sales@stablefeed.com,https://stablefeed.com/,80289-000,Feed Concentrates & Supplements,10/15/2020 0:00,,False,A,95.41,1.0,,False,Micro-small,False,12/14/2022 9:36,BBB,200
295,704.0,96342067,"Thomsen Homes, LLC",3280 Veterans Blvd S,Ste 120,Fargo,ND,58104.0,USA,7014783000.0,stephen@blupeakgroup.com,http://www.thomsenhomesllc.com,10078-000,Home Builders,7/24/2006 0:00,,False,A,94.0,35.0,,False,Micro-small,False,1/30/2023 8:33,BBB,200
296,704.0,96384056,"Star Security, Inc",1001 Johnson Pkwy Ste B8,,Saint Paul,MN,55106.0,USA,6513985752.0,,http://www.thestarsecurity.com,60789-000,Security Guard & Patrol Service,1/1/2009 0:00,,False,A+,100.0,1.0,,False,Micro-small,False,10/30/2021 4:02,BBB,200
297,704.0,44003385,Total Electric,11967 Eldorado St NE,,Minneapolis,MN,55449.0,USA,7637868484.0,service@total-electric.com,http://www.total-electric.com,10049-000,Electricians,1/1/1984 0:00,,False,A+,100.0,2.0,,False,Micro-small,False,10/13/2022 8:22,BBB,200
298,704.0,96048254,"D. Baker &  J.L. Borgstrom-Durst Accounting, LLC",105 W Main St,,Kasson,MN,55944.0,USA,5076347606.0,taxxx@kmtel.com,http://kassontax.com/,60005-000,Accountants,1/1/1984 0:00,,False,A+,100.0,2.0,0.0,False,Micro-small,False,11/22/2022 8:45,BBB,200
299,704.0,96271227,Jeld-wen Millwork Distribution,1358 38th St N,,Fargo,ND,58102.0,USA,7012825700.0,,http://Jeld-Wen.com,30401-000,Millwork,1/1/2000 0:00,4/28/2016 0:00,False,NR,0.0,20.0,,False,Micro-small,False,4/29/2019 4:00,BBB,200
300,704.0,1000010340,"Big Watt, LLC",3745 Nicollet Ave,,Minneapolis,MN,55409.0,USA,6123542897.0,calebgarn@gmail.com,https://bigwattcoffee.com/,80084-000,Beverages,8/5/2014 0:00,,False,C+,77.0,1.0,0.0,False,Micro-small,False,5/18/2022 8:56,BBB,200
301,704.0,96110381,Trillium Development Inc,2 2nd Ave S Ste 130,,Sauk Rapids,MN,56379.0,USA,3202673544.0,,http://www.trilliumdev.com,30707-000,Towers,1/1/2000 0:00,,False,NR,0.0,12.0,0.0,False,Micro-small,False,10/9/2022 8:04,BBB,200
302,704.0,1000006183,CLICK Talent,120 1st Ave N,ste 300,Minneapolis,MN,55401.0,USA,6122355030.0,mary@clicktalent.net,http://www.clicktalent.net,60981-000,Job Listing & Advisory Services,4/1/2010 0:00,,False,A+,100.0,5.0,0.0,False,Micro-small,False,2/8/2023 9:28,BBB,200
303,704.0,96127433,PASE Group-Massman,1060 Lone Oak Rd Ste 130,,Eagan,MN,55121.0,USA,9527461091.0,info@pasegroup.com,http://www.pasegroup.com,30443-000,Packaging Machinery,9/2/2003 0:00,,False,A+,100.0,15.0,0.0,False,Small,False,8/18/2022 8:20,BBB,200
304,704.0,96293433,WAVS Inc,85 S Old Crystal Bay Rd,,Orono,MN,55356.0,USA,9524499287.0,,http://www.wavsinc.com,85314-000,Contractor - Low Voltage Systems,9/13/2010 0:00,,False,A+,100.0,1.0,0.0,False,Micro-small,False,11/17/2022 9:21,BBB,200
305,704.0,1000056349,Legacy Heating and Air,11693 St Andrews Cir NE,,Minneapolis,MN,55449.0,USA,6517756791.0,twett11@gmail.com,https://www.legacyheatingandairmn.com/,10182-000,Heating & Air Conditioning,4/1/2022 0:00,,False,A-,91.86,1.0,,False,Micro-small,False,12/29/2022 9:05,BBB,200
306,704.0,96301117,B&K Five Star Properties LLC.,1950 Rishworth Ln,,White Bear Lake,MN,55110.0,USA,6517756930.0,bkfivestarproperties@live.com,https://www.live.com/,00155-000,Landscape Contractors,6/22/2009 0:00,12/15/2015 0:00,False,NR,0.0,2.0,,False,Micro-small,False,12/17/2018 4:00,Email,200
307,704.0,8001735,General Security Service Corp,112 University Dr N # 375,,Fargo,ND,58102.0,USA,7012373252.0,,http://www.gssc.net,60789-000,Security Guard & Patrol Service,9/1/1946 0:00,,False,A+,100.0,50.0,,False,Medium,False,10/26/2021 3:58,BBB,200
308,704.0,1000008247,El Rancho,1419 E College Dr,,Marshall,MN,56258.0,USA,5074013383.0,yuryleon0489@gmail.com,https://www.facebook.com/elranchomn/,50544-000,Restaurants,8/8/2012 0:00,,False,A+,100.0,1.0,0.0,False,Micro-small,False,4/2/2020 4:12,BBB,200
309,704.0,96113637,"11-11 Landscaping, LLC",420 Hope Ave W,,Nelson,MN,56355.0,USA,3207667070.0,intheflesh9981@yahoo.com,https://11-11-landscaping-llc.business.site/,00155-100,Erosion Control,11/12/2008 0:00,,False,A+,100.0,2.0,0.0,False,Micro-small,False,11/10/2022 9:22,BBB,200
310,704.0,1000014859,Float Foundation,4302 Bryant Ave S,,Minneapolis,MN,55409.0,USA,6125475757.0,info@floatfoundation.net,https://www.floatfoundation.net/,60432-000,Health Resorts,10/15/2015 0:00,9/14/2021 0:00,False,NR,0.0,1.0,0.0,False,Micro-small,False,6/11/2022 8:14,Email,200
311,704.0,96345464,Nine Mile Creek Senior Living,2301 Village Ln,,Bloomington,MN,55431.0,USA,9528880731.0,sritter4@fairview.org,http://www.ninemilesenior.com,85296-200,Senior Housing/Living,4/1/2010 0:00,,False,A+,100.0,41.0,,False,Small,False,9/16/2021 4:15,BBB,200
312,704.0,96007140,Plaza Morena Restaurant,160 26th St NE,,Owatonna,MN,55060.0,USA,5074460844.0,joseherrera@msn.com,http://www.plazamorena.com,50544-000,Restaurants,1/1/2003 0:00,,False,A+,100.0,13.0,,False,Small,False,6/3/2022 9:01,BBB,200
313,704.0,96351395,About Tree Care,4749 Narvik Dr,,Eagan,MN,55122.0,USA,6514529351.0,abt.tree@quest.com,https://www.quest.com/,00219-000,Tree Service,1/1/2001 0:00,5/25/2021 0:00,False,NR,0.0,1.0,,False,Micro-small,False,4/7/2022 9:01,Email,200
314,704.0,96101144,"Museum Services, Inc.",2921 Como Ave SE,,Minneapolis,MN,55414.0,USA,6123322386.0,museumservices@visi.com,https://museumservices.org/,60060-000,"Art Galleries, Dealers & Consultants",11/6/1989 0:00,,False,A+,100.0,2.0,,False,Small,False,10/19/2022 8:27,BBB,200
315,704.0,1000005292,Hakala Construction,2860 Deer Forest Rd,,Makinen,MN,55763.0,USA,2186382861.0,Shakala@frontier.com,https://www.frontier.com/,10035-000,Contractors - General,1/1/2000 0:00,,False,A+,100.0,10.0,0.0,False,Micro-small,False,8/22/2020 4:00,Email,200
316,704.0,96217089,"Corporate Casuals,LLC.",24642 County Rd 15 ,,Winona,MN,55987.0,USA,5074587631.0,jc@corpcasuals.com,http://www.corpcasuals.com,60771-300,Promotional Products,4/27/2001 0:00,,False,A+,100.0,1.0,0.0,False,Micro-small,False,4/15/2022 8:41,BBB,200
317,704.0,96045272,Behr Drafting & Design Inc,3496 W 220th St,,Jordan,MN,55352.0,USA,9527467702.0,mikeb@behrdraftinganddesign.com,http://www.behrdraftinganddesign.com,60305-000,Drafting Services,1/1/2004 0:00,,False,A+,100.0,2.0,,False,Micro-small,False,5/3/2022 8:15,BBB,200
318,704.0,1000018408,"Upright Contracting, LLC",11940 Lake Ln Trlr 49,,Lindstrom,MN,55045.0,USA,6517885363.0,uprightcarpentry@frontier.com,https://uprightcontractingllc.com/,10177-200,Remodeling Services,5/3/2018 0:00,,False,A+,99.72,1.0,0.0,False,Micro-small,False,3/23/2022 8:49,BBB,200
319,704.0,96198565,Shakopee Dakota Convenience,14160 Wilds Path NW,,Prior Lake,MN,55372.0,USA,9522332992.0,,http://www.sdcstores.com,50567-000,Service Stations - Gasoline & Oil,1/1/2008 0:00,,False,A+,100.0,10.0,0.0,False,Micro-small,False,8/11/2022 18:47,BBB,200
320,704.0,96505252,RealtyConnect,3169 Fernbrook Lane North,,Plymouth,MN,55447.0,USA,7634473151.0,sales@realtyconnectmn.com,http://realtyconnect.weebly.com/,60729-102,Real Estate Agents,10/26/2010 0:00,,False,A+,100.0,5.0,,False,Micro-small,False,6/22/2022 11:34,BBB,200
321,704.0,1000005677,Hepp Risk Consultants,6442 Margarets Ln,,Edina,MN,55439.0,USA,6125084088.0,brad@heppriskconsultants.com,http://www.donorinsuranceadvisors.com,20080-000,Insurance Services,12/13/2011 0:00,,False,A+,100.0,1.0,0.0,False,Micro-small,False,1/5/2023 9:23,BBB,200
322,704.0,96131566,General Label Inc,675 Rhode Island Ave S,,Minneapolis,MN,55426.0,USA,7635411851.0,,http://www.general-label.com,60483-000,Labeling,1/1/1984 0:00,,False,A+,100.0,35.0,0.0,False,Small,False,7/13/2022 9:34,BBB,200
323,704.0,96027973,Moffat Workforce,944 Inwood Ave N,,Oakdale,MN,55128.0,USA,6513510605.0,sarad@mpstechnical.com,http://mpstechnical.com/,60326-000,Employment Agencies,1/1/1993 0:00,,False,A+,100.0,420.0,,False,Micro-small,False,6/14/2022 8:19,BBB,200
324,704.0,96383291,Budget Blinds of Plymouth,10210 96th Pl N,,Maple Grove,MN,55369.0,USA,7635671897.0,,http://www.budgetblinds.com/plymouth/,50705-100,Blinds,1/1/2012 0:00,,False,A+,100.0,2.0,,False,Micro-small,False,5/24/2022 8:16,BBB,200
325,704.0,96567341,"Pro It, LLC",4960 141st Ave NW,,Williston,ND,58801.0,USA,8887764828.0,INFO@PROITNERDS.COM,https://proitnerds.com/,85272-000,Information Technology Services,12/23/2013 0:00,,False,A+,100.0,,0.0,False,Micro-small,False,7/13/2021 4:14,BBB,200
326,704.0,96132168,Hiawatha Inc,4450 W 78th Street Cir,,Minneapolis,MN,55435.0,USA,9528356850.0,,http://www.activarcpg.com,50110-000,Building Materials,1/1/1984 0:00,,False,A+,100.0,40.0,,False,Small,False,7/8/2022 12:24,BBB,200
327,704.0,96505447,Odyssey Battery,2366 Bernville Rd,,Reading,PA,19605.0,USA,6102081991.0,dave.mcmullen@enersys.com,http://www.odysseybattery.com,80072-000,Battery Supplies,,,False,A+,100.0,10000.0,0.0,False,Giant,False,8/3/2022 8:42,BBB,200
328,704.0,1000060716,Roto-Rooter Plumbing & Water Cleanup,1629 Hennepin Ave,STE 300G,Minneapolis,MN,55403.0,USA,6127889029.0,,https://www.rotorooter.com/minneapolis/,10114-000,Plumbing Drains & Sewer Cleaning,,,False,NR,0.0,1.0,0.0,False,Micro-small,False,10/28/2022 8:24,BBB,200
329,704.0,1000012710,"Stinar HG, Inc.",3255 Sibley Memorial Hwy,,Eagan,MN,55121.0,USA,6514545112.0,skrisnik@stinar.com,http://www.stinar.com,80021-000,Airport Equipment & Supplies,1/1/1946 0:00,,False,A+,100.0,23.0,0.0,False,Micro-small,False,6/11/2022 8:14,BBB,200
330,704.0,96010376,Today's Window Fashions,13416 Hanson Blvd NW,,Andover,MN,55304.0,USA,7632055780.0,mnsales@todaysblinds.com,http://www.twfmn.com,50705-100,Blinds,1/1/2003 0:00,,False,A+,100.0,1.0,,False,Small,False,6/14/2022 8:19,BBB,200
331,704.0,96153377,Parcel Recovery,24205 Black Walnut Dr,,Lakeville,MN,55044.0,USA,9524690588.0,info@parcelrecovery.com,http://www.parcelrecovery.com,60531-000,Mailing Services,6/18/1999 0:00,,False,A+,100.0,1.0,,False,Micro-small,False,10/21/2022 8:06,BBB,200
332,704.0,96043471,West Central Sanitation Inc,4089 Abbott Dr,,Willmar,MN,56201.0,USA,8002467630.0,patrickgoebel@wcsanitation.com,http://www.wcsanitation.com,70592-000,Rubbish & Garbage Removal,11/1/1979 0:00,,False,A+,100.0,50.0,,False,Small,False,8/13/2022 8:18,BBB,200
333,704.0,96165267,Dakota Laser & Mfg,3130 US 2,,Arvilla,ND,58214.0,USA,7013432024.0,,http://www.dakotalasermfg.com,30604-100,Contractors - Sheet Metal,1/1/2005 0:00,,False,A+,100.0,3.0,,False,Micro-small,False,12/25/2020 3:51,BBB,200
334,704.0,1000009198,Princeton Meats,518 1st St,,Princeton,MN,55371.0,USA,7633895023.0,princetonmeats@gmail.com,http://princetonmeats.doodlekit.com/,30068-000,Butchering,6/13/2013 0:00,,False,A+,100.0,1.0,0.0,False,Micro-small,False,11/13/2019 8:27,BBB,200
335,704.0,96004403,Advanced Automotive Care Inc,3980 Stark Dr NW,,Saint Francis,MN,55070.0,USA,7637538282.0,info@advancedautomotivecare.net,http://www.advancedautomotivecare.net,60103-000,Auto Repair & Service,12/31/1997 0:00,,False,A+,100.0,8.0,,False,Small,False,9/22/2022 8:56,BBB,200
336,704.0,1000008248,Oasis Chiropractic PA,7424 E Point Douglas Rd S,,Cottage Grove,MN,55016.0,USA,6514585565.0,oasischiro@mail2world.com,http://cottagegrovechiro.com/,80001-000,Abrasives,12/16/2002 0:00,,False,NR,0.0,1.0,0.0,False,Micro-small,False,1/24/2023 8:58,BBB,200
337,704.0,1000023861,"Belt, Inc",2746 Hoffman Dr NW,,Owatonna,MN,55060.0,USA,5074512254.0,Molly1385LTS@yahoo.com,http://www.lototumbler.com/index.html,50341-000,Hobby & Model Construction Supplies - Retail,12/27/1989 0:00,,False,NR,0.0,4.0,0.0,False,Micro-small,False,3/8/2022 9:29,BBB,200
338,704.0,96001817,"Liberty National Mortgage, Inc.",438 Hayward Ave N,,Oakdale,MN,55128.0,USA,6517312200.0,ScottL@libnatmort.com,http://www.libertynationalmortgage.com,20053-000,Mortgage Brokers,7/1/2001 0:00,4/28/2016 0:00,False,NR,0.0,18.0,,False,Micro-small,False,4/29/2019 4:00,BBB,200
339,704.0,96002038,"Hartigan Concrete & Masonry, Inc.",19661 Dakota Ave,,Prior Lake,MN,55372.0,USA,9524575075.0,chartigan@integra.net,http://www.hartiganconcrete.com,10032-000,Concrete Contractors,1/1/1995 0:00,,False,A+,100.0,5.0,,False,Micro-small,False,1/19/2023 8:50,BBB,200
340,704.0,96277774,Advanced Collision Center LLC,1456 W Villard St,,Dickinson,ND,58601.0,USA,7014835128.0,acc@ndsupernet.com,https://www.accdickinson.com,60094-000,Auto Body Repair & Painting,9/1/2013 0:00,,False,A+,100.0,5.0,0.0,False,Micro-small,False,1/27/2022 9:28,BBB,200
341,704.0,96036596,H.M. Cragg Co.,7490 Bush Lake Rd,,Edina,MN,55439.0,USA,9528847775.0,info@hmcragg.com,http://www.hmcragg.com,70545-100,Electrical Power Systems (Residential & Commercial) - Backup Systems,1/1/1968 0:00,,False,A+,100.0,22.0,,False,Medium,False,12/18/2022 9:03,BBB,200
342,704.0,96555684,"Home Enhancements, LLC",600 1st St,,Farmington,MN,55024.0,USA,9524655576.0,enhanceurhome@gmail.com,http://www.home-enhancements-llc.com,10177-000,Construction & Remodeling Services,5/1/2012 0:00,,False,A+,100.0,1.0,,False,Micro-small,False,11/24/2022 9:01,BBB,200
343,704.0,96573984,"Nicolet Law Office, SC",23 4th St SE Ste 217,,Minneapolis,MN,55414.0,USA,8004566956.0,,http://www.nicoletlaw.com/,60075-112,Attorneys & Lawyers - Bankruptcy,1/1/2015 0:00,,False,A+,100.0,1.0,0.0,False,Micro-small,False,8/16/2022 8:20,BBB,200
344,704.0,1000002548, Level One Communications,8435 Forestview Ln N,,Maple Grove,MN,55369.0,USA,6126151387.0,phil@levelonecommunications.com,http://www.levelonecommunications.com,10155-300,Network Cabling Installation ,12/11/1997 0:00,,False,A+,100.0,4.0,0.0,False,Micro-small,False,5/20/2022 8:12,BBB,200
345,704.0,96185018,61 Motel,1409 Highway 23 N,,Sandstone,MN,55072.0,USA,3202455419.0,61motel@scicable.com,http://www.61motel.com/,60447-000,Hotels,1/1/1986 0:00,,False,A+,100.0,1.0,,False,Small,False,6/30/2021 5:47,BBB,200
346,704.0,1000014413,My Lake Home Bed & Breakfast,50917 E Dixon Lake Rd,,Squaw Lake,MN,56681.0,USA,2186594797.0,stay@mylakeome.com,http://Www.mylakeome.com,60136-000,Bed & Breakfast,,,False,A+,97.0,1.0,0.0,False,Micro-small,False,9/8/2021 4:07,BBB,200
347,704.0,96096472,Memory Lane Classics,321 W Lake St,,Chisholm,MN,55719.0,USA,5618475280.0,edwinverdun@msn.com,http://www.memorylaneclassics.net/contact.html,60105-000,Auto Restoration,1/1/1999 0:00,4/29/2016 0:00,False,NR,0.0,18.0,,False,Micro-small,False,5/6/2019 4:21,BBB,200
348,704.0,1000009287,Summers Construction,300 Old Detroit Rd,,Vergas,MN,56587.0,USA,2188415012.0,mike@summersconstructionllc.com,http://www.summersconstructionllc.com/,10177-000,Construction & Remodeling Services,7/5/2007 0:00,,False,A+,100.0,2.0,0.0,False,Micro-small,False,4/29/2021 4:07,BBB,200
349,704.0,1000047603,Farrell&#39;s Extreme Bodyshaping,9893 Maple Grove Parkway,,Maple Grove,MN,55369.0,USA,6122458933.0,maplegrove@extremebodyshaping.com,https://fxbmaplegrove.com/,60430-100,Fitness Centers,7/1/2021 0:00,,False,A,94.0,1.0,,False,Micro-small,False,2/5/2023 8:42,BBB,200
350,704.0,96018333,Inspired Technologies Inc,1100 N 4th St,,Le Sueur,MN,56058.0,USA,5076653580.0,iti.admin@mailiti.com,http://www.inspiredtechusa.com,50475-000,Painters Equipment & Supplies,1/1/2000 0:00,,False,A+,100.0,12.0,,False,Micro-small,False,3/23/2021 4:00,BBB,200
351,704.0,96117771,Allied Vaughn,7600 Parklawn Ave # 300,,Minneapolis,MN,55435.0,USA,9528323100.0,candi.cabender@alliedvaughn.com,http://www.alliedvaughn.com,60246-000,Computers - Sys Designers & Consult,1/1/1992 0:00,,False,A-,90.0,150.0,,False,Small,False,6/25/2020 3:56,BBB,200
352,704.0,96010522,"Lee's Landscaping & Design, Inc",11401 County Road 3 Ste 2,,Hopkins,MN,55343.0,USA,9523033871.0,custrep@leeslandscapes.com,http://www.leeslandscapes.com,00155-000,Landscape Contractors,3/1/1999 0:00,4/27/2016 0:00,False,NR,0.0,25.0,,False,Micro-small,False,4/29/2019 4:00,BBB,200
353,704.0,1000022369,"Custom  Interiors & Company, Inc.",8701 75th St SW,,Raymond,MN,56282.0,USA,3202953134.0,donnaboo47@msn.com,http://www.custominteriorsandco.com,60470-010,Interior Decorator,1/8/2010 0:00,,False,A+,100.0,2.0,0.0,False,Micro-small,False,11/10/2021 4:13,BBB,200
354,704.0,96099052,Hopkins Foot & Ankle Clinic,29 9th Ave N Ste C,,Hopkins,MN,55343.0,USA,9529353334.0,,http://www.hopkinseyeclinic.com,60445-000,Hospitals,1/1/1987 0:00,8/1/2022 0:00,False,NR,0.0,2.0,,False,Micro-small,False,8/2/2022 8:44,BBB,200
355,704.0,96195392,Drillco-Servco,4806 Acorn Ridge Rd,,Minnetonka,MN,55345.0,USA,9524700159.0,joshuran1@gmail.com,http://www.drillcowell.com,10169-200,Water Wells - Inspection,8/30/2010 0:00,,False,A+,100.0,1.0,,False,Micro-small,False,11/23/2022 9:42,BBB,200
356,704.0,96111657,Two Men and a Truck,1950 W Rose Garden Ln Ste 120,,Phoenix,AZ,85027.0,USA,6238476683.0,,http://www.twomenandatruck.com,70571-000,Movers,1/1/2003 0:00,,False,NR,0.0,20.0,0.0,False,Small,False,7/21/2021 5:18,BBB,200
357,704.0,96358086,Realief Neuropathy Centers,1660 Highway 100 S Ste 229,,St. Louis Park,MN,55416.0,USA,8002565346.0,p.walter@realiefcenters.com,http://www.realiefcenters.com,85160-000,Biomedical Products - Research,3/23/2011 0:00,,False,A+,100.0,4.0,,False,Small,False,11/2/2022 8:36,BBB,200
358,704.0,96566271,LBM Journal,1020 E 146th St STE 250,,Burnsville,MN,55337.0,USA,6122345887.0,joe@lbmjournal.com,http://www.lbmjournal.com,85285-000,Publishers - Magazine,11/26/2003 0:00,,False,A+,100.0,,0.0,False,Micro-small,False,6/13/2020 4:01,BBB,200
359,704.0,1000060704,"Pharos Employee Benefits, Inc.",2600 Eagan Woods Dr Suite 140,,Saint Paul,MN,55121.0,USA,6513935300.0,lisa@pharoseb.com,https://www.pharoseb.com/,25019-000,Insurance - Employee Benefits,5/21/2013 0:00,,False,A+,100.0,6.0,,False,Micro-small,False,12/20/2022 8:57,Email,200
360,704.0,96160148,Specs Optical,2204 Hennepin Ave,,Minneapolis,MN,55405.0,USA,6123742114.0,johno@specsoptical.com,http://www.specsoptical.com,50467-000,Optical Goods - Retail,6/30/1995 0:00,,False,A+,100.0,8.0,,False,Small,False,6/4/2020 4:06,BBB,200
361,704.0,96180141,"Ham Lake Dental Association, P.A.",16220 Aberdeen St NE STE A1,,Andover,MN,55304.0,USA,7634344294.0,doctors@hamlakedental.com,http://www.hamlakedental.com,60289-000,Dentists,5/28/1998 0:00,,False,A+,100.0,4.0,0.0,False,Small,False,9/10/2022 8:38,BBB,200
362,704.0,1000055611,Roland Custom Gutters L. L. C.,5909 Glenwood Road,,Mound,MN,55364.0,USA,2187217764.0,,https://roland-custom-gutters-llc.business.site/,10073-400,Gutter Installation,7/16/2018 0:00,,False,A+,100.0,1.0,0.0,False,Micro-small,False,10/8/2022 8:10,BBB,200
363,704.0,1000060979,Matteo&#39;s Precise Cleaning LLC,4353 Cedar Ave S Apt 202,,Minneapolis,MN,55407.0,USA,9526570559.0,Matteoprecisecleaning@gmail.com,https://www.facebook.com/profile.php?id=100071146447041&sk=about,66002-100,Cleaning Services - Commercial Office,7/8/2021 0:00,,True,A-,93.84,1.0,,False,Micro-small,False,1/19/2023 8:51,BBB,200
364,704.0,96257327,Frank Y Wei MD PLLC,6600 France Ave S Ste 615,,Minneapolis,MN,55435.0,USA,9529268747.0,insurance@mnphysmed.com,https://www.drfrankwei.com,60665-000,Physicians & Surgeons - Medical-M.D.,1/1/1996 0:00,,False,A+,100.0,5.0,,False,Micro-small,False,4/13/2022 8:07,BBB,200
365,704.0,96556521,Gabe&#39;s Rinkside Bar & Grill,9250 Lincoln St. NE,,Blaine,MN,55434.0,USA,7632230699.0,,http://www.gabesmn.com/,50643-000,Bars & Taverns,,,False,NR,0.0,1.0,0.0,False,Micro-small,False,9/16/2022 8:14,BBB,200
366,704.0,96121817,The Tub Guys,3200 Gabler Ave NE,,Buffalo,MN,55313.0,USA,6122395835.0,shane@thetubguys.net,http://www.thetubguys.net,30038-000,Bathtubs & Sinks - Repair & Refinish,1/1/2005 0:00,,False,A+,100.0,4.0,,False,Micro-small,False,1/19/2023 8:50,BBB,200
367,704.0,96086845,"Custom Turning, Inc.",112 Dundas Rd,,Otsego,MN,55362.0,USA,7632714300.0,info@customturning.net,http://www.customturning.net,30366-000,Machine Shops,4/1/2001 0:00,,False,A+,100.0,4.0,0.0,False,Micro-small,False,1/20/2022 9:51,BBB,200
368,704.0,96137964,Jessica's Cakes,2900 13th Ave S,,Minneapolis,MN,55407.0,USA,6512917799.0,jessica@jessicascakes.com,https://www.jessicascakes.com/,50052-000,Bakers - Retail,1/1/2000 0:00,,False,A+,100.0,1.0,,False,Micro-small,False,11/12/2020 3:56,Email,200
369,704.0,96122958,TST Media,1400 Van Buren St NE Ste 200,,Minneapolis,MN,55413.0,USA,6123791030.0,,http://www.tstmedia.com,60246-000,Computers - Sys Designers & Consult,1/1/2004 0:00,,False,NR,0.0,50.0,0.0,False,Medium,False,12/11/2021 4:05,BBB,200
370,704.0,96144359,West McLean County Farmers Mutual Insurance Company,1809 S Broadway Ste W,,Minot,ND,58701.0,USA,7018378179.0,dkeller@westmcleanins.com,http://www.westmcleanins.com,20019-000,Insurance Companies,4/2/1907 0:00,,False,A+,100.0,2.0,,False,Small,False,7/4/2020 4:06,BBB,200
371,704.0,50002227,Crystal Welding Inc,17601 113th Ave N,,Maple Grove,MN,55369.0,USA,7634288281.0,mlabrosse@crystalwelding.com,http://crystalwelding.com,30242-000,Foundries,4/1/1968 0:00,,False,A+,100.0,11.0,,False,Small,False,12/29/2022 9:05,BBB,200
372,704.0,96196636,Mjb Machinery Sales LLC,392 E 240th St,,Jordan,MN,55352.0,USA,9527585298.0,mjbmach@bevcomm.net,https://www.bevcomm.net/,80398-000,Industrial Equipment & Supplies,1/1/1992 0:00,,False,A+,100.0,3.0,,False,Micro-small,False,8/5/2022 8:38,Email,200
373,704.0,1000035469,Dollar Tree Stores Inc,15028 18th St NE,,Little Falls,MN,56345.0,USA,3206324579.0,customerservice@dollartree.com,http://www.dollartree.com,50203-000,Discount Stores,1/1/2005 0:00,,False,NR,0.0,15.0,0.0,False,Small,False,6/1/2022 21:28,BBB,200
374,704.0,466,Community Safety Net,PO Box 559,,Pembina,ND,58271.0,USA,8006656167.0,info@communitysafetynet.com,http://www.communitysafetynet.com,30542-000,Publishers Representatives,1/1/1980 0:00,,True,A+,100.0,25.0,0.0,False,Micro-small,False,1/13/2023 9:00,BBB,200
375,704.0,1000004677,"Midwest Aqua Care, Inc.",10001 Great Plains Blvd,,Chaska,MN,55318.0,USA,9524036879.0,sales@midwestaquacare.com,http://www.midwestaquacare.com/,10035-000,Contractors - General,5/16/1980 0:00,,False,A+,100.0,5.0,0.0,False,Micro-small,False,12/24/2022 8:49,BBB,200
376,704.0,96174899,McDonald's,120 Saint Julien St,,Saint Peter,MN,56082.0,USA,5079313011.0,mkropinski@comcast.net,http://www.mcdonalds.com,50544-000,Restaurants,8/1/1980 0:00,,False,NR,0.0,10.0,0.0,False,Medium,False,6/1/2022 21:24,BBB,200
377,704.0,96145761,"Five Star Office Installations, Inc.",20714 Dairy Ave,,Lester Prairie,MN,55354.0,USA,6128601927.0,shon@fivestaroi.com,http://www.fivestaroi.com,80510-000,Office Furniture & Equipment - Installation,1/1/2007 0:00,,False,A+,100.0,11.0,,False,Micro-small,False,2/1/2022 9:32,BBB,200
378,704.0,96347240,Sweet Taste of Italy II,9576 Noble Pkwy N,,Brooklyn Park,MN,55443.0,USA,7634934733.0,jmtkstone@comcast.net,http://www.sweettasteofitaly.com,50544-000,Restaurants,3/1/1989 0:00,,False,A+,100.0,14.0,,False,Medium,False,2/26/2021 4:07,BBB,200
379,704.0,1000051229,Vocelka Construction Services,837 Northdale Blvd NW Apt 1,,Coon Rapids,MN,55448.0,USA,6185412071.0,vocelkacs.llc@gmail.com,http://www.facebook.com/VocelkaCS/,10035-000,Contractors - General,8/18/2020 0:00,,True,A,95.62,1.0,,False,Micro-small,False,11/18/2022 9:14,BBB,200
380,704.0,96343423,"Pierce Pini & Association, Inc.",9298 Central Ave NE #312,,Minneapolis,MN,55434.0,USA,7635371311.0,,http://www.piercepini.com,60253-000,Construction Management,1/1/2004 0:00,,False,NR,0.0,6.0,,False,Micro-small,False,5/11/2022 8:37,BBB,200
381,704.0,1000061526,Acme Seamless LLC,1405 Budd Ave,,Maple Plain,MN,55359.0,USA,6125941596.0,asialink@acmeseamless.com,https://www.acmeseamless.com,10073-000,Gutters & Downspouts,6/7/2022 0:00,,True,A-,91.64,2.0,,False,Micro-small,False,2/2/2023 8:53,BBB,200
382,704.0,43001184,Mad Science of Minnesota,519 Payne Ave,,Saint Paul,MN,55130.0,USA,6517935721.0,mail@madsciencemn.org,https://mn.madscience.org/,60344-000,Entertainers,1/1/1998 0:00,,False,A+,100.0,9.0,,False,Micro-small,False,6/14/2022 8:18,BBB,200
383,704.0,24000146,"Isanti Rental, Inc.",421 W Dual Blvd,,Isanti,MN,55040.0,USA,7634447368.0,info@isantirental.com,http://www.isantirental.com,50481-000,Party Supplies - Renting,10/1/1993 0:00,,True,A+,100.0,10.0,,False,Small,False,5/24/2022 8:16,BBB,200
384,704.0,96502881,Carz Inspection,PO Box 302,,Wanamingo,MN,55983.0,USA,8772748258.0,,http://www.carzinspection.com,60100-000,Auto Inspection Stations,7/2/2013 0:00,12/22/2016 0:00,False,NR,0.0,,0.0,False,Micro-small,False,12/23/2019 3:56,BBB,200
385,704.0,96347888,Grandma's Place,7040 Lakeland Ave N Ste 110,,Minneapolis,MN,55428.0,USA,7633318253.0,shellis@grandmasplaceinc.com,http://www.grandmasplaceinc.com/,85296-100,Senior Home Care,6/15/2000 0:00,,False,A+,100.0,1.0,0.0,False,Micro-small,False,10/6/2021 4:13,BBB,200
386,704.0,96143950,Strata Corporation,1225 S Broadway,,Minot,ND,58701.0,USA,7018524560.0,,http://www.earthmovers-inc.com,10050-000,Excavating Contractors,1/1/1992 0:00,,False,A+,100.0,100.0,0.0,False,Micro-small,False,3/4/2022 9:46,BBB,200
387,704.0,1000006498,Travel Incorporated of North Dakota,10 4th St S,,Moorhead,MN,56560.0,USA,2182368383.0,,http://moorheadmn.vacation.travelleaders.com/,70632-000,Travel Agencies & Bureaus,8/21/1986 0:00,,False,A+,100.0,1.0,0.0,False,Micro-small,False,1/10/2020 4:26,BBB,200
388,704.0,96009689,Evergreen Lending Company,1770 Anderson Ln,,Saint Croix Falls,WI,54024.0,USA,7632109900.0,pterry@evergreen-lending.com,http://www.evergreen-lending.com,20053-000,Mortgage Brokers,6/1/2004 0:00,4/25/2016 0:00,False,NR,0.0,1.0,,False,Micro-small,False,4/29/2019 4:00,BBB,200
389,704.0,96227538,Canary Beach Resort LLC,17405 County Road 28,,Villard,MN,56385.0,USA,3205542471.0,info@canarybeachresort.com,http://Canarybeachresort.com,65733-000,Vacation Rentals,1/1/1920 0:00,,False,A+,100.0,3.0,,False,Small,False,7/14/2021 4:27,BBB,200
390,704.0,1000026726,Oak Curve Outfitters,16050 Oak Curv,,Lakeville,MN,55044.0,USA,,support@oakcurveoutfitters.com,https://www.oakcurveoutfitters.com/?fbclid=IwAR366q6fUigNGf9YiY_8ouz7-qdUDYnhMMBG3A_bA_N5p0QZ5BhglgA0pZo,41000-000,Sports & Recreation,1/6/2018 0:00,,False,NR,0.0,1.0,,False,Micro-small,False,10/30/2022 8:34,BBB,200
391,704.0,96007744,Lee Myles Transmissions,857 Mendakota Ct,,Saint Paul,MN,55120.0,USA,6515780885.0,,http://www.leemyles.com,60902-000,Transmissions - Automobile,1/1/2000 0:00,8/2/2018 0:00,False,NR,0.0,3.0,,False,Micro-small,False,8/3/2018 6:45,BBB,200
392,704.0,1000036095,Allison&#39;s Hair Company LLC,14358 Burnhaven Dr Ste 27,,Burnsville,MN,55306.0,USA,6519989290.0,,https://allisonshaircompany.glossgenius.com/,60134-000,Beauty Salons,2/27/2012 0:00,,False,A+,100.0,1.0,0.0,False,Micro-small,False,1/11/2023 9:00,BBB,200
393,704.0,96018682,"Mosley, Inc.",410 N Highway 86,,Lakefield,MN,56150.0,USA,5076626227.0,mosley@frontiernet.net,http://www.lisamosleyrealtor.com/,10076-000,Heating Contractors,1/1/1953 0:00,,False,A+,100.0,8.0,,False,Small,False,4/22/2020 4:31,BBB,200
394,704.0,96084329,Midland Terrace Apartments,3529 Owasso St,,Saint Paul,MN,55126.0,USA,6514841112.0,midland@tyconco.com,http://www.tyconcompanies.com,60042-000,Apartments,6/25/1975 0:00,,False,A+,100.0,9.0,0.0,False,Micro-small,False,2/22/2019 3:55,BBB,200
395,704.0,96224671,Berg&#39;s Resort,1306 Berg Ave NE,,Alexandria,MN,56308.0,USA,3207621426.0,info@bergsresort.com,http://www.bergsresort.com,60447-000,Hotels,1/1/1984 0:00,,False,A+,100.0,1.0,,False,Micro-small,False,12/27/2022 8:49,BBB,200
396,704.0,96350910,"RIC, Inc.",160 Market St S,,Shakopee,MN,55379.0,USA,6122201851.0,amy@ric-mn.com,http://www.ric-mn.com,10035-000,Contractors - General,1/4/2011 0:00,,True,A+,100.0,14.0,0.0,False,Micro-small,False,1/27/2023 9:09,BBB,200
397,704.0,1000045286,Rocket man Face Masks,8337 Penn Ave,,Bloomington,MN,55431.0,USA,9528816260.0,ky@the-rocketman.com,https://the-rocketman.com/,60974-000,Internet Shopping,,,False,A-,91.11,1.0,,False,Micro-small,False,10/30/2022 8:34,BBB,200
398,704.0,96009026,"Relusent Communications, Inc.",21640 County Road 15,Ste 100,Elk River,MN,55330.0,USA,7634256030.0,ronb@relusent.com,http://www.relusent.com,50647-000,Telephone Equipment & Systems Dealers,8/26/1996 0:00,,False,A+,100.0,5.0,,False,Small,False,1/7/2022 14:09,BBB,200
399,704.0,96540988,7O2 Communications,702 Main Ave,,Moorhead,MN,56560.0,USA,2182845702.0,702@702com.net,https://702com.net/,60280-000,Data Processing Service,3/18/1999 0:00,,False,A+,100.0,1.0,0.0,False,Micro-small,False,10/27/2022 8:14,BBB,200
