,BBBID,BusinessID,BusinessName,StreetAddress,StreetAddress2,City,StateProvince,PostalCode,Country,Phone,Email,Website,TOBID,TOBDescription,DateBusinessStarted,DateBusinessClosed,IsBBBAccredited,BBBRatingGrade,BBBRatingScore,NumberOfEmployees,NumberOfPartTimeEmployees,IsHQ,SizeOfBusiness,IsCharity,CDWLastUpdate,FoundVia,status_code
800,704,1000061616,HARMONY PLUMBING LLC	,12974 NICOLLET AVE APT 102,,Burnsville,MN,55337.0,USA,9522105435.0,haromonyplumbingmn@gmail.com,http://www.harmonyplumbingmn.com/,10113-000,Plumbers,10/28/22 0:00,,False,NR,0.0,1.0,,False,Micro-small,False,1/11/23 9:01,BBB,200
801,704,96568883,Grandma&#39;s Marathon,351 Canal Park Dr STE 2,,Duluth,MN,55802.0,USA,2187270947.0,jon@grandmasmarathon.com,http://www.grandmasmarathon.com,60073-000,Athletic Organizations,11/24/86 0:00,,False,A+,100.0,1.0,0.0,False,Micro-small,False,11/3/22 8:23,BBB,200
802,704,96114708,Custom Wood Cuts,1268 Lealand Rd,,Circle Pines,MN,55014.0,USA,6512499772.0,ron@customwoodcuts.com,http://www.customwoodcuts.com,30760-000,Woodworking,1/1/00 0:00,,False,A+,100.0,1.0,,False,Small,False,2/11/22 9:24,BBB,200
803,704,1000061846,Jenson & Company LLC,11850 Fountains Way Ste 200,,Maple Grove,MN,55369.0,USA,7634255000.0,info@jensonco.com,https://jensonco.com/,60005-000,Accountants,2/19/10 0:00,,False,A+,100.0,1.0,0.0,False,Micro-small,False,2/2/23 8:53,BBB,200
804,704,96376990,Mayne Design LLC,1910 Stanford Ave,,Duluth,MN,55811.0,USA,2183414070.0,info@maynedesign.net,http://mayne.design,60413-000,Graphic Designers,4/21/04 0:00,,False,A+,100.0,1.0,0.0,False,Micro-small,False,9/24/21 3:48,BBB,200
805,704,1000010577,Invitation Homes,860 Blue Gentian Rd,Ste 200,Saint Paul,MN,55121.0,USA,8555647368.0,MinnesotaLeasing@IHRent.com,http://invitationhomes.com,60732-000,Property Management,,,True,A+,100.0,1.0,0.0,False,Micro-small,False,2/2/23 8:52,BBB,200
806,704,96555952,"Beverage Wholesalers, Inc.",701 4th Ave N,,Fargo,ND,58102.0,USA,7012937404.0,,https://www.facebook.com/pages/Beverage-Wholesalers/171332792880267,80084-000,Beverages,12/15/67 0:00,,False,A+,100.0,,0.0,False,Micro-small,False,7/15/21 4:16,BBB,200
807,704,96122312,"Green Expressions, LLC",5516 Hillside Ct,,Edina,MN,55439.0,USA,9522704869.0,greenexpressions@hotmail.com,http://gelawncare.com/,00157-000,Lawn Maintenance,3/6/06 0:00,,False,A+,100.0,4.0,,False,Micro-small,False,11/18/22 9:13,BBB,200
808,704,96175817,KMAT Inc.,13146 Evermore Pkwy,,Saint Paul,MN,55124.0,USA,9526981750.0,bkons@kmat-inc.ocm,http://www.kmat-inc.com,20019-100,Insurance Agency,1/1/95 0:00,,False,A+,100.0,3.0,,False,Micro-small,False,2/2/22 9:43,BBB,200
809,704,96098128,"AppDev Products, LLC",10250 Valley View Rd Ste 120,,Eden Prairie,MN,55344.0,USA,9522538123.0,,http://appdev.com,60248-000,Computers - Training,1/1/94 0:00,,False,A+,100.0,7.0,,False,Small,False,12/17/22 9:00,BBB,200
810,704,1000013276,Sage Healthstyle LLC,8667 Stonefield Ln,,Chanhassen,MN,55317.0,USA,9525941600.0,darci@sagehealthstyle.com,http://www.sagehealthstyle.com/,85260-000,Coaching - Life,1/5/17 0:00,,False,A+,97.0,1.0,0.0,False,Micro-small,False,10/25/19 4:28,BBB,200
811,704,1000051307,"Praise Painting, LLC",2080 Bridgewater Blvd S,,Cambridge,MN,55008.0,USA,6512317354.0,praisepainting@yahoo.com,https://www.facebook.com/praisepaintingllc,10095-000,Painting Contractors,1/23/09 0:00,,True,A+,100.0,2.0,,False,Micro-small,False,12/31/22 8:59,BBB,200
812,704,96153545,"Discount Gun Dealer.com, LLC",10800 Lyndale Ave S Ste 220,,Bloomington,MN,55420.0,USA,9528813433.0,brad@discountgundealer.com,http://www.discountgundealer.com/index.html,50326-000,Guns & Gunsmiths,3/1/10 0:00,,False,A+,100.0,1.0,0.0,False,Micro-small,False,8/4/22 8:30,BBB,200
813,704,42000526,R V Sports Inc,PO Box 411,,Thief River Falls,MN,56701.0,USA,2186811007.0,,http://www.rvsports.com,50536-000,"Recreational Vehicles - Equipment, Parts, Supplies",10/25/64 0:00,,False,A+,100.0,13.0,,False,Small,False,10/22/22 8:09,BBB,200
814,704,1000057140,"AssetHR, Inc.",7493 147th St W #210,,Apple Valley,MN,55124.0,USA,9527469508.0,,https://www.assethr.com,60451-000,Human Resources,1/6/05 0:00,,False,A+,100.0,1.0,0.0,False,Micro-small,False,8/5/22 8:39,BBB,200
815,704,1000028520,Mary Quinn - Edina Realty,7767 Elm Creek Blvd N Ste 200,,Maple Grove,MN,55369.0,USA,7634948150.0,marymquinn@edinarealty.com,https://www.edinarealty.com/mary-quinn-realtor#/,60729-102,Real Estate Agents,12/21/04 0:00,,True,A+,100.0,1.0,0.0,False,Micro-small,False,9/28/22 10:20,BBB,200
816,704,96130318,Curtis Johnson & Associates,3320 Xanthus Ln N,,Minneapolis,MN,55447.0,USA,6126301032.0,cj@curtisjohnsonphoto.com,http://www.curtisjohnsonphoto.com,60075-000,Attorneys & Lawyers,1/1/98 0:00,,False,A+,100.0,1.0,,False,Micro-small,False,5/27/20 4:36,BBB,200
817,704,1000043144,Whiskey On Ice MN,1621 Murphy Parkway,,Eagan,MN,55122.0,USA,9522210747.0,info@scotchwhisky.com,https://scotchwhisky.com/contact-us/,65259-000,Event Planners,,,False,F,43.47,1.0,,False,Micro-small,False,1/24/23 8:59,BBB,200
818,704,96371816,"Armo Press, LLC",284 Spring St Unit 203,,Saint Paul,MN,55102.0,USA,8886692766.0,krause@armopress.com,http://www.armopress.com,80860-000,Online Publications,8/4/11 0:00,,False,B-,80.0,1.0,0.0,False,Micro-small,False,4/1/22 8:40,BBB,200
819,704,1000048389,Scenic Landscapes,2402 15th Ave SW,,Austin,MN,55912.0,USA,5074383215.0,lawncare159@gmail.com,https://www.slandscapes.com/,00157-000,Lawn Maintenance,7/21/21 0:00,,False,NR,0.0,1.0,,False,Micro-small,False,3/2/22 10:33,BBB,200
820,704,1000006533,"Temperature Specialists, Inc",3175 Bridge St NW,,Saint Francis,MN,55070.0,USA,7637532974.0,info@tempspec.com,http://www.tempspec.com/,30681-000,Temperature Measuring Materials,8/12/81 0:00,,False,A+,100.0,1.0,0.0,False,Micro-small,False,1/8/20 5:24,BBB,200
821,704,22002224,LKQ Corp.,26548 Chippendale Ave,,Northfield,MN,55057.0,USA,6514606166.0,cmkryzer@lkqcorp.com,http://www.lkqcorp.com,80047-000,Auto Wrecking ,1/1/87 0:00,,False,NR,0.0,55.0,0.0,False,Small,False,3/23/21 4:01,BBB,200
822,704,96034641,"Vanquish Credit Repair, Inc",1171 Northland Dr,,Mendota Heights,MN,55120.0,USA,6512876240.0,kgrimes@vanquishcredit.com,http://www.vanquishcreditrepair.com,90027-000,Credit Repair Services - Advance Fee,11/10/05 0:00,6/3/16 0:00,False,NR,0.0,1.0,,False,Micro-small,False,6/10/19 4:04,BBB,200
823,704,96145076,Floor to Ceiling,8075 Sterling Dr,,Saint Joseph,MN,56374.0,USA,3202711632.0,danielle@waiteparkftc.com,http://www.floortoceilingmn.com,50133-000,Carpet & Rug Dealers - New,12/10/22 0:00,,False,NR,0.0,5.0,,False,Micro-small,False,1/27/23 9:08,BBB,200
824,704,96370686,"Alliance Insurance Advisors, LLC",4782 Washington Sq,,White Bear Lake,MN,55110.0,USA,6517976700.0,AdamS@allianceinsuranceadvisors.com,http://www.allianceinsuranceadvisors.com,20019-100,Insurance Agency,8/8/11 0:00,,False,A+,100.0,12.0,,False,Small,False,2/8/23 9:28,BBB,200
825,704,96560011,Clive's Roadhouse Burnsville,13050 Aldrich Ave S,,Burnsville,MN,55337.0,USA,9524263625.0,,http://www.clivesroadhouse.net,50544-000,Restaurants,9/11/14 0:00,,False,A+,100.0,1.0,0.0,False,Micro-small,False,6/10/22 8:24,BBB,200
826,704,96036783,HD Supply Waterworks,15800 W 79th St,,Eden Prairie,MN,55344.0,USA,9529379666.0,mark.smith@hdsupply.com,https://www.hdsupply.com/,80817-000,Industrial Products Wholesalers & Distributors,8/15/05 0:00,,False,A+,100.0,25.0,,False,Small,False,5/18/22 8:56,Email,200
827,704,96024730,"Home Restoration Services, Inc.",1323 W 50th St,,Minneapolis,MN,55419.0,USA,6128275767.0,greg@homerestorationinc.com,http://www.homerestorationinc.com,10177-000,Construction & Remodeling Services,11/20/95 0:00,,False,A+,100.0,1.0,,False,Micro-small,False,8/31/22 8:59,BBB,200
828,704,1000009897," Minnesota Seamless Concepts, Inc.",3622 30th St SE #4,,Saint Cloud,MN,56304.0,USA,8442754776.0,heather@myexteriorpro.com,http://www.minnesotaseamless.com,10073-000,Gutters & Downspouts,3/28/16 0:00,3/30/20 0:00,False,NR,0.0,8.0,0.0,False,Micro-small,False,9/15/21 4:36,BBB,200
829,704,96112313,"Phil&#39;s Quality Automotive, Inc.",7590 Commerce St,,Corcoran,MN,55340.0,USA,7634202059.0,statements@philsauto.com,http://www.philsauto.com,60103-000,Auto Repair & Service,1/1/79 0:00,,True,A+,100.0,6.0,,False,Micro-small,False,12/21/22 9:21,BBB,200
830,704,96126375,A & H Intermediaries,5353 Wayzata Blvd # 408,,Minneapolis,MN,55416.0,USA,9525481200.0,,http://www.ahintermediaries.com,20019-200,Insurance Agents,1/1/06 0:00,,False,A+,100.0,5.0,,False,Micro-small,False,4/15/22 8:41,BBB,200
831,704,96236971,Northern Communities Credit Union,3311 W Arrowhead Rd,,Duluth,MN,55811.0,USA,2182793200.0,trinah@nccyou.com,http://www.nccyou.com,20079-000,Credit Services,7/2/28 0:00,,False,A+,100.0,27.0,0.0,False,Small,False,5/26/22 8:10,BBB,200
832,704,96022548,Hub Jewelers,14 W 66th St,,Minneapolis,MN,55423.0,USA,6128667700.0,jenniferb@hubjewelers.com,http://www.hubjewelers.com,50367-000,Jewelers - Retail,1/1/84 0:00,2/27/17 0:00,False,NR,0.0,13.0,,False,Small,False,4/20/20 3:51,BBB,200
833,704,96099809,Sorensen Flexible Benefits Ltd,318 Plum St,,Red Wing,MN,55066.0,USA,6513887103.0,,http://www.sorensenbenefits.com/,20027-000,Insurance - Health,1/1/95 0:00,,False,A+,100.0,5.0,,False,Micro-small,False,4/9/21 4:44,BBB,200
834,704,1000022065,CM Lawn & Snow Services,283 Erickson Rd,,Esko,MN,55733.0,USA,2183903980.0,,https://www.facebook.com/cmlawnsnowservice/,00157-000,Lawn Maintenance,4/10/14 0:00,,False,A+,100.0,1.0,0.0,False,Micro-small,False,10/22/22 8:10,BBB,200
835,704,96580744,All Star Painting Inc,1706 E. BOULEVARD AVENUE,,Bismarck,ND,58501.0,USA,7012268753.0,allstarpaintnd@gmail.com,https://allstarpaintnd.com/,10095-000,Painting Contractors,1/20/15 0:00,,False,A+,100.0,1.0,0.0,False,Micro-small,False,8/25/22 8:35,BBB,200
836,704,96010382,Concepts by Design,PO Box 181,,Argyle,MN,56713.0,USA,9529063475.0,Brian@ConceptsbyDesign.com,http://www.conceptsbydesign.com,10035-000,Contractors - General,1/1/87 0:00,,False,A+,100.0,10.0,,False,Micro-small,False,11/18/20 4:55,BBB,200
837,704,96001241,Signal Management Corporation,1408 20th Ave SW Ste 10,,Minot,ND,58701.0,USA,7018394200.0,info@smcminot.com,https://smcminot.com/,60732-000,Property Management,1/1/68 0:00,,True,A+,100.0,6.0,,False,Micro-small,False,11/22/22 8:45,BBB,200
838,704,96007210,"Appliance Depot, Inc.",8980 Jefferson Trl,,Inver Grove Heights,MN,55077.0,USA,6514545995.0,buy@appliancedepot.com,http://www.appliancedepot.com,50016-000,Appliances - Major - Dealers,1/1/55 0:00,,True,A+,100.0,10.0,0.0,False,Small,False,3/31/22 8:34,BBB,200
839,704,1000045393,Green Acres Lawn and Landscape,,,Victoria,MN,55386.0,USA,6127901763.0,greenacreslawncaremn@gmail.com,http://www.greenacreslawn.care,00155-000,Landscape Contractors,5/18/20 0:00,,False,A,95.68,1.0,,False,Micro-small,False,8/26/22 8:32,BBB,200
840,704,1000011459,"Eisele Greenhouse, Inc.",8350 160th St W,,Lakeville,MN,55044.0,USA,9524327435.0,info@eiselegreenhouse.com,https://www.eiselegreenhouse.com/,50299-000,Garden Centers,9/29/83 0:00,,False,A+,100.0,1.0,0.0,False,Micro-small,False,6/13/20 4:00,BBB,200
841,704,96087324,Flax USA,1661 7th St NE,,Goodrich,ND,58444.0,USA,8663529872.0,,http://www.flaxusa.com,50336-000,Health & Diet Products - Retail,1/1/01 0:00,,False,A+,100.0,5.0,,False,Micro-small,False,12/15/19 4:24,BBB,200
842,704,96177180,"GasBuddy OpenStore, Inc.","77 N Washington Street, 4th Floor",,Boston,MA,2114.0,USA,6128752766.0,dcoupal@gasbuddy.com,http://www.gasbuddy.com,60473-000,Internet Services,6/7/00 0:00,,False,NR,0.0,4.0,,False,Micro-small,False,1/11/23 9:00,BBB,200
843,704,96041300,"Hometown Tire & Service, LLC",1137 Robert St S,,West Saint Paul,MN,55118.0,USA,6514500535.0,rick@hometowntireandservice.com,http://www.hometowntireandservice.net/,50659-000,Tire Dealers,7/19/05 0:00,,True,A+,100.0,6.0,,False,Small,False,1/28/23 8:47,BBB,200
844,704,96364295,Saxon Financial Group,7571 9th St N,,Saint Paul,MN,55128.0,USA,6517465401.0,mail@saxonfinancialgroup.net,http://saxonfinancialgroup.net,20085-000,Financial Services,,,False,A+,100.0,,,False,Micro-small,False,12/2/20 4:42,BBB,200
845,704,96004760,"Advanced Asphalt, Inc.",8196 20th Ave,,Hugo,MN,55038.0,USA,6513070114.0,advancedasphaltinc@yahoo.com,http://www.advancedasphaltinc.com,10102-000,Paving Contractors,12/1/99 0:00,,False,A+,100.0,5.0,0.0,False,Micro-small,False,5/11/22 8:36,BBB,200
846,704,1000002510,Impact Ministries International,Po Box 102,,Lonsdale,MN,55046.0,USA,,tom@tstamman.com,http://tstamman.com/,60564-000,Missions,1/7/94 0:00,,False,NR,0.0,1.0,0.0,False,Micro-small,False,7/7/19 4:05,BBB,200
847,704,1000052537,WTR Consulting,2528 Lafayette Rd,,Wayzata ,MN,55391.0,USA,6124306666.0,tianna@lifesds.com,http://www.lifestyledesignservice.com/contact-us,60470-000,Interior Decorators & Designers,8/28/16 0:00,,False,A+,97.0,1.0,,False,Micro-small,False,8/19/22 8:09,BBB,200
848,704,96383814,Paragon Black Dirt,9011 Boilsprings Ln.,,Shakopee,MN,55379.0,USA,9522926346.0,paragonblackdirt@yahoo.com,http://www.paragonblackdirt.com,50670-000,Topsoil,,,False,A+,100.0,2.0,,False,Micro-small,False,2/12/22 9:24,BBB,200
849,704,1000018867,Kosta's Gyros,2702 W Michigan St,,Duluth,MN,55806.0,USA,2184817783.0,,https://www.kostasgyros.com/,50544-000,Restaurants,6/29/18 0:00,,False,NR,0.0,1.0,0.0,False,Micro-small,False,11/30/21 4:06,BBB,200
850,704,6002446,River Inn Apartments,133 S Mill St,,Fergus Falls,MN,56537.0,USA,2187394140.0,riverinn@prtel.com,https://www.prtel.com/,60042-000,Apartments,1/1/89 0:00,,False,A+,100.0,2.0,,False,Micro-small,False,8/19/20 4:30,Email,200
851,704,96350395,C & D Water Services,630 E Broadway,,Williston,ND,58801.0,USA,7015727639.0,office@cdwaterservices.com,http://www.cdwaterservices.com,70650-000,Water - Bottled & Bulk,1/1/04 0:00,,False,NR,0.0,5.0,0.0,False,Small,False,6/22/22 11:34,BBB,200
852,704,96093539,North Dakota Racing Commission,500 N 9th St,,Bismarck,ND,58501.0,USA,7013284633.0,glallensworth@nd.gov,https://www.nd.gov/,99998-000,Government Offices,1/1/94 0:00,,False,NR,0.0,,,False,Micro-small,False,5/4/17 3:42,Email,200
853,704,1000047934,"Cam√¢??s Construction, Inc",6480 W Arrowhead Rd,,Cloquet,MN,55720.0,USA,2183904669.0,camsconstruction218@gmail.com,https://www.facebook.com/CamsConstructionInc/,10035-000,Contractors - General,8/21/18 0:00,,True,A+,97.76,2.0,,False,Micro-small,False,8/17/22 8:56,BBB,200
854,704,96535714,Modern Dental,1600 2nd Ave SW STE 22,,Minot,ND,58701.0,USA,7018388399.0,,http://www.moderndental.com,60289-000,Dentists,,,False,A+,100.0,,,False,Micro-small,False,6/24/21 4:06,BBB,200
855,704,1000019775,"Dickinson Enterprises, Inc.",PO Box 180,,Kelliher,MN,56650.0,USA,2186472444.0,dickinsontimber@paulbunyan.net,http://dickinsontimber.com,30583-000,Sawmills,10/23/17 0:00,,False,NR,0.0,8.0,0.0,False,Micro-small,False,2/1/23 8:58,BBB,200
856,704,21003028,"Handi Medical Supply, Inc.",2505 University Ave W,,Saint Paul,MN,55114.0,USA,6516449770.0,,http://www.handimedical.com,80385-000,Hospital & Medical Equipment & Supplies,5/23/88 0:00,,True,A+,100.0,95.0,0.0,False,Small,False,1/27/23 9:08,BBB,200
857,704,1000019502,"Custom Hose Tech, Inc",9323 Garfield Ave S,,Bloomington,MN,55420.0,USA,9528885580.0,blake.carlisle@customhoseus.com,https://www.customhose.net/,80389-000,Hydraulic Equipment Repair,3/17/98 0:00,,False,A+,100.0,1.0,0.0,False,Micro-small,False,2/2/23 8:53,BBB,200
858,704,1000009817,Pebble Spa,229 E Sheridan St,,Ely,MN,55731.0,USA,2183650809.0,elypebble@gmail.com,http://www.pebblespaco.com,60543-000,Massage Therapists,2/14/06 0:00,,False,A+,100.0,26.0,0.0,False,Small,False,10/4/22 8:07,BBB,200
859,704,1000007462,"Angel in the Kitchen, LLC",21955 Minnetonka Blvd Apt 6,,Excelsior,MN,55331.0,USA,6128880072.0,joan@angelinthekitchen.net,https://www.angelinthekitchen.net/,50138-000,Caterers,1/14/10 0:00,,False,A+,100.0,1.0,0.0,False,Micro-small,False,7/8/22 12:28,Email,200
860,704,1000031549,Grossman & Trump Inc,200 13th St S,,Benson,MN,56215.0,USA,3208434848.0,,http://www.grossmantrumpinc.com/,10182-000,Heating & Air Conditioning,6/8/15 0:00,,False,NR,0.0,1.0,0.0,False,Micro-small,False,9/24/22 9:02,BBB,200
861,704,96134945,Sparky&#39;s Welding & Fabrication,4050 210th St,,Montevideo,MN,56265.0,USA,3202698860.0,sparkys@mvtvwireless.com,http://www.sparkysweldingandfab.com,60948-000,Welding,1/1/06 0:00,,False,A+,100.0,4.0,0.0,False,Micro-small,False,12/14/22 9:35,BBB,200
862,704,96099285,Ketz & Assoc,6468 City West Pkwy,,Eden Prairie,MN,55344.0,USA,9529327148.0,,http://www.ketzassociates.com,60533-000,Management Consultants,1/1/84 0:00,,False,A+,100.0,6.0,,False,Micro-small,False,3/3/22 9:50,BBB,200
863,704,96043198,Scotts Lawn Service,623 Bridgeport Dr,,Bismarck,ND,58504.0,USA,7017514442.0,Beth.Dockins@Scotts.com,https://www.Scotts.com/,00157-000,Lawn Maintenance,1/5/07 0:00,,False,A+,100.0,10.0,,False,Small,False,12/15/21 4:24,Email,200
864,704,96118827,David Sande Construction,5852 325th St,,Cannon Falls,MN,55009.0,USA,5072980196.0,davidsandeconstruction@citlink.net,https://www.citlink.net/,10035-000,Contractors - General,1/1/00 0:00,,False,A+,100.0,11.0,,False,Micro-small,False,7/20/22 9:10,Email,200
865,704,24001376,"Technical Solutions of Madison Lake, Inc.",608 Walnut Ave,,Madison Lake,MN,56063.0,USA,5072434590.0,Technical@TechnicalSolutionsML.com,http://www.technicalsolutionsml.com,10049-000,Electricians,1/1/98 0:00,,False,A+,100.0,6.0,0.0,False,Micro-small,False,2/10/22 9:44,BBB,200
866,704,1000061228,Concrete Revisions LLC ,1327 8th Ave,,Anoka,MN,55303.0,USA,7632211056.0,jvjindra@gmail.com,https://www.concreterevisions.com/,10032-000,Concrete Contractors,8/28/20 0:00,,True,A,95.95,1.0,,False,Micro-small,False,1/13/23 9:02,BBB,200
867,704,1000001729,Autobody 2000 Inc,611 19th Ave NE,,Saint Joseph,MN,56374.0,USA,3203631116.0,zaharacraig@gmail.com,http://www.ab2k.com,60094-000,Auto Body Repair & Painting,1/1/02 0:00,,True,A+,100.0,2.0,,False,Micro-small,False,1/5/23 9:23,BBB,200
868,704,96116497,Purdys Shoe Store Inc.,209 Labree Ave N,,Thief River Falls,MN,56701.0,USA,2186812608.0,purdys@wiktel.com,https://www.wiktel.com/,50582-000,Shoes - Retail,8/1/46 0:00,,False,A+,100.0,7.0,,False,Small,False,3/24/21 4:31,Email,200
869,704,1000031802,Goliath  Fabricators LLC,2859 135th Ln NW,,Andover,MN,55304.0,USA,7635671747.0,,http://www.goliathfabricators.com,30218-000,Fiber Glass Fabricators,4/23/19 0:00,,False,NR,0.0,3.0,0.0,False,Micro-small,False,10/30/22 8:34,BBB,200
870,704,96342018,"Rubicon Mortgage Advisors, LLC",10301 Wayzata Blvd Ste 100,,Minnetonka,MN,55305.0,USA,9524442401.0,briancall@rubiconmortgagellc.com,http://www.rubiconmortgageadvisors.com,25053-000,Mortgage Bankers,6/26/06 0:00,,False,A+,100.0,21.0,,False,Small,False,10/26/22 8:41,BBB,200
871,704,1000056563,C & M Cycle Services,8290 Main St NE Ste 6,,Fridley,MN,55432.0,USA,7637848600.0,,http://www.cmcycleservice.com/,50441-000,Motorcycles - Repairing & Service,1/1/94 0:00,,False,A+,100.0,1.0,,False,Micro-small,False,7/8/22 12:32,BBB,200
872,704,1000011609,"Weisenburger Construction, Inc.",106 3rd St NE,,New Rockford,ND,58356.0,USA,7016525982.0,burgers@midco.net,https://www.midco.net/,60253-000,Construction Management,5/23/11 0:00,,False,A+,100.0,4.0,0.0,False,Micro-small,False,5/1/21 4:13,Email,200
873,704,96002983,"Assured Decontamination Service, LLC",2706 W 59th St,,Minneapolis,MN,55410.0,USA,6519980922.0,jay@deconservices.com,https://deconservices.com/,85261-000,Crime Scene/Trauma Clean Up,8/23/99 0:00,,True,A+,100.0,3.0,0.0,False,Micro-small,False,6/3/22 9:01,BBB,200
874,704,96113956,Simulation Curriculum Corporation,11900 Wayzata Blvd Ste 126,,Hopkins,MN,55305.0,USA,9526530493.0,mgoodman@simcur.com,http://www.simulationcurriculum.com,60235-000,"Computers Hardware, Software & Services",12/18/08 0:00,,False,A+,100.0,3.0,,False,Small,False,9/10/22 8:38,BBB,200
875,704,96113935,Rochester Endodontics,116 Elton Hills Ln NW,,Rochester,MN,55901.0,USA,5072888363.0,frontdesk@rochendo.com,http://www.rochesterendodontics.com,60289-102,Endodontics,1/1/03 0:00,,False,A+,100.0,4.0,,False,Micro-small,False,2/11/22 9:24,BBB,200
876,704,96154083,"Genz Appraisal Service, Inc.",910 Lincoln Ave # 1,,Detroit Lakes,MN,56501.0,USA,2188473443.0,appraisals@lakesnet.net,http://www.genzappraisals.com,60045-000,Appraisers,1/1/00 0:00,,False,A+,100.0,2.0,,False,Micro-small,False,6/3/22 9:02,BBB,200
877,704,96043916,Health Systems Cooperative Laundries,725 Minnehaha Ave E,,Saint Paul,MN,55106.0,USA,6517748620.0,Kyle.Roberts@HSCL.net,https://www.hscl.net,60518-100,Health Care Linen Service,9/26/96 0:00,,False,A+,100.0,350.0,,False,Small,False,7/8/22 12:22,BBB,200
878,704,1000004262,Alumnae Association of the College of Saint Teresa,357 Gould St,,Winona,MN,55987.0,USA,5074542930.0,colleen@cstalums.org,http://www.cstalums.org,90021-950,Charity - Other Charitable Organizations,,,False,NR,0.0,1.0,0.0,False,Micro-small,True,1/27/23 9:09,BBB,200
879,704,96272473,Greenberg Realty Inc,3651 S Columbia Rd Ste A,,Grand Forks,ND,58201.0,USA,7017726641.0,info@greenbergrealty.com,http://www.greenbergrealty.com,60729-000,Real Estate,1/1/84 0:00,,False,A+,100.0,70.0,,False,Micro-small,False,11/16/21 3:59,BBB,200
880,704,1000051575,Great Garage Door Co.,1308 113th Ave NE,,Minneapolis,MN,55434.0,USA,7637673000.0,info@greatgaragedoor.com,https://www.greatgaragedoor.com/,85360-000,Garage Doors & Openers,1/18/06 0:00,,False,A+,100.0,1.0,0.0,False,Micro-small,False,1/11/23 9:00,Email,200
881,704,96535853,Fraley Financial Inc,9298 Central Ave NE,,Blaine,MN,55434.0,USA,6512725414.0,andrew.fraley@lpl.com,http://www.fraleyfinancial.com,20085-000,Financial Services,,,False,A+,100.0,1.0,,False,Micro-small,False,1/10/23 8:48,BBB,200
882,704,96113719,Paradise Customs LLC,1200 First Ave N #E,,Fargo,ND,58102.0,USA,7013185070.0,shelly.paradisecustoms@yahoo.com,http://www.paradisecustoms.com,60095-000,Auto Customizing,8/8/05 0:00,,False,A+,100.0,1.0,,False,Micro-small,False,2/8/23 9:28,BBB,200
883,704,51000916,"G & M Tree Moving, Inc.",PO Box 1076,,Lakeville,MN,55044.0,USA,9524693288.0,gmtree@frontiernet.net,http://www.gmtreemoving.com,00219-000,Tree Service,4/14/97 0:00,,True,A+,100.0,1.0,0.0,False,Micro-small,False,10/21/22 8:07,BBB,200
884,704,96001514,"Rhino, Inc",411 Congress St W,,Maple Lake,MN,55358.0,USA,3209636480.0,JenniferE@rhinomade.com,http://www.otteroutdoors.com,50608-000,Sporting Goods - Retail,7/1/97 0:00,,False,C,74.0,80.0,,False,Small,False,11/23/22 9:42,BBB,200
885,704,96153600,Bill's Lawn & Landscape,5170 71st Ln,,Loretto,MN,55357.0,USA,6122828054.0,bill@billslawnandlandscape.com,http://www.billslawnandlandscape.com,00155-000,Landscape Contractors,7/1/88 0:00,,False,A+,100.0,2.0,,False,Micro-small,False,3/22/22 8:36,BBB,200
886,704,96029032,"Pediatric Surgical Association, LTD.",14050 Nicollet Ave # 300,,Burnsville,MN,55337.0,USA,6128138000.0,,http://www.pediatricsurgicalassociates.com,60679-000,Physicians & Surgeons - Orthopedic Surgery,1/1/88 0:00,,False,B-,80.0,5.0,,False,Small,False,8/31/22 8:59,BBB,200
887,704,1000052076,Ultimate Playgrounds Inc.,14033 Commerace Ave NE #300-364,,Prior Lake,MN,55372.0,USA,6124607529.0,info@ultimateplaygrounds.com,https://ultimateplaygrounds.com/,60697-000,Playgrounds,,,False,A+,100.0,1.0,0.0,False,Micro-small,False,1/12/23 8:55,BBB,200
888,704,96121274,St Benedict's Senior Community,1301 E 7th St,,Monticello,MN,55362.0,USA,7632954058.0,,http://www.centracare.com,60792-000,Senior Citizens Service Organization,3/1/78 0:00,,False,A+,100.0,1.0,,False,Small,False,8/26/21 4:03,BBB,200
889,704,1000003154,"Storeworks Technologies , Limited",7300 Washington Ave S,,Eden Prairie,MN,55344.0,USA,8663889990.0,sales@storeworks.com,http://www.storeworks.com/,60533-200,Project Management,9/22/04 0:00,,False,A+,100.0,1.0,0.0,False,Micro-small,False,12/17/22 9:00,BBB,200
890,704,2001568,MotionCare Inc.,5985 Rice Creek Pkwy Ste 104,,Shoreview,MN,55126.0,USA,6514846735.0,,http://www.motioncare.com,60205-000,Chiropractors D.C.,1/1/00 0:00,,False,A+,100.0,8.0,,False,Micro-small,False,1/1/21 3:49,BBB,200
891,704,96151829,Brutus Inc,112 Hidden Meadow Rd,,Apple Valley,MN,55124.0,USA,9526866000.0,Cindy@brutusinc.com,http://www.brutusinc.com,00206-000,Riggers,11/12/91 0:00,,False,A+,100.0,6.0,0.0,False,Micro-small,False,1/7/23 9:07,BBB,200
892,704,24001286,Vencio,PO Box 95,,Jordan,MN,55352.0,USA,6512900602.0,info@vencio.com,http://www.vencio.com,60010-000,Advertising Agencies & Counselors,1/1/95 0:00,,False,A+,100.0,4.0,,False,Micro-small,False,4/23/21 3:55,BBB,200
893,704,96118208,Modern Inconveniences,9801 Dupont Ave S,,Bloomington,MN,55431.0,USA,6127203532.0,rebecca@modernincon.com,http://www.modernincon.com,60792-000,Senior Citizens Service Organization,,,False,A+,100.0,1.0,,False,Micro-small,False,2/17/22 9:42,BBB,200
894,704,96113602,David&#39;s Christian Learning Center,4101 Washington St NE,,Minneapolis,MN,55421.0,USA,7637894030.0,susie@dcleaningcenter.org,http://www.dclearning.org,60199-000,Child Care Centers,1/23/09 0:00,,False,A+,100.0,11.0,,False,Micro-small,False,10/8/22 8:10,BBB,200
895,704,96539051,Bufflehead Web Design,3345 Pilgrim Ln N,,Minneapolis,MN,55441.0,USA,6126051520.0,eric@buffleheadweb.com,http://www.buffleheadweb.com,60980-000,Web Design,,,False,A+,100.0,1.0,,False,Micro-small,False,7/8/22 12:27,BBB,200
896,704,96593431,Rising Sun Reiki Studio,4180 W Broadway Ave STE B3,,Robbinsdale,MN,55422.0,USA,6129405851.0,info@myrisingsunreiki.com,http://www.myrisingsunreiki.com/,85291-000,Reiki Therapy,12/31/14 0:00,,False,NR,0.0,1.0,0.0,False,Micro-small,False,2/2/23 8:52,BBB,200
897,704,96225143,Central Marine & Sports,5110 County 13,,Carlos,MN,56319.0,USA,3208527380.0,eric@centralmarineandsports.com,http://Centralmarineandsports.com,50082-000,Boat Dealers,8/5/04 0:00,,False,A+,100.0,6.0,0.0,False,Micro-small,False,4/15/22 8:42,BBB,200
898,704,96102427,St. Olaf College,1520 Saint Olaf Ave,,Northfield,MN,55057.0,USA,5077862222.0,anderson@stolaf.edu,http://wp.stolaf.edu,60779-000,Schools - Academic - Colleges & Universities,1874-01-01 00:00:00,,False,A+,100.0,860.0,,False,Small,False,11/19/20 4:13,BBB,200
899,704,96007583,Smart IT Inc,PO Box 27386,,New Hope,MN,55427.0,USA,7632495411.0,Keven@sininc.info,http://it-thatworks.com/test22/SINwwwPages.htm,60235-000,"Computers Hardware, Software & Services",1/1/95 0:00,,False,A+,100.0,3.0,0.0,False,Micro-small,False,10/7/21 3:58,BBB,200
900,704,96542998,Daisies & Daydreams,5115 Burning Tree Rd Ste 311,,Duluth,MN,55811.0,USA,2187293377.0,,https://www.facebook.com/daisiesanddaydreamsduluth,50345-000,House Furnishings & Services,2/18/11 0:00,,False,NR,0.0,1.0,0.0,False,Micro-small,False,6/8/22 8:46,BBB,200
901,704,96297137,The 508 Bar + Restaurant,508 1st Ave N,,Minneapolis,MN,55403.0,USA,6123390036.0,Ryan@the508mpls.com,http://www.bar508.com,50544-000,Restaurants,2/15/08 0:00,,False,A+,100.0,43.0,,False,Small,False,12/27/22 8:49,BBB,200
902,704,96029901,Porous Media Corporation,1350 Hammond Rd,,Saint Paul,MN,55110.0,USA,6516532000.0,supplier.inquiry@pentair.com,https://www.pentair.com/,80300-000,Filters - Liquid,1/1/96 0:00,10/8/21 0:00,False,NR,0.0,1.0,,False,Micro-small,False,10/11/21 3:53,Email,200
903,704,96176425,St. Paul Eye Clinic,1675 Beam Ave # 100,,Saint Paul,MN,55109.0,USA,6517386800.0,,http://www.stpauleye.com,60218-000,Clinics,1/1/93 0:00,,False,A+,100.0,3.0,,False,Small,False,7/21/20 3:56,BBB,200
904,704,96539861,Eastern Shore,2720 E 50th St,,Minneapolis,MN,55417.0,USA,6127210036.0,,http://www.easternshore.mn,60971-000,Health & Medical - General,4/12/10 0:00,,False,A+,100.0,1.0,0.0,False,Micro-small,False,1/7/22 14:13,BBB,200
905,704,1000045423,Coldwell Banker Burnet Realty - Christina Newell,7550 France Ave S Ste 300,,Edina,MN,55435.0,USA,6127997413.0,christina.newell@cbrealty.com,https://www.coldwellbankerhomes.com/mn/edina/agent/christina-newell/aid_164294/,60729-102,Real Estate Agents,10/28/15 0:00,,False,A+,100.0,1.0,,False,Small,False,12/14/22 9:36,BBB,200
906,704,96001194,Cavalier County Memorial Hospital Association,909 2nd St,,Langdon,ND,58249.0,USA,7012566100.0,lblue@ccmhnd.com,http://www.cavaliercountyhospital.com,60445-000,Hospitals,1/1/70 0:00,,False,A+,100.0,100.0,,False,Small,False,6/12/21 6:06,BBB,200
907,704,96198595,Hanson Auto Service Inc,8261 State Highway 55,,Rockford,MN,55373.0,USA,7634775511.0,expert@hansonauto.com,http://www.Hansonauto.com,60103-000,Auto Repair & Service,1/1/84 0:00,,False,A+,100.0,5.0,0.0,False,Micro-small,False,3/18/21 4:08,BBB,200
908,704,96574748,Cash for Junk Cars Inc,10751 89th Ave N,,Maple Grove,MN,55369.0,USA,7633017299.0,,http://www.junkcarsforcash-mn.com,85347-000,Auto Salvage Yards,,9/25/17 0:00,False,NR,0.0,1.0,,False,Micro-small,False,3/3/22 9:50,BBB,200
909,704,1000032100,Rapid Graphics & Mailing Inc,4016 Central Ave NE,,Columbia Hts,MN,55421.0,USA,7637816931.0,,http://rgmprinting.com/,30531-100,Image & Graphics Printing,10/26/81 0:00,,False,NR,0.0,1.0,0.0,False,Micro-small,False,12/9/22 9:20,BBB,200
910,704,96022450,Skluzacek Tree Movers,2650 E 280th St,,New Prague,MN,56071.0,USA,9523934125.0,dsklu@msn.com,http://www.skluzacektreemovers.com/,10177-000,Construction & Remodeling Services,8/30/93 0:00,,False,A+,100.0,1.0,0.0,False,Micro-small,False,7/8/22 12:22,BBB,200
911,704,96152062,Penske Truck Rental,7214 Winnetka Ave N,,Minneapolis,MN,55428.0,USA,7635333600.0,jessica.morgan@penske.com,http://www.penske.com,60592-000,Moving Equipment Rental,1/1/97 0:00,,False,A+,100.0,26.0,,False,Small,False,10/27/22 8:14,BBB,200
912,704,96381503,Jimmy John's,219 Oak St SE,,Minneapolis,MN,55414.0,USA,6123317827.0,,http://www.jimmyjohns.com,50555-000,Sandwiches,1/1/10 0:00,,False,A+,100.0,20.0,0.0,False,Small,False,1/21/22 9:35,BBB,200
913,704,1000002621,Lakeland Broadcasting Company Inc,13728 Danbury Path,,Rosemount,MN,55068.0,USA,3202351340.0,askus@willmarradio.com,http://willmarradio.com,70583-000,Radio Stations & Broadcast Companies,7/11/16 0:00,,False,A+,100.0,1.0,0.0,False,Micro-small,False,2/2/22 9:44,BBB,200
914,704,96022107,"All Home Health, Inc.",2626 E 82nd St Ste 180,,Bloomington,MN,55425.0,USA,9528147400.0,nick@allhomehealth.org,http://www.allhomehealth.org,60441-000,Home Health Services,1/1/87 0:00,,False,A+,100.0,1.0,0.0,False,Small,False,10/14/22 8:12,BBB,200
915,704,96156549,Kalmes Implement Company,200 S Main St,,Altura,MN,55910.0,USA,5077966741.0,kalmes@kalmesimplement.com,http://www.kalmesimplement.com,00103-000,Agricultural Services,1/1/19 0:00,,False,A+,100.0,12.0,,False,Small,False,4/28/21 4:48,BBB,200
916,704,1000013621,Enriquez Lawn Care LLC Co,8139 Dupont Ave S,,Bloomington,MN,55420.0,USA,6124831272.0,enriquezlawncaremn@gmail.com,http://www.enriquezlawncaremn.com/,00157-000,Lawn Maintenance,8/8/15 0:00,,False,A+,100.0,1.0,0.0,False,Micro-small,False,8/26/22 8:32,BBB,200
917,704,96581221,AirRestore Inc,14000 Sunfish Lake Blvd NW Ste G,,Anoka,MN,55303.0,USA,6122107008.0,info@airrestoreusa.com,http://my.airrestoreusa.com,80013-000,Air Purifying & Cleaning Systems & Equipment,8/31/12 0:00,,False,A+,100.0,1.0,0.0,False,Micro-small,False,11/20/22 8:59,BBB,200
918,704,1000061315,ReelTech LLC,13887 295th Ave,,Harmony,MN,55939.0,USA,5079512608.0,derekslange@hotmail.com,https://www.facebook.com/ReelTechLLC/,50344-000,Home Theater,2/21/13 0:00,,False,A+,100.0,1.0,,False,Micro-small,False,1/25/23 9:01,BBB,200
919,704,96005148,Bartlett & West Engineers Inc,3456 E Century Ave,,Bismarck,ND,58503.0,USA,7012581110.0,,http://www.bartwest.com,60334-000,Engineers - Professional,2/1/51 0:00,,False,A+,100.0,42.0,,False,Small,False,2/8/23 9:27,BBB,200
920,704,25002354,Ace Auto Inc,1915 W 5th St,,Winona,MN,55987.0,USA,5074579809.0,winonaaceauto@gmail.com,http://www.autorepairwinona.com,60103-000,Auto Repair & Service,9/3/98 0:00,,False,A+,100.0,5.0,0.0,False,Small,False,11/8/22 9:17,BBB,200
921,704,1000036500,Sailor Mercy LLC,14785 Manning Ct. N.,,Stillwater,MN,55082.0,USA,6514709275.0,sailormercycompany@gmail.com,https://www.sailormercy.com/,44052-000,Food Industry,12/26/19 0:00,,False,A+,97.0,1.0,0.0,False,Micro-small,False,10/13/22 8:22,BBB,200
922,704,96560255,Lube Tech,418 Geneva Rd NE,,Alexandria,MN,56308.0,USA,3207620201.0,jamiemor@lubetech.com,https://www.lubetech.com/,60997-101,Auto Lube & Oil - Mobile,7/2/88 0:00,,False,NR,0.0,1.0,0.0,False,Micro-small,False,11/22/22 8:45,Email,200
923,704,96174434,Independent Management Services of Minnesota Inc,101 21st St SE Ste 1,,Austin,MN,55912.0,USA,5074376389.0,ryan@imsofmn.com,http://www.imsofmn.com,85345-000,Developmental Disability Services,1/1/95 0:00,,False,A+,100.0,20.0,,False,Micro-small,False,12/15/21 4:24,BBB,200
924,704,11443,Andover Optical Inc,13855 Round Lake Blvd NW,,Andover,MN,55304.0,USA,7634210141.0,adler@andoveropticalinc.com,http://www.andoveroptical.net,60629-000,Optometrists,1/1/89 0:00,,False,A+,100.0,6.0,,False,Micro-small,False,10/4/22 8:06,BBB,200
925,704,96036007,Multisource Manufacturing,10300 Bren Rd E,,Minnetonka,MN,55343.0,USA,9528826211.0,ghadley@multisourcemfg.com,http://www.multisourcemfg.com/,30132-000,Contract Manufacturing,11/12/98 0:00,,False,A+,100.0,170.0,,False,Micro-small,False,5/6/20 4:32,BBB,200
926,704,96016300,Hearing Components,649 Hale Ave N,,Oakdale,MN,55128.0,USA,6517399427.0,,http://www.hearingcomponents.com,60445-000,Hospitals,1/1/94 0:00,,False,A+,100.0,20.0,,False,Small,False,1/21/22 9:34,BBB,200
927,704,96566801,Dan&#39;s Rain Gutter Cleaning Service,1102 2nd St E,,Dickinson,ND,58601.0,USA,7012603575.0,desayl@ndsupernet.com,https://www.ndsupernet.com/,10073-100,Gutter Cleaning,,,False,A+,100.0,1.0,0.0,False,Micro-small,False,1/13/23 9:01,Email,200
928,704,1000055723,Universal Home Health Care Inc,2345 Rice St Ste 128,,Roseville,MN,55113.0,USA,6513482334.0,,https://www.uhhc-inc.com/,60441-000,Home Health Services,1/25/16 0:00,,False,A+,100.0,1.0,,False,Micro-small,False,5/13/22 8:21,BBB,200
929,704,1000041535,Entheos Commercial Realty LLC,11540 Bass Lake Rd Ste 6,,Plymouth,MN,55442.0,USA,6127196075.0,info@entheoscommercial.com,https://www.entheoscommercial.com/,60729-100,Real Estate - Commercial,9/20/13 0:00,,False,A+,100.0,1.0,0.0,False,Micro-small,False,11/29/22 9:07,BBB,200
930,704,1000004692,Cinergy Homes & Remodeling LLC,14165 James Rd Suite 107 B,,Rogers,MN,55374.0,USA,7634000777.0,sales@cinergyhomes.com,http://cinergyhomes.com/,10078-000,Home Builders,1/19/16 0:00,,False,A+,100.0,1.0,0.0,False,Micro-small,False,12/24/22 8:49,BBB,200
931,704,96035118,Aircon Electric Corporation,2343 135th Ln NW,,Andover,MN,55304.0,USA,7637572120.0,info@airconelectric.com,http://airconelectric.com,10049-000,Electricians,1/1/76 0:00,,False,A+,100.0,13.0,,False,Micro-small,False,9/24/22 9:02,BBB,200
932,704,96007100,"Lakewoods Remodeling, Inc.",9001 E Bloomington Fwy Ste 144,,Minneapolis,MN,55420.0,USA,9528885550.0,admin@lwrinc.net,http://www.lakewoodsremodeling.com,10126-000,Roofing Contractors,1/1/95 0:00,,True,A+,100.0,5.0,,False,Micro-small,False,7/13/22 9:33,BBB,200
933,704,1000012896,Hempel Income Tax Service Inc,360 Holt Ave NW,,Elk River,MN,55330.0,USA,7634413818.0,info@hempelincometax.com,http://www.hempelincometax.com/,60005-101,Accounting Services,11/27/01 0:00,,False,A+,100.0,1.0,0.0,False,Micro-small,False,10/19/21 4:00,BBB,200
934,704,96214911,Midwest Custom Concepts,27 9th St Se,,Rochester,MN,55904.0,USA,5074244600.0,,http://www.midwestcustomconcepts.com,50043-000,Auto Parts & Supplies - New,1/1/06 0:00,,False,NR,0.0,3.0,,False,Micro-small,False,5/23/22 8:18,BBB,200
935,704,96018117,"Minnesota Roots, LLC",1201 Ottawa Ave,,West Saint Paul,MN,55118.0,USA,6513109551.0,mnroots@gmail.com,http://mnroots.com,00155-000,Landscape Contractors,1/1/00 0:00,,False,A+,100.0,3.0,,False,Micro-small,False,8/5/20 4:37,BBB,200
936,704,1000044628,IKS Marketing LLC,2701 Brookview Dr,,Burnsville,MN,55337.0,USA,9529944429.0,anthony@iknowsomeonemarketing.com,https://iknowsomeonemarketing.com/,60538-000,Marketing Consultants,10/16/17 0:00,,False,A+,100.0,1.0,,False,Micro-small,False,10/27/21 4:17,BBB,200
937,704,96348315,Lisa Slotsve Photography,514 North 3rd St,,Minneapolis,MN,55401.0,USA,6513346005.0,,http://www.lisaslotsvephotography.com/,60655-100,Photographers,,,False,A+,100.0,1.0,0.0,False,Micro-small,False,9/5/21 4:01,BBB,200
938,704,7000202,Fettes Transportation Systems,1830 4th Ave NW Unit B,,West Fargo,ND,58078.0,USA,7012773631.0,info@fettes-transport.com,http://fettesmovers.com,70571-000,Movers,10/28/99 0:00,,True,A+,100.0,20.0,0.0,False,Small,False,11/16/22 9:42,BBB,200
939,704,96175922,Keller Hearth&#39;n&#39;home,3709 Memorial Hwy,,Mandan,ND,58554.0,USA,7016637902.0,mike@kellerhhp.com,http://www.kellerhhp.com/,50258-000,Fireplace Equipment - Retail,1/1/77 0:00,,False,A+,100.0,13.0,,False,Small,False,8/4/22 8:30,BBB,200
940,704,1000035476,Dollar Tree Stores Inc,2750 W Division St,,Saint Cloud,MN,56301.0,USA,3206540843.0,customerservice@dollartree.com,http://www.dollartree.com,50203-000,Discount Stores,1/1/05 0:00,,False,NR,0.0,15.0,0.0,False,Small,False,6/1/22 21:28,BBB,200
941,704,1000006646,"Barnes County Abstract, LLC",231 3rd St NE,,Valley City,ND,58072.0,USA,7018450551.0,brandon@fmtitlecompany.com,https://www.fmtitle.com/,20072-000,Title Companies & Agents,8/31/15 0:00,,False,A+,100.0,1.0,0.0,False,Micro-small,False,1/12/23 8:54,BBB,200
942,704,96578184,"The Claims Center, LLC",3300 Fernbrook Ln N Ste 180,,Minneapolis,MN,55447.0,USA,8662330353.0,mary@theclaimscenter.com,http://www.theclaimscenter.com,60142-000,Billing Service,7/20/07 0:00,,False,A+,100.0,15.0,,False,Micro-small,False,12/19/22 8:51,BBB,200
943,704,96089434,Kruse Motors Auto Group,1651 E College Dr,,Marshall,MN,56258.0,USA,5073377500.0,keithm@krusemotors.com,http://www.krusemotors.com,50039-000,Auto Dealers - New Cars,5/6/05 0:00,,False,A+,100.0,32.0,,False,Small,False,2/8/23 9:28,BBB,200
944,704,1000014663,"Ardmor Construction, LLC",6980 Oxford St Ste 250,,Saint Louis Park,MN,55426.0,USA,6124057663.0,info@ardmorconstruction.com,http://www.ardmorconstruction.com,10126-000,Roofing Contractors,7/8/17 0:00,,True,A+,100.0,3.0,0.0,False,Micro-small,False,12/6/22 9:13,BBB,200
945,704,1000052243,Westside Outdoor Maintenance Inc,4008 Williston Rd,,Minnetonka,MN,55345.0,USA,9529385887.0,dhohertz@comcast.net,http://www.westsideoutdoormaintenance.com/,00155-000,Landscape Contractors,6/7/04 0:00,,False,A+,100.0,1.0,0.0,False,Micro-small,False,1/21/23 8:56,BBB,200
946,704,96133321,Kietzer&#39;s Karaoke Supplies,527 S Front St,,Mankato,MN,56001.0,USA,5073440255.0,kietzer@hickorytech.net,http://www.normankietzer.com,50369-000,Karaoke Machines & Tapes,1/1/59 0:00,10/16/19 0:00,False,NR,0.0,2.0,,False,Micro-small,False,10/17/22 7:54,BBB,200
947,704,1000018479,Gertens Farm Market,2900 65th St E,,Inver Grove,MN,55076.0,USA,6514500001.0,gertensfarmmarket@gmail.com,http://gertensfarmmarket.com/,50460-000,"Nurseries - Plants, Trees",3/14/83 0:00,,False,A+,100.0,1.0,0.0,False,Micro-small,False,9/25/21 4:01,BBB,200
948,704,1000044618,Origin Meals LLC,337 Second St NE,,Hopkins,MN,55343.0,USA,6122605224.0,info@originmeals.com,https://www.originmeals.com/,85333-000,Meal Preparation Service,3/25/13 0:00,,False,A+,100.0,8.0,0.0,False,Micro-small,False,1/28/21 4:10,BBB,200
949,704,96137086,Balego & Associates Inc,1405 Silver Lake Rd NW STE 9,,New Brighton,MN,55112.0,USA,6516337102.0,service@balegoonline.org,http://www.balegoonline.org,80385-100,Medical Equipment & Supplies,5/1/84 0:00,,False,A+,100.0,5.0,,False,Micro-small,False,12/27/22 8:49,BBB,200
950,704,96555747,"The Law Offices of Jeffrey A. Ellis, PLLC",13880 Autumn Ct,,Rosemount,MN,55068.0,USA,6513226647.0,jeff@jeffellislaw.com,http://rosemountcorporateattorney.com,60075-121,Attorneys & Lawyers - Estate Planning,1/21/11 0:00,,False,A+,100.0,1.0,0.0,False,Micro-small,False,10/1/21 4:12,BBB,200
951,704,1000010704,Barton Construction Service,125 Martha St N,,Stillwater,MN,55082.0,USA,6513349530.0,,http://www.bartoncs.com,10035-000,Contractors - General,1/1/06 0:00,,False,A+,100.0,4.0,0.0,False,Micro-small,False,1/12/23 8:54,BBB,200
952,704,96160542,Marco Business Products,210 State St W,,Detroit Lakes,MN,56501.0,USA,2188471395.0,marco@marconet.com,http://www.marconet.com,80203-000,Copiers & Copier Supplies,1/6/30 0:00,,False,A+,100.0,15.0,,False,Small,False,1/31/23 8:45,BBB,200
953,704,96341056,Xanadu Island Bed & Breakfast and Resort,35484 235th St,,Battle Lake,MN,56515.0,USA,2188648096.0,bubs@wyoming.com,http://www.xanadu.cc,60752-000,Resorts,7/20/07 0:00,,False,A+,100.0,1.0,,False,Micro-small,False,9/26/20 4:04,BBB,200
954,704,1000035940,Wells Fargo Bank Minnesota,208 Main Ave N,,Thief River Falls,MN,56701.0,USA,2186811130.0,carolyn.h.roby@wellsfargo.com,http://www.wellsfargo.com,20003-000,Banks,1/1/29 0:00,,False,NR,0.0,16600.0,0.0,False,Giant,False,6/1/22 21:29,BBB,200
955,704,10000859,"Gerold Brothers Construction, Inc",1409 Main St E,,New Prague,MN,56071.0,USA,9527582842.0,,http://www.geroldbrothershomes.com,10078-000,Home Builders,1/1/75 0:00,,False,NR,0.0,7.0,0.0,False,Micro-small,False,11/12/22 9:06,BBB,200
956,704,96098111,Anchor Promotions,1303 Levee Rd,,Red Wing,MN,55066.0,USA,6513857777.0,anchorpromotions@redwing.net,http://anchorpromotions.com,30785-000,Wholesalers & Distributors,8/1/04 0:00,,False,A+,100.0,1.0,,False,Micro-small,False,9/30/22 8:54,BBB,200
957,704,1000056991,Green Therapy Center - Nuleev,"816 24th Ave E Suite 112, West Fargo",,West Fargo,ND,58078.0,USA,7015320617.0,,http://www.greentherapycenter.com/,81000-850,CBD Products,,,False,NR,0.0,1.0,0.0,False,Micro-small,False,7/28/22 8:42,BBB,200
958,704,96074923,Bay Dental Care,363 5th Ave N,,Bayport,MN,55003.0,USA,6514394115.0,bradleynels@aol.com,http://www.baydentalcaremn.com,60289-000,Dentists,1/1/96 0:00,,False,A+,100.0,4.0,,False,Micro-small,False,5/12/22 8:37,BBB,200
959,704,96020005,"Premier Commercial Properties, LLC",299 Coon Rapids Blvd NW Ste 200,,Coon Rapids,MN,55433.0,USA,7638622005.0,dina@premiercommercialproperties.com,http://www.premiercommercialproperties.com,60729-000,Real Estate,4/1/01 0:00,,True,A+,100.0,1.0,0.0,False,Micro-small,False,11/2/22 8:35,BBB,200
960,704,1000033487,Little Mac Design Incorporated,22456 Penn Ave,,Lakeville,MN,55044.0,USA,6122817199.0,nicolestrinity@gmail.com,https://littlemacdesign.com/,60657-000,Photographers - Commercial,11/24/15 0:00,,False,NR,0.0,1.0,0.0,False,Micro-small,False,2/4/23 9:01,BBB,200
961,704,96029318,Northern States Conservation Center,333 Washington Avenue North,Suite 306,Minneapolis,MN,55401.0,USA,6516599420.0,helen@collectioncare.org,http://www.collectioncare.org,85364-100,Online Education,5/1/98 0:00,,False,A+,100.0,1.0,,False,Small,False,9/1/22 8:30,BBB,200
962,704,21140,"Jim & Dude's Plumbing & Heating, Inc.",724 W Clark St,,Albert Lea,MN,56007.0,USA,5073736161.0,kristin@jimanddudes.com,http://www.jimanddudes.com,10113-000,Plumbers,11/1/72 0:00,,False,A+,100.0,30.0,0.0,False,Small,False,4/13/22 8:07,BBB,200
963,704,96028539,Mohagen Hansen Architectural Group,1000 12 Oaks Ctr Dr # 200,,Wayzata,MN,55391.0,USA,9524267400.0,info@mohagenhansen.com,http://www.mohagenhansen.com,60057-000,Architects,12/1/89 0:00,,False,A+,100.0,25.0,,False,Micro-small,False,11/30/22 9:26,BBB,200
964,704,96128351,Igbanugo Partners International Law,250 Marquette Ave Ste 1075,,Minneapolis,MN,55401.0,USA,6127460360.0,higbanvgo@igbanvgolaw.com,http://www.igbanugolaw.com,60075-122,Attorneys & Lawyers  - Immigration & Naturalization,1/1/88 0:00,,False,A+,100.0,60.0,,False,Micro-small,False,9/21/21 4:00,BBB,200
965,704,1000012220,Ducts Unlimited,911 Wendover St NE,,Isanti,MN,55040.0,USA,6123009535.0,joe@joesductsunlimited.com,http://www.joesductsunlimited.com,60312-000,Duct Cleaning,,,False,A+,100.0,1.0,0.0,False,Micro-small,False,9/14/22 8:40,BBB,200
966,704,96360609,"GoCodes, Inc.",7900 International Dr,,Bloomington,MN,55425.0,USA,8005135778.0,sales@gocodes.com,https://gocodes.com/,60123-000,Bar Coding Service,6/30/11 0:00,,False,A+,100.0,5.0,,False,Small,False,5/27/20 4:37,BBB,200
967,704,21001169,Tesa Jewellers,3525 Vicksburg Ln N Ste 400,,Plymouth,MN,55447.0,USA,7635373144.0,sarah@tesajewellers.com,http://www.tesajewellers.com,50367-000,Jewelers - Retail,4/9/59 0:00,6/3/16 0:00,False,NR,0.0,3.0,,False,Small,False,6/10/19 4:04,BBB,200
968,704,1000008913,Riverside Point Resort Motel,700 Park Ave N,,Park Rapids,MN,56470.0,USA,2187329711.0,riversidepoint@arvig.net,http://www.riversidepointresort.com/,60573-000,Motels,5/2/05 0:00,,False,A+,100.0,1.0,0.0,False,Micro-small,False,12/31/22 8:59,BBB,200
969,704,96177700,Kangaroo Korner,6168 Oakwood Dr,,Circle Pines,MN,55014.0,USA,6514832900.0,info@kangarookorner.com,http://www.kangarookorner.com,50149-000,Childrens & Infants Wear - Retail,,4/28/16 0:00,False,NR,0.0,,,False,Micro-small,False,4/29/19 4:00,BBB,200
970,704,96127009,Chinese Gourmet Restaurant,12901 Aldrich Ave S,,Burnsville,MN,55337.0,USA,9528941717.0,,http://www.chinesegourmetburnsville.com,50544-000,Restaurants,1/1/84 0:00,,False,A+,100.0,2.0,,False,Micro-small,False,1/2/21 3:47,BBB,200
971,704,43000802,"Phoenix Medical Services, Inc.",1901 Oakcrest Ave Ste 9,,Roseville,MN,55113.0,USA,6516360848.0,CustomerService@PhoenixMedicalServices.com,https://www.facebook.com/PHOENIX-MEDICAL-SERVICES-INC-274342300191/,55336-000,Health & Medical Products,4/1/87 0:00,,False,A+,100.0,10.0,,False,Small,False,10/30/22 8:34,BBB,200
972,704,96157397,Arch Dental,321 4th St N,,Fargo,ND,58102.0,USA,7012356075.0,info@archdentalfargo.com,https://www.archdentalfargo.com/,60289-000,Dentists,6/1/08 0:00,,False,A+,100.0,4.0,,False,Small,False,7/14/21 4:27,BBB,200
973,704,1000013689,Crow River Insurance Services,5603 Highway 12 SE Ste 2,,Delano,MN,55328.0,USA,7639723323.0,ben@crowriverinsurance.com,http://www.crowriverinsurance.com/,20019-100,Insurance Agency,2/7/03 0:00,,False,A+,100.0,1.0,,False,Micro-small,False,1/18/23 9:32,BBB,200
974,704,96107190,SL Express Inc,916 Highway 7,,Silver Lake,MN,55381.0,USA,3203272415.0,slexpressstore@yahoo.com,http://www.slexpress.net,50567-000,Service Stations - Gasoline & Oil,11/16/06 0:00,6/3/16 0:00,False,NR,0.0,12.0,,False,Small,False,6/10/19 4:04,BBB,200
975,704,1000044776,"Due North Financial, Llc",408 Jones Street,,Eveleth,MN,55734.0,USA,2187442929.0,paul@duenorthfinancial.com,http://www.youmustplan.com,20012-000,Financial Planning Consultants,8/11/16 0:00,,False,A+,100.0,1.0,,False,Micro-small,False,10/5/22 8:46,BBB,200
976,704,96578189,Advisors Realty Inc,200 E Travelers Trail #245,,Burnsville,MN,55337.0,USA,6128058519.0,,https://www.facebook.com/AdvisorsRealtyInc/,60729-000,Real Estate,10/20/09 0:00,,False,NR,0.0,1.0,0.0,False,Micro-small,False,11/14/21 3:55,BBB,200
977,704,96110700,Empire Clock,13075 Wild Turkey Rd,,Welch,MN,55089.0,USA,8003338463.0,,http://www.empireclock.com,50157-000,Clocks - Service & Repair,1/1/48 0:00,4/25/16 0:00,False,NR,0.0,,,False,Micro-small,False,4/29/19 4:00,BBB,200
978,704,96112600,Eden Prairie Community Center,16700 Valley View Rd,,Eden Prairie,MN,55346.0,USA,9529498470.0,wsevenich@edenprairie.org,http://www.edenprairie.org,60737-000,Recreation Centers,1/1/83 0:00,,False,NR,0.0,250.0,,False,Small,False,3/29/17 4:05,BBB,200
979,704,96221241,U-Store Co.,1001 County Road 9 NE,,Willmar,MN,56201.0,USA,3202352118.0,adam.hedlof@gmail.com,http://www.u-storeco.com,70644-000,Warehouses - Merchandise,6/2/14 0:00,,False,NR,0.0,2.0,0.0,False,Micro-small,False,12/20/22 8:57,BBB,200
980,704,96175725,Hagedorn Enterprises Inc,401 S 8th St,,Lake City,MN,55041.0,USA,6513454224.0,hagedorns@hbci.com,https://www.hbci.com/,70645-000,"Waste Reduction, Recycle Service - Industrial",1/1/69 0:00,,False,A+,100.0,18.0,0.0,False,Small,False,11/23/22 9:42,Email,200
981,704,96155585,"Frederick Schramm, LLC",13601 80th Cir N Ste 300,,Maple Grove,MN,55369.0,USA,6128457653.0,fredschramm@counselor.realty.com,http://www.counselorrealty.com,60729-102,Real Estate Agents,4/1/02 0:00,,False,A+,100.0,1.0,0.0,False,Micro-small,False,7/31/21 4:28,BBB,200
982,704,96345862,TC Auto Spot,6540 Oliver Ave S,,Richfield,MN,55423.0,USA,6122074588.0,eric@tcautospot.com,http://www.tcautospot.com,60103-000,Auto Repair & Service,5/1/13 0:00,,False,A+,100.0,1.0,,False,Micro-small,False,8/30/22 8:18,BBB,200
983,704,1000008363,Noble Woman Boutique,252 W Main St,,Marshall,MN,56258.0,USA,5073371980.0,noblewoman@live.com,https://www.pinterest.com/noblewomanmn,50089-000,Boutiques,1/6/11 0:00,,False,A+,100.0,1.0,0.0,False,Micro-small,False,1/28/20 4:21,BBB,200
984,704,96200716,Parsons Corporation,3433 Broadway St NE,,Minneapolis,MN,55413.0,USA,6126567000.0,vincent.gastoni@parsons.com,https://www.parsons.com/,60533-000,Management Consultants,1/1/05 0:00,,False,A+,100.0,20.0,,False,Small,False,5/20/22 8:11,Email,200
985,704,96013062,Jones Haugh & Smith Inc,515 S Washington Ave,,Albert Lea,MN,56007.0,USA,5073734876.0,stevep@jhseng.com,https://www.jhseng.com/,60845-000,Surveyors - Land,1/1/63 0:00,,False,A+,100.0,14.0,,False,Small,False,2/8/23 9:28,Email,200
986,704,1000026892,"Undercut Tree Care & Removal, LLC",211 4th St,,Holdingford,MN,56340.0,USA,3208281856.0,undercuttreeservicemn@gmail.com,https://www.facebook.com/UnderCutTreeMN/,00219-000,Tree Service,11/16/17 0:00,,False,A+,100.0,1.0,0.0,False,Micro-small,False,8/16/22 8:21,BBB,200
987,704,96361577,KinderKidzStuff.com,PO Box 91,,Farmington,MN,55024.0,USA,9522393426.0,service@kinderkidzstuff.com,http://KinderKidzStuff.com,85331-100,Children`s Play Programs Instruction,2/2/95 0:00,,False,A+,100.0,35.0,0.0,False,Small,False,9/21/22 10:06,BBB,200
988,704,96099103,Town & Country Tire,100 Washington Ave E,,Hutchinson,MN,55350.0,USA,3205875250.0,tctire@hutchtel.net,http://townandcountrytire.net,50659-000,Tire Dealers,1/1/84 0:00,,False,A+,100.0,5.0,0.0,False,Micro-small,False,9/1/21 4:20,BBB,200
989,704,1000013272,MN Nice Cream,100 East Lake Street,,Minneaplois,MN,55408.0,USA,6127416418.0,katie.nicecream@gmail.com,http://www.MNNICECREAM.COM,50544-200,Food Trucks,,,False,A+,97.0,,0.0,False,Micro-small,False,4/28/20 3:58,BBB,200
990,704,96349672,Nordic Firewood LLC,2628 Becks Rd,,Duluth,MN,55810.0,USA,2183499944.0,rchil1965@aol.com,http://www.nordicfirewood.com,50261-000,Firewood,12/1/08 0:00,,False,A+,100.0,2.0,,False,Micro-small,False,6/2/21 4:43,BBB,200
991,704,96010510,Roni's Beauty Supply & Hairbraiding,1571 University Ave W,,Saint Paul,MN,55104.0,USA,6512220006.0,ronibeautysupply@gmail.com,http://ronisbeauty.com/,80075-000,Beauty Supplies & Equipment,10/14/03 0:00,,False,A+,100.0,6.0,,False,Micro-small,False,3/30/21 3:56,BBB,200
992,704,1000009152,Real Estate Retrievers,115 2nd St NE Ste 106,,Pipestone,MN,56164.0,USA,5075620450.0,teresa@realestateretrievers.com,http://www.realestateretrievers.com/,60729-000,Real Estate,12/17/14 0:00,,False,NR,0.0,5.0,0.0,False,Micro-small,False,2/4/23 9:01,BBB,200
993,704,96224536,Touching Lives Chiropractic PC,303 22nd Ave W Ste 100,,Alexandria,MN,56308.0,USA,3208469600.0,touchingliveschiro@gmail.com,http://www.touchingliveschiro.com/,60205-000,Chiropractors D.C.,5/2/06 0:00,,False,NR,0.0,3.0,0.0,False,Micro-small,False,7/8/22 12:25,BBB,200
994,704,96569823,Sport Clips Eagan,1270 Promenade Pl,,Eagan,MN,55121.0,USA,6514521232.0,,http://haircutmeneaganmn.com,60420-000,Hair Styling and Services,6/2/15 0:00,,False,NR,0.0,1.0,0.0,False,Micro-small,False,12/15/21 4:25,BBB,200
995,704,7000127,"Modem Express, Inc.",115 Thomas Park Dr,,Monticello,MN,55362.0,USA,7632958205.0,sales@modemexpress.com,http://www.modemexpress.com,80229-000,Data Communications Equipment & Systems,1/1/87 0:00,,True,A+,100.0,4.0,,False,Small,False,8/3/22 8:41,BBB,200
996,704,96002921,Mentor Network,,,,,,,,,http://www.thementornetwork.com,60971-000,Health & Medical - General,1/1/67 0:00,,False,NR,0.0,6000.0,,False,Giant,False,8/5/22 8:37,BBB,200
997,704,96100249,Stockmen&#39;s Greenhouse,60973 US Highway 12,,Litchfield,MN,55355.0,USA,3206937787.0,service@stockmensgreenhouse.com,http://www.stockmensgreenhouse.com,50299-000,Garden Centers,9/10/90 0:00,,False,A+,100.0,16.0,,False,Small,False,8/16/22 8:20,BBB,200
998,704,96098804,First District Association,101 S Swift Ave,,Litchfield,MN,55355.0,USA,3206933236.0,info@firstdistrict.com,http://www.firstdistrict.com,80228-000,Dairy Products - Wholesale,5/1/21 0:00,,False,A+,100.0,160.0,,False,Micro-small,False,6/25/20 3:56,BBB,200
999,704,96098985,Haugo Veterinary Clinic,1101 S Sibley Ave,,Litchfield,MN,55355.0,USA,3206936961.0,jkhaugo@q.com,https://animalsincvet.com/,00222-000,Veterinarians,1/1/46 0:00,,False,A+,100.0,5.0,,False,Small,False,10/7/20 5:02,BBB,200
1000,704,1000007627,Engel & Volkers Minneapolis,1601 Hennepin Ave,,Minneapolis,MN,55403.0,USA,6122201590.0,mary.beattie@evusa.com,https://minneapolis.evrealestate.com/,60729-102,Real Estate Agents,7/22/15 0:00,,False,NR,0.0,1.0,0.0,False,Micro-small,False,1/17/23 8:46,BBB,200
1001,704,2001538,The Wedding Connection,3035 White Bear Ave N Ste 2,,Saint Paul,MN,55109.0,USA,6519824722.0,,http://www.weddingconnectionmn.com,50730-000,Wedding Supplies & Services,1/1/94 0:00,,False,A+,100.0,5.0,0.0,False,Micro-small,False,3/4/22 9:47,BBB,200
1002,704,96094507,Smart Care Solutions,370 Wabasha St N Ste 1700,,Saint Paul,MN,55102.0,USA,8008222303.0,servicerequest@smartcaresolutions.com,http://www.gcsparts.com,50017-000,Appliances - Major - Parts & Supplies,6/19/08 0:00,,False,B+,88.0,5.0,,False,Micro-small,False,1/29/23 8:36,BBB,200
1003,704,1000035635,"Bridgestone Retail Operations, LLC",12700 Wayzata Blvd,,Minnetonka,MN,55305.0,USA,2187272963.0,mwirkkala@bfrc.com,https://www.bridgestoneamericas.com/en/index.html,50659-000,Tire Dealers,1/1/00 0:00,,False,NR,0.0,250.0,0.0,False,Medium,False,6/1/22 21:28,BBB,200
1004,704,1000056521,Clearscape,8109 WEST BUSH LAKE ROAD,,Minneapolis,MN,55438.0,USA,6125160946.0,,https://clearscape.net/,00155-000,Landscape Contractors,,,False,NR,0.0,1.0,,False,Micro-small,False,11/29/22 9:07,BBB,200
1005,704,96568700,Solidcore,1653 Park Place Blvd,,Minneapolis,MN,55416.0,USA,9529996879.0,,http://www.solidcoremsp.co/,60429-000,Health & Fitness Program Consultants,4/30/14 0:00,,False,NR,0.0,1.0,0.0,False,Micro-small,False,3/8/22 9:29,BBB,200
1006,704,10001816,North Country Internet Service,700 Central Ave E,,Mora,MN,55051.0,USA,3206796881.0,,http://www.ncis.com,60473-000,Internet Services,1/1/96 0:00,,False,NR,0.0,1.0,,False,Micro-small,False,1/3/23 8:39,BBB,200
1007,704,96014067,"Liberty Group, Inc.",7104 Ohms Ln Ste 206,,Minneapolis,MN,55439.0,USA,6129642544.0,ringham@1staudit.com,http://www.libertygroupinc.com,60729-000,Real Estate,9/1/04 0:00,4/28/16 0:00,False,NR,0.0,1.0,,False,Micro-small,False,4/29/19 4:01,BBB,200
1008,704,96170589,Pillager Dental,727 Buckskin Ave W,,Pillager,MN,56473.0,USA,2187464555.0,,http://www.pillagerdental.com,60289-000,Dentists,1/1/06 0:00,,False,A+,100.0,10.0,0.0,False,Micro-small,False,3/25/22 8:40,BBB,200
1009,704,96060317,Heller & Thyen Law Firm,606 25th Ave S Ste 110,,Saint Cloud,MN,56301.0,USA,3206548000.0,steve@hellerthyen.com,http://www.hellerthyen.com,60075-000,Attorneys & Lawyers,1/1/00 0:00,,False,A+,100.0,8.0,,False,Micro-small,False,11/25/21 4:05,BBB,200
1010,704,96191487,2 Heads Communications,3240 Owasso Heights Rd,,Saint Paul,MN,55126.0,USA,6514862922.0,,http://2Hc.com,60231-000,Communication Consultants,1/1/97 0:00,,False,A+,100.0,2.0,,False,Micro-small,False,10/29/21 3:56,BBB,200
1011,704,96113137,Holiday Systems International of Nevada,7690 W Cheyenne Ave,Ste 200,Las Vegas,NV,89129.0,USA,7022543100.0,,http://www.holidaysystems.com,60448-000,Hotels - Reservations,1/1/06 0:00,,False,NR,0.0,150.0,,False,Medium,False,9/20/16 4:29,BBB,200
1012,704,1000003582,Severson Sinclair,1650 West Service Drive,,Winona,MN,55987.0,USA,5074527622.0,,http://www.seversonoil.com/sinclairlocationhtm,50199-000,Convenience Stores,,,False,NR,0.0,1.0,0.0,False,Micro-small,False,1/28/23 8:47,BBB,200
1013,704,3000505,Great River Federal Credit Union,1532 W Saint Germain St,,Saint Cloud,MN,56301.0,USA,3202525393.0,dhofmann@greatriverfcu.org,https://www.greatriverfcu.org/,20009-000,Credit Unions,1/1/64 0:00,,False,A+,100.0,51.0,,False,Small,False,7/8/22 12:19,BBB,200
1014,704,96024037,Bohlmann Exteriors,18567 331st Ave,,Green Isle,MN,55338.0,USA,6127207280.0,david@bohlmannexteriors.com,http://www.bohlmannexteriors.com,10126-000,Roofing Contractors,5/28/99 0:00,,False,A+,100.0,1.0,,False,Micro-small,False,12/29/22 9:05,BBB,200
1015,704,1000046379,Connected Life Counseling LLC,6542 Regency Ln,,Eden Prairie,MN,55344.0,USA,6124124507.0,,https://connectedlifecounseling.com/,85260-000,Coaching - Life,11/22/15 0:00,,False,A+,100.0,1.0,0.0,False,Micro-small,False,6/11/22 8:14,BBB,200
1016,704,96096878,"Scott Walters Construction, Inc.",14728 Burnell Park Dr,,Burnsville,MN,55306.0,USA,9528921533.0,scott@scottwaltersconstruction.com,http://www.scottwaltersconstruction.com,10035-000,Contractors - General,1/1/98 0:00,,False,A+,100.0,3.0,,False,Micro-small,False,10/2/22 8:16,BBB,200
1017,704,96171529,Outlet Recreation.com,2249 Main Ave E,,West Fargo,ND,58078.0,USA,7014786699.0,m.larson@outletrecreation.com,http://www.outletrecreation.com,50535-000,Recreational Vehicles - Dealers,11/1/07 0:00,,False,NR,0.0,80.0,0.0,False,Small,False,1/31/23 8:45,BBB,200
1018,704,6002082,"RV World, LLC",7405 Highway 10 NW,,Ramsey,MN,55303.0,USA,7637121393.0,sales@rvworldmn.com,http://www.rvworldmn.com,50535-000,Recreational Vehicles - Dealers,2/11/04 0:00,,True,A+,100.0,20.0,0.0,False,Small,False,1/19/23 8:50,BBB,200
1019,704,96027624,"Axdahl's Farm, Inc.",17120 116th St N,,Stillwater,MN,55082.0,USA,6514393134.0,info@axdahlfarms.com,http://www.axdahlfarms.com,10072-000,Greenhouses,1/1/82 0:00,,False,A+,100.0,2.0,,False,Small,False,1/15/21 4:07,BBB,200
1020,704,96538635,Brian Seedorf-Allstate Agent,4580 Scott Trl Ste 220,,Eagan,MN,55122.0,USA,6514529099.0,brianseedorf@allstate.com,https://www.facebook.com/SeedorfAllstateInsurance/,20080-000,Insurance Services,4/30/14 0:00,,False,A+,100.0,,0.0,False,Micro-small,False,3/21/20 4:18,BBB,200
1021,704,96135728,Bermels Shoes,413 Pacific Ave,,Randall,MN,56475.0,USA,3207492355.0,koenig22@brainerd.net,https://www.bermelsshoes.com,50087-000,Boots,1/1/17 0:00,,False,A+,100.0,10.0,,False,Small,False,8/27/21 4:03,BBB,200
1022,704,96386215,Vogue Wigs,1525 E McFadden Ave,,Santa Ana,CA,92705.0,USA,3207592091.0,rma@voguewigs.com,https://www.voguewigs.com/,80364-150,Wigs & Hairpieces,,,False,NR,0.0,,,False,Micro-small,False,10/11/20 3:57,Email,200
1023,704,1000012059,24-7security.com,30174 Washington St NE,,Isanti,MN,55040.0,USA,6517558338.0,247systemsmn@gmail.com,http://www.24-7security.com/,60790-000,Security Systems Consultants,5/12/16 0:00,,False,A+,100.0,2.0,,False,Micro-small,False,9/27/22 8:59,BBB,200
1024,704,96135879,Bigfork Valley Clinic,PO Box 258,,Bigfork,MN,56628.0,USA,2177433177.0,wecare@bigforkvalley.org,http://www.bigforkvalley.org,60218-000,Clinics,1/1/75 0:00,,False,A+,100.0,220.0,0.0,False,Medium,False,8/5/21 4:11,BBB,200
1025,704,96363807,"Valley Temporary Staffing, Inc.",211 1st Ave NW,,Faribault,MN,55021.0,USA,5073329041.0,tlcook@valleystaffinginc.com,http://www.valleystaffinginc.com,60326-000,Employment Agencies,4/15/85 0:00,,True,A+,100.0,15.0,,False,Small,False,3/5/22 9:32,BBB,200
1026,704,96050737,"B & B Hoffman Sod Farms, Inc",22390 Grant St NW,,Elk River,MN,55330.0,USA,7634346572.0,sales@bbhoffmansod.com,http://www.bbhoffmansod.com,00210-000,Sod & Sodding Service,1/1/90 0:00,,False,A+,100.0,10.0,,False,Micro-small,False,4/20/22 8:34,BBB,200
1027,704,1000049778,Cook County Higher Education,300 W 3rd Street,,Grand Marais,MN,55604.0,USA,2183873411.0,GetHelp@myCCHE.org,https://mycche.org/,44034-000,Education,8/17/98 0:00,,False,NR,0.0,1.0,,False,Micro-small,False,11/9/22 9:17,BBB,200
1028,704,1000020817,Planet  Fitness ,7382 153rd St W,,Apple Valley,MN,55124.0,USA,9525957474.0,amanning@pfbaseline.com,http://Planetfitness.com,60430-100,Fitness Centers,10/16/18 0:00,,False,A,94.83,1.0,0.0,False,Micro-small,False,12/3/21 4:08,BBB,200
1029,704,96150413,"Turtle Lake AG Repair, Inc.",526 Roosevelt St,,Turtle Lake,ND,58575.0,USA,7013376707.0,nascar@westriv.com,https://www.westriv.com/,80284-000,Farm Equipment - Repair & Parts,6/1/01 0:00,,False,A+,100.0,2.0,0.0,False,Micro-small,False,3/16/22 8:51,Email,200
1030,704,96158845,Glenn&#39;s Motorcoach Tours,5803 15th St NW,,Rochester,MN,55901.0,USA,5072881329.0,glenn@glennsmotorcoachtours.com,http://www.glennsmotorcoachtours.com,70603-000,Sightseeing Tours,3/10/91 0:00,,False,A+,100.0,12.0,,False,Small,False,12/23/22 9:05,BBB,200
1031,704,96257023,Central Rental Co,1199 Osborne Rd Ne,,Spring Lake Park,MN,55432.0,USA,7637860981.0,info@centralrentals.net,http://centralrentals.net,60747-000,Rental Service Stores & Yards,11/16/72 0:00,,False,A+,100.0,1.0,,False,Micro-small,False,9/30/22 8:54,BBB,200
1032,704,96035084,"Certified Mold Inspection & Remediation Services, Inc.",2577 Cedar Hills Dr,,Minnetonka,MN,55305.0,USA,6125975970.0,certmold@msn.com,http://www.certifiedmoldservices.com,65027-000,Mold & Mildew Inspection/Removal/Remediation,5/1/03 0:00,,False,A+,100.0,1.0,,False,Small,False,4/28/22 8:17,BBB,200
1033,704,22001820,Holiday Inn Hotel & Suites,227 W 1st St STE 950,,Duluth,MN,55802.0,USA,2187221202.0,gerry.goldfarb@hiduluth.com,http://www.hiduluth.com,60447-000,Hotels,1/1/81 0:00,,False,A+,100.0,160.0,0.0,False,Micro-small,False,3/20/19 5:26,BBB,200
1034,704,1000027024,Twisted Sisters Beauty Bar LLC,14358 Burnhaven Dr Studio 9,,Burnsville,MN,55306.0,USA,6515710205.0,twistedsisternikki@gmail.com,https://nikkiread.glossgenius.com/,60134-400,Eyelash Extension,5/5/17 0:00,,False,A+,100.0,1.0,0.0,False,Micro-small,False,8/5/22 8:38,BBB,200
1035,704,1000002279,West Central Telephone Association,308 Frontage Rd,,Sebeka,MN,56477.0,USA,2188375151.0,geris@wcta.net,http://www.wcta.net/site/index.php,10155-100,"Cable TV, Internet & Telephone Installation Service",10/9/50 0:00,,False,A+,100.0,1.0,0.0,False,Micro-small,False,5/21/22 8:15,BBB,200
1036,704,96175969,"KMichael Homes, LLC",18813 Euclid Path,,Farmington,MN,55024.0,USA,9522923808.0,info@kmichaelhomes.com,http://www.kmichaelhomes.com,10177-000,Construction & Remodeling Services,2/1/90 0:00,,True,A+,100.0,1.0,,False,Micro-small,False,7/14/22 8:24,BBB,200
1037,704,1000047523,Sotam Home Care LLC,9271 Lake Rd,,Woodbury,MN,55125.0,USA,6513488354.0,sotam.homecare@gmail.com,https://www.sotamhomecare.com/,60441-000,Home Health Services,12/1/18 0:00,,False,A+,99.67,1.0,0.0,False,Micro-small,False,10/13/22 8:23,BBB,200
1038,704,96137608,Twin City Container,990 Spiral Blvd,,Hastings,MN,55033.0,USA,6514803786.0,,http://www.tcc-mn.com,60634-000,Packaging Service,1/1/98 0:00,,False,A+,100.0,40.0,0.0,False,Small,False,2/25/22 9:44,BBB,200
1039,704,1000035987,Wells Fargo Bank Minnesota,407 Pine St.,,Monticello,MN,55362.0,USA,7632952290.0,carolyn.h.roby@wellsfargo.com,http://www.wellsfargo.com,20003-000,Banks,1/1/29 0:00,,False,NR,0.0,16600.0,0.0,False,Giant,False,6/1/22 21:29,BBB,200
1040,704,96551903,White Face River Run Kennel,5422 Highway 7,,Culver,MN,55779.0,USA,2184617375.0,whitefaceriverrunkennel@hotmail.com,http://whitefaceriverrunkennel.com,05195-000,Dog Breeders,1/1/00 0:00,,False,A+,100.0,1.0,0.0,False,Micro-small,False,2/24/22 9:31,BBB,200
1041,704,96562866,Anglerz Construction,3004 Dakota Park Cir S,,Fargo,ND,58104.0,USA,7013617382.0,zzirovski@live.com,https://www.live.com/,10035-000,Contractors - General,6/25/09 0:00,,False,A+,100.0,1.0,0.0,False,Micro-small,False,10/21/21 3:59,Email,200
1042,704,1000015838,Habitation Furnishing & Design,4317 Excelsior Blvd,,St Louis Park,MN,55416.0,USA,9524263548.0,greg@habitationdesign.com,http://habitationdesign.com/,50291-000,Furniture - Retail,2/3/15 0:00,,False,A+,100.0,1.0,0.0,False,Micro-small,False,6/7/22 8:10,BBB,200
1043,704,96006772,Cardiotext,3405 W 44th St,,Minneapolis,MN,55410.0,USA,6129252053.0,jordan@orderpoint.com,http://www.cardiotext.com,60769-000,Sales Organizations,1/1/91 0:00,,False,A+,100.0,10.0,,False,Small,False,4/15/21 4:06,BBB,200
1044,704,96215212,Jay C. Hormel Nature Center,1304 21st St NE,,Austin,MN,55912.0,USA,5074377519.0,info@hormelnaturecenter.org,http://www.hormelnaturecenter.org,60968-000,Zoological Gardens,1/1/04 0:00,,False,A+,100.0,4.0,,False,Micro-small,False,1/11/23 9:00,BBB,200
1045,704,96139153,Buol&#39;s Boarding Haus LLC,65681 169th Ave,,Wabasha,MN,55981.0,USA,6515652180.0,nancy.buol@yahoo.com,http://www.buolsboardinghaus.com,00153-000,Pet Boarding & Kennels,7/15/04 0:00,,False,A+,100.0,1.0,,False,Micro-small,False,9/4/22 8:28,BBB,200
1046,704,96018049,"Take It Away, Inc.",70 Hunters Ct,,Chanhassen,MN,55317.0,USA,6125972350.0,d.wanek@mchsi.com,http://www.takeitaway.biz,70636-000,Trucking - Dump,1/30/04 0:00,6/3/16 0:00,False,NR,0.0,1.0,,False,Micro-small,False,6/10/19 4:04,BBB,200
1047,704,1000041738,Neve ('nevy') Webb Law Firm,"6800 France Ave S., Suite 405",,Bloomington,MN,55435.0,USA,9527462400.0,jneve@nevewebb.com,https://nevewebb.com/,60075-108,Attorneys & Lawyers  - Business Law/Corporation/Partnership,9/3/08 0:00,,False,A+,100.0,1.0,0.0,False,Micro-small,False,9/21/21 4:00,BBB,200
1048,704,96580205,SMG Web Design,136 Saint Anthony St S,,Preston,MN,55965.0,USA,5077652151.0,service@smgwebdesign.com,http://www.smgwebdesign.com,60980-000,Web Design,,,False,A+,100.0,,0.0,False,Micro-small,False,2/6/20 4:21,BBB,200
1049,704,1000009782,"A. Sadowski Designs, LLC",17800 Hutchins Dr,,Minnetonka,MN,55345.0,USA,9523034230.0,info@asadowskidesigns.com,http://www.asadowskidesigns.com/,10013-000,Building Contractors,9/23/15 0:00,,False,A+,100.0,1.0,0.0,False,Micro-small,False,12/14/22 9:35,BBB,200
1050,704,96596147,Sole Essentials LLC,111 Kellogg Blvd E Apt 2701,,Saint Paul,MN,55101.0,USA,8888476531.0,admin@thesolesolution.com,http://www.thesolesolution.com,50580-000,Shoes - Custom Made,,,False,C+,77.0,1.0,0.0,False,Micro-small,False,9/28/22 10:19,BBB,200
1051,704,38000695,C & R Carpet Restoration,2605 Ibis Way,,Buffalo,MN,55313.0,USA,7636826807.0,candrcarpet@charter.net,http://www.candrcarpetrestoration.com,60184-000,Carpet & Rug Cleaners,1/1/96 0:00,,False,A+,100.0,1.0,,False,Micro-small,False,12/21/22 9:21,BBB,200
1052,704,96131657,Lee Prohofsky Photography,420 Rhode Island Ave S,,Minneapolis,MN,55426.0,USA,6123386333.0,lee@prohofsky.com,http://www.prohofsky.com,61044-000,Photography Sales,7/1/86 0:00,,False,A+,100.0,1.0,,False,Micro-small,False,11/5/20 4:09,BBB,200
1053,704,1000018660,A Place For You,220 3rd Ave SE,,Pine City,MN,55063.0,USA,3204387070.0,,http://www.apfy.org,15051-000,Emergency Shelters,6/19/18 0:00,,False,NR,0.0,1.0,0.0,False,Micro-small,False,6/21/21 3:58,BBB,200
1054,704,96013238,"Whitemore Fire Consultants, Inc.",6610 E 240th St,,Prior Lake,MN,55020.0,USA,9524617000.0,,http://www.whitemorefire.com,60476-000,Investigators,8/8/94 0:00,,False,NR,0.0,5.0,,False,Small,False,11/24/22 9:01,BBB,200
1055,704,1000039795," Tri-County Professional Builders, Inc.",4333 126th Ave SE,,Clear Lake,MN,55319.0,USA,3207433447.0,mnovak620@live.com,https://www.tricountyprofessionalbuilders.com/,10035-000,Contractors - General,1/1/98 0:00,,False,A+,100.0,3.0,,False,Micro-small,False,6/15/21 4:23,BBB,200
1056,704,96130565,Tauer Research Inc,2731 Hayes St NE,,Minneapolis,MN,55418.0,USA,6126230399.0,tauerresearch@integra.net,https://www.integra.net/,30238-000,Food Products Manufacturing Equipment,9/14/90 0:00,,False,A+,100.0,1.0,0.0,False,Micro-small,False,10/1/20 4:13,Email,200
1057,704,96008406,Deutsche Contracting Inc.,450 Armstrong Rd,,Northfield,MN,55057.0,USA,6124903736.0,contractor@deutschecontracting.com,https://www.deutschexcavating.com/,10035-000,Contractors - General,10/1/02 0:00,,False,A+,100.0,1.0,,False,Micro-small,False,6/9/22 8:18,BBB,200
1058,704,96209942,Seagull Canoe Outfitters,12208 Gunflint Trl,,Grand Marais,MN,55604.0,USA,2183882216.0,,http://Seagulloutfitters.com,50082-000,Boat Dealers,1/1/91 0:00,,False,A+,100.0,12.0,0.0,False,Micro-small,False,4/17/22 8:05,BBB,200
1059,704,96541741,M H Fotografia,7916 N College Park Dr,,Minneapolis,MN,55445.0,USA,6122421411.0,,http://www.facebook.com/MeryHernandezFotografia/,60658-000,Photographers - Portrait,4/30/14 0:00,,False,NR,0.0,1.0,0.0,False,Micro-small,False,7/8/22 12:27,BBB,200
1060,704,21004058,Empire Door & Glass Co.,3415 E 27th St,,Minneapolis,MN,55406.0,USA,6127294003.0,sales@empiredoorandglass.com,http://www.empiredoorandglass.com,10178-000,Windows - Installation & Service,8/14/98 0:00,,False,A+,100.0,25.0,,False,Small,False,8/17/21 4:06,BBB,200
1061,704,96026709,"Schulz Electric, Inc.",32110 Dresden Ave,,Northfield,MN,55057.0,USA,5076457742.0,schulzelectric@charter.net,http://www.schulzelectricinc.com,10049-000,Electricians,1/1/74 0:00,,False,A+,100.0,4.0,,False,Micro-small,False,7/2/20 4:06,BBB,200
1062,704,96020672,Swedish Kontur Imports,310 S Minnesota Ave,,Saint Peter,MN,56082.0,USA,5079311198.0,,http://www.swedishkontur.com,60459-000,Importers,1/1/84 0:00,,False,A+,100.0,8.0,,False,Micro-small,False,7/8/22 12:22,BBB,200
1063,704,41001044,K.W. Billman Roofing,6254 34th Ave NW,Ste C,Rochester,MN,55901.0,USA,5072806727.0,support@kwbillman.com,http://www.kwbillman.com,10126-000,Roofing Contractors,2/26/91 0:00,,False,A+,100.0,1.0,0.0,False,Micro-small,False,1/17/23 8:46,BBB,200
1064,704,96001950,"Groff&#39;s Heating and Air Conditioning, Inc.",12365 Dodd Blvd,,Rosemount,MN,55068.0,USA,6514233802.0,aheating14@yahoo.com,https://www.gogroffs.com/,10182-000,Heating & Air Conditioning,6/25/92 0:00,,True,A+,100.0,3.0,0.0,False,Small,False,10/4/22 8:07,BBB,200
1065,704,96012343,"Hansen Concrete at Spicer, Inc.",8722 47th St NE,,Spicer,MN,56288.0,USA,3207960194.0,hansenconcrete@live.com,https://www.live.com/,10032-000,Concrete Contractors,1/1/99 0:00,5/4/21 0:00,False,NR,0.0,12.0,,False,Micro-small,False,8/18/22 8:20,Email,200
1066,704,96213739,Vintage Acres,501 W Stowe St,,Duluth,MN,55808.0,USA,2186263282.0,,http://Vintageacres.com,60758-000,Retirement & Life Care Communities & Homes,1/1/96 0:00,,False,A+,100.0,4.0,,False,Micro-small,False,2/14/21 3:59,BBB,200
1067,704,1000003309,Lucky Kitchen Chinese Restaurant,14001 US HWY 12 SW,,Cokato,MN,55321.0,USA,3202862009.0,,http://luckykitchencokato.com/,50544-000,Restaurants,3/16/09 0:00,,False,NR,0.0,1.0,0.0,False,Micro-small,False,12/16/22 9:11,BBB,200
1068,704,96507010,"Rogue Arc, LLC",1215 4th St NE Ste 2,,Minneapolis,MN,55413.0,USA,6125841808.0,mattsand@rogue-arc.com,http://www.rogue-arc.com/,10013-100,Design & Build Contractor,10/31/11 0:00,,False,A+,100.0,1.0,,False,Micro-small,False,11/12/21 4:01,BBB,200
1069,704,1000008035,"J.A. Gwilt Siders, Inc.",136 3rd St SW,,Blmng Prairie,MN,55917.0,USA,5075837413.0,jagsiding@yahoo.com,https://www.facebook.com/JA-Gwilt-Siders-Inc-411945002204815/,10135-000,Siding Contractors,3/26/99 0:00,,False,A+,100.0,2.0,0.0,False,Micro-small,False,9/12/20 4:09,BBB,200
1070,704,96548643,Zeis Concrete Solutions,1217 SE Main Ave STE C,,Moorhead,MN,56560.0,USA,7017300454.0,zeisconcretesolutions@gmail.com,http://zeisconcretesolutions.com,10032-101,Concrete - Custom,10/13/10 0:00,,False,A+,100.0,1.0,0.0,False,Micro-small,False,2/23/22 10:21,BBB,200
1071,704,96376389,"MJ Electric MN, Inc.",9743 Humboldt Ave S,,Bloomington,MN,55431.0,USA,6125980793.0,mjelectric@comcast.net,http://www.mjelectricmn.com/,10035-500,Electricians - Residential,1/4/05 0:00,,True,A+,100.0,5.0,0.0,False,Micro-small,False,9/16/22 8:15,BBB,200
1072,704,1000004493,Granite City Jobbing,2731 Clearwater Rd,,Saint Cloud,MN,56301.0,USA,3202521782.0,,http://www.granitecityjobbing.com,50129-000,Candy & Confectionery - Retail,10/31/68 0:00,,False,NR,0.0,30.0,0.0,False,Micro-small,False,12/4/22 9:03,BBB,200
1073,704,96592614,Holistic Health & Healing LLC,1301 Rice Lake Rd STE 128,,Duluth,MN,55811.0,USA,2187243679.0,,https://holistichealthhealing.info/,60438-000,Holistic Practitioners,1/26/16 0:00,,False,NR,0.0,1.0,0.0,False,Micro-small,False,7/8/22 12:28,BBB,200
1074,704,96375406,Tacony Corporation,1760 Gilsinn Ln,,Fenton,MO,63026.0,USA,6363493000.0,,http://www.tacony.com,80642-000,Sewing Machines - Wholesale & Manufacturers,1/1/93 0:00,,False,NR,0.0,200.0,,False,Medium,False,6/1/22 21:25,BBB,200
1075,704,96355204,"Life Innovations, Inc.",2660 Arthur St,,Saint Paul,MN,55113.0,USA,6516350511.0,plarson@prepare-enrich.com,http://www.prepare-enrich.com,65549-000,Medical Service Organizations,1/1/07 0:00,,False,A+,100.0,15.0,,False,Small,False,7/14/22 8:24,BBB,200
1076,704,1000003500,AF Consulting,5161 Milly Lane SW,,Rochester,MN,55902.0,USA,5072720148.0,aaron@districtreps.com,http://www.afconsult.com,60326-100,Staffing - Technical,,,False,NR,0.0,1.0,0.0,False,Micro-small,False,1/28/23 8:48,BBB,200
1077,704,1000047889,Jasper & Sons Construction LLC,17002 232nd Ave NW,,Big Lake,MN,55309.0,USA,7633502069.0,jasper@jas-sons.com,https://www.jas-sons.com/,10035-000,Contractors - General,1/7/20 0:00,,True,A+,97.34,2.0,,False,Micro-small,False,12/14/22 9:35,Email,200
1078,704,1000045086,"OneStep Offer, LLC",12525 Ridgemount Ave W,,Hopkins,MN,55305.0,USA,9524910278.0,support@onestepoffer.com,https://onestepoffer.com/,20061-000,Real Estate Developers,4/12/20 0:00,,False,A+,97.0,2.0,,False,Micro-small,False,1/29/23 8:37,BBB,200
1079,704,96007325,Pete's Small Engine,2578 US Highway 59,,Marshall,MN,56258.0,USA,5075371780.0,tech101@petessmallengine.com,http://www.gotopetes.com/,50388-000,Lawn Mowers,12/1/79 0:00,,False,A+,100.0,3.0,,False,Micro-small,False,10/13/21 4:28,BBB,200
1080,704,96553808,Grand Itasca Clinic and Hospital Home Care,111 SE 3rd St,,Grand Rapids,MN,55744.0,USA,2189991055.0,cassi.chrzanowski@granditasca.org,http://www.granditasca.org,60441-000,Home Health Services,,,False,A+,100.0,1.0,0.0,False,Medium,False,12/9/21 4:06,BBB,200
1081,704,1000009276,Robert M. Segna Construction LLC,116 5th St SE,,Montgomery,MN,56069.0,USA,6517752205.0,rms1018@frontier.com,https://www.frontier.com/,10177-000,Construction & Remodeling Services,7/12/12 0:00,,False,A+,100.0,1.0,0.0,False,Micro-small,False,12/9/20 4:49,Email,200
1082,704,96157406,"Red River Valley Farmers Insurance Pool, Inc",16553 37th St SE,Ste 1,Mapleton,ND,58059.0,USA,7012719183.0,amy@agrasure.com,http://www.agrasure.com,20019-000,Insurance Companies,9/1/80 0:00,,False,A+,100.0,2.0,,False,Small,False,1/9/21 4:05,BBB,200
1083,704,25000961,United Products Corporation of America Inc,200 Sycamore St W,,Saint Paul,MN,55117.0,USA,6512278735.0,kim.swanson@unitedproducts.com,http://www.unitedproducts.com,50110-000,Building Materials,1/1/25 0:00,,False,A+,100.0,100.0,,False,Medium,False,12/13/22 9:02,BBB,200
1084,704,96506422,"IRadon, LLC",4740 Bayside Rd,,Maple Plain,MN,55359.0,USA,6124831384.0,andrew@iradon.com,http://www.iradon.com,61026-100,Radon Mitigation,6/7/13 0:00,,False,A+,100.0,1.0,0.0,False,Small,False,11/6/21 4:01,BBB,200
1085,704,96295566,Nanocrete,PO Box 1793,,Maple Grove,MN,55311.0,USA,6123279186.0,info@nanocrete.com,http://www.nanocrete.com,10032-000,Concrete Contractors,7/1/04 0:00,8/15/17 0:00,False,NR,0.0,5.0,,False,Micro-small,False,8/17/20 3:50,BBB,200
1086,704,1000027064,#1 Nails Spa LLC,1310 Highway 15 S Ste 106,,Hutchinson,MN,55350.0,USA,3205875107.0,lgrosnacht@hotmail.com,https://www.facebook.com/1NailsspaLLC/,60603-000,Nail Salons,4/20/17 0:00,,False,A+,100.0,1.0,0.0,False,Micro-small,False,6/12/21 6:08,BBB,200
1087,704,1000035594,Office Depot,160 Tyler Rd N,,Red Wing,MN,55066.0,USA,5614384800.0,,http://www.officedepot.com,80515-000,Office Supplies,1/1/86 0:00,,False,NR,0.0,1800.0,0.0,False,Large,False,6/1/22 21:28,BBB,200
1088,704,96163035,Nor' Wester Lodge,7778 Gunflint Trl,,Grand Marais,MN,55604.0,USA,2183882252.0,,http://www.norwesterlodge.com,60752-000,Resorts,5/29/84 0:00,,False,A+,100.0,5.0,,False,Micro-small,False,10/29/21 3:55,BBB,200
1089,704,1000039753,"Second Horizon Living, LLC",7609 Modern Rd,,Brooklyn Park,MN,55428.0,USA,6124537783.0,info@secondhorizonliving.com,https://secondhorizonliving.com/,60441-000,Home Health Services,7/18/17 0:00,,True,A+,100.0,10.0,,False,Micro-small,False,6/22/22 11:35,BBB,200
1090,704,1000020565,"Wildman&#39;s Electric, Inc.",11143 210th Ave,,Glenwood,MN,56334.0,USA,3208050397.0,jwildman@runestone.net,https://www.wildmanselectric.com,10049-000,Electricians,3/17/00 0:00,,False,A+,100.0,1.0,0.0,False,Micro-small,False,8/30/22 8:18,BBB,200
1091,704,1000060821,Woodbury Carwash and Detail Center,7776 Hudson Rd ,,Woodbury ,MN,55125.0,USA,6517307808.0,,https://woodburycarwash.com/contact-us,60180-000,Car Wash & Polish,,,False,D+,67.27,1.0,,False,Micro-small,False,12/13/22 9:03,BBB,200
1092,704,96093966,Stanley Steemer St. Cloud,3835 40th St S,,Saint Cloud,MN,56301.0,USA,3202531723.0,derek.sorenson@steemer.com,http://www.stanleysteemer.com,60184-000,Carpet & Rug Cleaners,1/1/89 0:00,,False,A+,100.0,15.0,,False,Small,False,12/6/22 9:12,BBB,200
1093,704,1000014470,Kenneth Grist - Edina Realty,2137 4th St,,Dellwood,MN,55110.0,USA,6512859547.0,kennethgrist@edinarealty.com,https://www.edinarealty.com/,60729-000,Real Estate,12/20/07 0:00,,False,A+,100.0,1.0,0.0,False,Micro-small,False,1/13/23 9:01,Email,200
1094,704,27000033,JNR Adjustment Company Inc,3300 Fernbrook Ln N Ste 225,,Minneapolis,MN,55447.0,USA,8002792567.0,dennis@jnrcollects.com,http://www.jnrcollects.com,60226-000,Collection Agencies,1/1/71 0:00,,False,A+,100.0,75.0,0.0,False,Micro-small,False,12/23/22 9:05,BBB,200
1095,704,96112492,Yankee Candle Company,12782 Riverdale Blvd NW,,Minneapolis,MN,55448.0,USA,7633239864.0,info@yankeecandle.com,http://www.yankeecandle.com,50128-000,Candles - Retail,1/1/08 0:00,,False,A+,100.0,7.0,,False,Micro-small,False,2/11/22 9:24,BBB,200
1096,704,14000487,Benco Delivery Service Inc,1144 Larpenteur Ave W Ste 200,,Saint Paul,MN,55113.0,USA,6514869999.0,info@bencods.com,http://www.bencods.com,70542-000,Delivery Service,6/1/89 0:00,,False,A+,100.0,4.0,,False,Small,False,4/30/21 4:07,BBB,200
1097,704,1000017345,"Wild River Tree Service, LLC",648 Furuby Rd,,Taylors Falls,MN,55084.0,USA,6512465038.0,wildrivertree@gmail.com,https://www.facebook.com/wildrivertree/,00219-000,Tree Service,4/19/17 0:00,,False,A+,100.0,3.0,0.0,False,Micro-small,False,12/21/22 9:22,BBB,200
1098,704,96351761,"Convergent, LLC",4001 Stinson Blvd STE 324,,Saint Anthony,MN,55421.0,USA,8008843620.0,info@convergentpro.com,https://convergentpro.com/,60172-105,Consultant - Planning,12/18/08 0:00,,False,A+,100.0,1.0,0.0,False,Micro-small,False,11/4/22 8:21,BBB,200
1099,704,8004561,Structural Materials Inc,1401 40th St N,,Fargo,ND,58102.0,USA,7012827100.0,randyj@smionline.com,https://www.smionline.com/,50110-000,Building Materials,12/29/86 0:00,,False,A+,100.0,25.0,0.0,False,Small,False,6/14/22 8:18,BBB,200
1100,704,96297758,"B A B Enterprises, Inc.",120 Lake Ave E,,Winsted,MN,55395.0,USA,9524548089.0,babent@live.com,https://www.live.com/,10079-000,Home Improvements,4/17/02 0:00,7/8/19 0:00,False,NR,0.0,1.0,,False,Micro-small,False,7/10/19 5:44,Email,200
1101,704,96046260,ResCap Liquidating Trust,8400 Normandale Lake Blvd Ste 920,,Bloomington,MN,55437.0,USA,9525946064.0,jill.horner@rescapestate.com,http://www.gmacrescap.com,20085-000,Financial Services,11/1/82 0:00,,False,A+,100.0,1400.0,0.0,False,Large,False,3/17/21 4:44,BBB,200
1102,704,96011093,"Horman's HVAC, LLC",4453 Service Dr,,Winona,MN,55987.0,USA,5074543049.0,hormanhvac@yahoo.com,https://hormanhvac.com/,10182-000,Heating & Air Conditioning,11/4/94 0:00,,True,A+,100.0,5.0,0.0,False,Micro-small,False,10/7/21 3:58,BBB,200
1103,704,96304193,The Ice Dam Company,1515 5th St S,,Hopkins,MN,55343.0,USA,9529359469.0,,http://icedamcompany.com,10126-000,Roofing Contractors,,,False,A+,100.0,1.0,,False,Micro-small,False,1/31/23 8:46,BBB,200
1104,704,96159674,Stony Ridge Resort & Cafe,60 W Lakeview Pl,,Ely,MN,55731.0,USA,2183656757.0,info@stonyridgeresort.com,http://www.stonyridgeresort.com,60752-000,Resorts,1/1/95 0:00,,False,A+,100.0,4.0,0.0,False,Small,False,3/18/22 8:14,BBB,200
1105,704,96147372,Lula,1587 Selby Ave,,Saint Paul,MN,55104.0,USA,6516444110.0,,http://www.lulavintagemn.com,55093-000,Clothing - Retail,1/1/93 0:00,,False,A+,100.0,1.0,,False,Micro-small,False,7/12/20 3:50,BBB,200
1106,704,24001378,"Mankato Dance Express, Inc.",2105 N Broad Ct,,Mankato,MN,56001.0,USA,5076253865.0,danceexpress@hickorytech.net,https://danceexpressmankato.com/,60278-000,Dancing Instruction,9/11/92 0:00,,False,A+,100.0,1.0,0.0,False,Micro-small,False,10/1/20 4:13,BBB,200
1107,704,96284107,Schmitt Music Centers,4101 13th Ave S Ste 1100,,Fargo,ND,58103.0,USA,7012811828.0,dan.miller@schmittmusic.com,http://www.schmittmusic.com,50447-000,Musical Instruments - Dealers,1/1/84 0:00,,False,A+,100.0,8.0,0.0,False,Micro-small,False,8/20/22 8:40,BBB,200
1108,704,96235821,Hulst Farrier Service,40875 160th St,,Wannaska,MN,56761.0,USA,2182423686.0,ljhulst@live.com,https://www.live.com/,00148-000,Horse Shoeing,,,False,NR,0.0,1.0,,False,Micro-small,False,6/8/22 8:45,Email,200
1109,704,96379838,Cars by Andy,14208 US Highway 12 SW,,Cokato,MN,55321.0,USA,3202862277.0,andy@carsbyandy.com,http://www.carsbyandy.com,50040-000,Auto Dealers - Used Cars,2/9/12 0:00,,False,A+,100.0,1.0,0.0,False,Micro-small,False,9/17/22 8:23,BBB,200
1110,704,96018289,Aqua Serv,210 W White St Apt 111,,Ely,MN,55731.0,USA,2183656079.0,,http://www.aqua-serv.com/,50724-000,Waterbeds - Dealers,8/7/87 0:00,,False,A+,100.0,1.0,,False,Micro-small,False,1/28/22 9:32,BBB,200
1111,704,96098994,Healthy Living Chiropractic,6545 Flying Cloud Dr Ste 100,,Eden Prairie,MN,55344.0,USA,9529442300.0,info@healthylivingchiropractic.com,http://www.healthylivingchiropractic.com,60205-000,Chiropractors D.C.,8/1/04 0:00,,False,A+,100.0,3.0,,False,Micro-small,False,3/1/22 9:57,BBB,200
1112,704,96024808,"Lancet Data Sciences, Inc.",11980 Portland Ave,,Burnsville,MN,55337.0,USA,9522307360.0,tniccum@lancetsoftware.com,http://www.lancetcard.com,60236-000,Computer Software Publishers & Developers,6/1/97 0:00,,False,A+,100.0,60.0,,False,Small,False,7/8/21 4:21,BBB,200
1113,704,96579385,"Skinner's Pub, Inc.",919 Randolph Ave,,Saint Paul,MN,55102.0,USA,6512910146.0,skinnerspub@hotmail.com,http://skinnersmn.com,50544-000,Restaurants,7/10/00 0:00,,False,A+,100.0,5.0,0.0,False,Small,False,2/12/20 6:01,BBB,200
1114,704,1000044806,Prominent Closing Services LLC,6300 Shingle Creek Pkwy Ste 310,,Brooklyn Ctr,MN,55430.0,USA,7632086847.0,orders@prominentclosing.com,https://www.facebook.com/prominent-closing-llc-2004959446230858/,20072-100,Title Companies,5/25/18 0:00,,False,A+,97.47,1.0,0.0,False,Micro-small,False,5/20/21 4:21,BBB,200
1115,704,14002495,Custom Alarm,1661 Greenview Dr SW,,Rochester,MN,55902.0,USA,5072885522.0,info@custom-alarm.com,http://www.custom-alarm.com,60788-000,Security Control Equipment & System Monitors,1/6/66 0:00,,False,A+,100.0,65.0,,False,Small,False,2/7/23 8:59,BBB,200
1116,704,96132616,Kennedy Scales Inc,11485 Xeon St NW,,Coon Rapids,MN,55448.0,USA,7637841022.0,pberning@kennedyscales.com,http://www.kennedyscales.com,30585-000,Scales - Repair,7/1/57 0:00,,False,A+,100.0,20.0,0.0,False,Small,False,11/8/22 9:18,BBB,200
1117,704,1000007097,Little Falls Radio Corporation,16405 Haven Rd,,Little Falls,MN,56345.0,USA,3206322992.0,,http://www.fallsradio.com,70583-000,Radio Stations & Broadcast Companies,4/26/04 0:00,,False,A+,100.0,7.0,0.0,False,Micro-small,False,9/20/20 3:56,BBB,200
1118,704,1000012009,Orn Family Dentistry,916 5th Ave NE,,Jamestown,ND,58401.0,USA,7012526752.0,orndentistry@daktel.com,http://ornfamilydentistry.com/,60289-000,Dentists,7/28/09 0:00,,False,NR,0.0,1.0,0.0,False,Micro-small,False,5/23/22 8:19,BBB,200
1119,704,96051064,"Manley Commercial, Inc.",764 Southcross Dr W # 202,,Burnsville,MN,55306.0,USA,9522366040.0,kmanley@manleyland.com,http://www.manleyland.com,20061-000,Real Estate Developers,1/1/88 0:00,1/4/17 0:00,False,NR,0.0,7.0,,False,Micro-small,False,1/6/20 4:08,BBB,200
1120,704,96382634,L & D Lawn Care,PO Box 1422,,Bismarck,ND,58502.0,USA,7012260803.0,,http://www.goingmowing.com,00157-000,Lawn Maintenance,1/1/07 0:00,,False,NR,0.0,3.0,,False,Micro-small,False,6/3/22 9:03,BBB,200
1121,704,96,Apostolic Publishing Company,7010 6th St N,,Oakdale,MN,55128.0,USA,6517020086.0,catholic2@msn.com,http://thecatholicleader.com,55644-000,Publishers,5/1/70 0:00,,True,A+,100.0,30.0,0.0,False,Medium,False,9/23/22 8:46,BBB,200
1122,704,1000036417,One Agora LLC,9220 James Ave S,,Bloomington,MN,55431.0,USA,9522345898.0,mkirschling@gmail.com,https://www.oneagorahealth.com/,60205-000,Chiropractors D.C.,11/22/14 0:00,,False,A+,100.0,1.0,0.0,False,Micro-small,False,1/24/23 8:58,BBB,200
1123,704,1000008816,Hoslers Two Inlets Country Store LLC,55735 County Highway 44,,Park Rapids,MN,56470.0,USA,2187325235.0,ticson44@hotmail.com,https://www.facebook.com/two-inlets-country-store-119060731479169/,50199-000,Convenience Stores,5/3/13 0:00,,False,A+,100.0,1.0,0.0,False,Micro-small,False,2/1/23 8:57,BBB,200
1124,704,8005513,Donut Connection,4057 Highway 7,,Saint Louis Park,MN,55416.0,USA,6128663161.0,,http://donutconnection.com/,50052-000,Bakers - Retail,3/12/10 0:00,8/30/18 0:00,False,NR,0.0,1.0,0.0,False,Micro-small,False,8/31/21 4:00,BBB,200
1125,704,96149653,Post-Haste Business Solutions,38868 12th ave ,,North Branch,MN,55056.0,USA,6512371115.0,jdolin@posthastemn.com,http://www.post-hastebizsolutions.com,30614-000,Signs,8/1/05 0:00,,False,A+,100.0,5.0,,False,Small,False,11/3/22 8:23,BBB,200
1126,704,1000005190,Sand Lake Resort,94154 Co. Hwy 61,,Sturgeon Lake,MN,55793.0,USA,2184858164.0,,https://www.sandlakeresort.com/,60752-000,Resorts,10/29/07 0:00,,False,NR,0.0,1.0,0.0,False,Micro-small,False,1/24/23 8:58,Search,200
1127,704,1000006056,Jim&#39;s Garage Door,1007 17th St NE,,Sydney,ND,58401.0,USA,7012528372.0,,https://jimsgaragedoors.com.au/contact-us/,85361-000,Garage Door Repair,2/20/96 0:00,,False,A+,100.0,1.0,0.0,False,Micro-small,False,8/5/22 8:39,Search,200
1128,704,1000002787,Bohnsack Excavating Inc,17072 Revere Way,,Prior Lake,MN,55372.0,USA,9524473884.0,,https://www.hometowndemolitioncontractors.com/demolition-reviews/bohnsack-hennen-excavating-inc-prior-lake-mn.html,10050-000,Excavating Contractors,1/1/85 0:00,,False,NR,0.0,5.0,0.0,False,Micro-small,False,1/31/23 8:46,Search,200
1129,704,1000001622,Randy&#39;s In Town,3731 Front St,,Barnum,MN,55707.0,USA,2183896996.0,,https://www.showmelocal.com/profile.aspx?bid=1188661,60103-000,Auto Repair & Service,,,False,NR,0.0,1.0,0.0,False,Micro-small,False,1/31/23 8:46,Search,200
1130,704,1000005836,M.J.Tarolli LLC,130 Banks Blvd,,Silver Bay,MN,55614.0,USA,2182263935.0,,https://m.facebook.com/michael.tarolli.3/,10035-000,Contractors - General,9/25/09 0:00,,False,A+,100.0,1.0,0.0,False,Micro-small,False,1/25/20 4:31,Search,200
1131,704,1000003781,Burrough&#39;s Bulldozing & Excavating inc,12441 Knollwood Rd,,Caledonia,MN,55921.0,USA,5077253609.0,,https://www.excavation.cc/company-burroughs-bulldozing-inc-in-caledonia-mn-42176,10050-000,Excavating Contractors,1/1/05 0:00,,False,NR,0.0,3.0,0.0,False,Micro-small,False,1/31/23 8:46,Search,200
1132,704,1000001740,Fast Sign,2455 Xenium Ln N,,Minneapolis,MN,55441.0,USA,9529149860.0,,https://www.fastsigns.com/minneapolis-mn/,30614-000,Signs,4/21/06 0:00,,False,NR,0.0,1.0,0.0,False,Micro-small,False,12/4/22 9:03,Search,200
1133,704,1000001541,Meeks Lawn Care,6384 Pinecone Ln Nw,,Walker,MN,56484.0,USA,2185473729.0,,https://lawn-services.cmac.ws/meeks-lawn-care/13691/,00155-000,Landscape Contractors,8/30/10 0:00,5/18/16 0:00,False,NR,0.0,1.0,,False,Micro-small,False,5/20/19 4:18,Search,200
1134,704,1000003649,Pine‚Äôs Greek Deli and Grill,2 S Pine Dr,,Circle Pines,MN,55014.0,USA,7634320768.0,,https://www.menupix.com/twincities/restaurants/173519/Pines-Greek-Deli-and-Grill-Circle-Pines-MN,50202-000,Delicatessens,7/28/16 0:00,,False,NR,0.0,,0.0,False,Micro-small,False,7/30/19 3:56,Search,200
1135,704,1000000068,Clockwise Transit,2003 10th Ave S,,Minneapolis,MN,55404.0,USA,6122080312.0,,https://public-transportation-services.cmac.ws/clockwise-transit/6445/,70631-000,Transit Lines,12/20/15 0:00,,False,NR,0.0,1.0,0.0,False,Micro-small,False,11/13/21 3:59,Search,200
1136,704,1000004523,Molitor Excavating,1155 23rd Ave S,,Waite Park,MN,56387.0,USA,3202528010.0,,https://chambermaster.stcloudareachamber.com/list/member/molitor-excavating-inc-waite-park-1177,10050-000,Excavating Contractors,1/1/84 0:00,,False,NR,0.0,6.0,0.0,False,Micro-small,False,1/29/23 8:37,Search,200
1137,704,1000003920,Steven's Restaurant,202 Rum River Dr N,,Princeton,MN,55371.0,USA,7636319644.0,,https://www.menupix.com/minnesota/restaurants/380228852/Stevens-Princeton-MN,50544-000,Restaurants,1/1/10 0:00,,False,A+,100.0,,0.0,False,Micro-small,False,1/30/20 4:34,Search,200
1138,704,1000005962,"Collette/Parks Construction, LLC",1126 Poplar Dr,,Brainerd,MN,56401.0,USA,2188211483.0,,http://midmnba.org/list/member/collette-parks-construction-llc-east-gull-lake-62,10035-000,Contractors - General,1/1/05 0:00,,False,NR,0.0,1.0,0.0,False,Micro-small,False,1/24/23 8:58,Search,200
1139,704,1000003789,Emerald Remodeling,5942 4th St NE,,Fridley,MN,55432.0,USA,6122079552.0,,https://www.ci.fridley.mn.us/791/Licensed-Solicitors,10177-000,Construction & Remodeling Services,,11/25/19 0:00,False,NR,0.0,1.0,,False,Micro-small,False,11/28/22 8:54,Search,200
1140,704,1000001466,All Type&#39;s Construction,2700 O&#39;Henry Road,,Brooklyn Center,MN,55430.0,USA,7635616036.0,,https://www.ci.brooklyn-center.mn.us/government/departments/community-development/building-construction-regulations-permits?locale=en,10177-000,Construction & Remodeling Services,,,False,NR,0.0,1.0,0.0,False,Micro-small,False,1/31/23 8:46,Search,200
1141,704,1000005005,BRJ Construction,PO Box 74,300 1st St Ne,Plato,MN,55370.0,,3202382114.0,,https://www.bizapedia.com/mn/brj-construction-inc.html,10177-000,Construction & Remodeling Services,5/10/93 0:00,,False,A+,100.0,1.0,0.0,False,Micro-small,False,2/9/23 20:03,Search,200
1142,704,1000005435,Don Ho Chinese Restaurant,7700 W Old Shakopee Rd Ste 110,,Minneapolis,MN,55438.0,USA,9529411356.0,,https://www.menupix.com/twincities/restaurants/2306264/Don-Ho-Restaurant-Bloomington-MN,50544-000,Restaurants,5/27/14 0:00,,False,NR,0.0,1.0,0.0,False,Micro-small,False,2/7/23 9:00,Search,200
1143,704,1000005030,"Auto Deals, LLC",8080 W 125th St Ste J,,Savage,MN,55378.0,USA,9527368399.0,,https://www.facebook.com/AutoDealsMN/,50040-000,Auto Dealers - Used Cars,8/26/15 0:00,,False,NR,0.0,1.0,0.0,False,Micro-small,False,4/13/21 4:06,Search,200
1144,704,1000001361,Osborne Apartments,659 Osborne Rd Ne,,Minneapolis,MN,55432.0,USA,7637802169.0,,https://www.ebenezercares.org/affordable-housing-osborne-apartments,60617-000,Nursing Homes,1/1/94 0:00,,False,NR,0.0,4.0,0.0,False,Micro-small,False,2/2/23 8:53,Search,200
1145,704,1000000102,Lake Dental Group,2200 London Rd Suite 100,,Duluth,MN,55812.0,USA,2187284272.0,,https://lakedental.com/,60289-000,Dentists,,,False,NR,0.0,1.0,0.0,False,Micro-small,False,10/21/21 3:59,Search,200
1146,704,1000000009,"Larry Brooks Builders, Inc.",185 High Point Pl NE Ste 101,,Byron,MN,55920.0,USA,5077756244.0,,https://www.yellowpages.com/byron-mn/mip/larry-brooks-builders-524749580,10035-000,Contractors - General,3/4/03 0:00,,False,NR,0.0,1.0,0.0,False,Micro-small,False,10/4/22 8:07,Search,200
1147,704,1000004776,Krieger Beverage Company,2620 Yh Hanson Ave,,Albert Lea,MN,56007.0,USA,5073735101.0,,https://www.beverage-world.com/en/company/krieger-beverage-company-albert-lea-2086360,85084-000,Beverages - Wholesale & Distribution,10/1/71 0:00,12/17/19 0:00,False,NR,0.0,1.0,0.0,False,Micro-small,False,12/19/22 8:51,Search,200
1148,704,1000003002,Moody Auto Repair,551 Highway 85 North,,Williston,ND,58801.0,USA,7015725201.0,,https://auto-repair-services.cmac.ws/bob-moody-repair/25862/,60103-000,Auto Repair & Service,,,False,A+,100.0,1.0,0.0,False,Micro-small,False,12/23/20 12:21,Search,200
1149,704,1000006283,"Tostenson Septic, LLC",1040 Highway 7 SW,,Montevideo,MN,56265.0,USA,3202692280.0,,https://bigstonelakechamber.com/2016/10/05/tostenson-septic-llc/,10113-000,Plumbers,12/28/06 0:00,,False,NR,0.0,1.0,0.0,False,Micro-small,False,1/3/23 8:39,Search,200
1150,704,1000000063,"AdrenaCard, Inc.",PO Box 141191,,Minneapolis,MN,55414.0,USA,7153704855.0,,https://pitchbook.com/profiles/company/168736-15,55336-000,Health & Medical Products,4/14/15 0:00,,False,NR,0.0,1.0,0.0,False,Micro-small,False,10/14/22 8:13,Search,200
1151,704,1000001836,Chokio Kafe,112 Main St,,Chokio,MN,56221.0,USA,3203242858.0,,https://www.menupix.com/minnesota/restaurants/2300689/Chokio-Cafe-Chokio-MN,50544-000,Restaurants,1/1/07 0:00,8/28/18 0:00,False,NR,0.0,2.0,,False,Micro-small,False,2/2/22 9:43,Search,200
1152,704,1000003862,Isle Building Supply,PO Box 24,,Isle,MN,56342.0,USA,3206763132.0,,https://www.facebook.com/people/Isle-discount-supply-and-lumber-yard/100064588733178/,50403-000,Lumber - Retail,1/1/97 0:00,,False,NR,0.0,3.0,0.0,False,Micro-small,False,1/28/23 8:48,Search,200
1153,704,1000004993,A Hardy Tree Service Inc,10409 Indiana Ave N,,Minneapolis,MN,55443.0,USA,6124086899.0,,http://ahardytreeservice.comcastbiz.net/,00219-000,Tree Service,3/29/10 0:00,12/31/16 0:00,False,NR,0.0,1.0,0.0,False,Micro-small,False,4/30/21 4:07,Search,200
1154,704,1000002466,Grand Stop,236 Grand Ave. ,,St. Paul,MN,55102.0,USA,6512245414.0,,https://www.exxon.com/en/find-station/mobil-saintpaul-mn-grandstop-200323959,50199-000,Convenience Stores,8/13/13 0:00,,False,C+,77.0,1.0,0.0,False,Micro-small,False,6/10/22 8:24,Search,200
1155,704,1000001540,The Garage Bar & Grill,3108 9th St S,,Moorhead,MN,56560.0,USA,2182870100.0,,https://www.facebook.com/TheGarageBarPresents/,50544-000,Restaurants,6/11/09 0:00,,False,NR,0.0,1.0,0.0,False,Micro-small,False,2/1/23 8:57,Search,200
1156,704,1000005086,Bungum Realty Inc,429 S Minnesota Ave,,Saint Peter,MN,56082.0,USA,5079319081.0,,https://www.realtor.com/realestateagency/589e4809b08f390010570246,60729-000,Real Estate,1/1/87 0:00,1/2/20 0:00,False,NR,0.0,2.0,0.0,False,Micro-small,False,1/9/23 8:32,Search,200
1157,704,1000003397,Jim&#39;s Painting,3190 Northshore Dr,,Wayzata,MN,55391.0,USA,9524710134.0,,https://www.superpages.com/wayzata-mn/bpp/jims-painting-25776330,10095-000,Painting Contractors,10/31/07 0:00,,False,NR,0.0,1.0,0.0,False,Micro-small,False,11/1/22 8:13,Search,200
1158,704,1000002044,Bakken Home Improvements,5925 Goodrich Ave,,Minneapolis,MN,55416.0,USA,9529223152.0,,https://www.facebook.com/bakkenconst/,10035-000,Contractors - General,1/1/96 0:00,,False,NR,0.0,2.0,0.0,False,Micro-small,False,1/30/23 8:33,Search,200
1159,704,1000005144,Love Thy Neighbor Farm,42463 Forest Lake Blvd,,Harris,MN,55032.0,USA,7635281353.0,,https://www.bizapedia.com/mn/love-thy-neighbor-farm.html,00128-101,Farms - Organic,4/4/14 0:00,,False,NR,0.0,1.0,0.0,False,Micro-small,False,12/24/22 8:49,Search,200
1160,704,1000005815,Burnsville Collision Center,771 Ladybird Ln,,Burnsville,MN,55337.0,USA,9528902544.0,,https://www.caliber.com/find-a-location/burnsville,60180-000,Car Wash & Polish,,,False,NR,0.0,1.0,0.0,False,Micro-small,False,1/24/23 8:58,Search,200
1161,704,1000003957,Super Street Performance,14835 Aberdeen St NE,,Ham Lake,MN,55304.0,USA,6512263109.0,,https://www.whodoyou.com/biz/1311290/super-street-performance-ham-lake-mn,80039-000,Auto Body Shop Equipment & Sup,8/16/13 0:00,,False,NR,0.0,1.0,0.0,False,Micro-small,False,6/3/22 9:03,Search,200
1162,704,1000000092,The Lock Up ,6250 Olson Memorial Hyw,,Golden Valley,MN,55444.0,USA,6123140151.0,,https://www.thelockup.com/storage-unit-size-guide/5x10-storage-unit,70610-000,Storage Units - Household & Commercial,,,False,NR,0.0,1.0,0.0,False,Micro-small,False,10/25/22 8:10,Search,200
1163,704,1000004502,Hydrostat Inc,330 1st ave se,,Rice,MN,56367.0,USA,3203934881.0,,https://hydrostatinc.com/,80398-000,Industrial Equipment & Supplies,2/17/00 0:00,,False,NR,0.0,10.0,0.0,False,Micro-small,False,1/16/23 8:36,Search,200
1164,704,1000002773,Belle&#39;s Alterations,1407 S Darling Dr Nw,,Alexandria,MN,56308.0,USA,3207621628.0,,https://belle-view-tailoring.hub.biz/,55093-000,Clothing - Retail,,,False,NR,0.0,1.0,0.0,False,Micro-small,False,1/30/23 8:33,Search,200
1165,704,1000001596,Weckert&#39;s Welding Shop,1833 Old East Chub Lake Rd,,Carlton,MN,55718.0,USA,2183844659.0,,https://www.yellowpages.com/carlton-mn/mip/weckerts-welding-shop-25749959,30370-000,Machinery - New,1/1/94 0:00,,False,NR,0.0,1.0,0.0,False,Micro-small,False,1/31/23 8:46,Search,200
1166,704,1000001625,Kwardo Auto Sales,7820 riverdale dr nw,,Ramsey,MN,55303.0,USA,7639138477.0,,https://www.yellowpages.com/ramsey-mn/mip/kwardo-auto-sales-526798212,50040-000,Auto Dealers - Used Cars,,,False,NR,0.0,1.0,0.0,False,Micro-small,False,11/6/22 9:03,Search,200
1167,704,1000001707,H & H Concrete & Masonry LLC, 	14651 60TH ST SW,,Cokato,MN,55321.0,USA,,,https://www.dandb.com/businessdirectory/hhconcretemasonryllc-cokato-mn-21833770.html,10032-000,Concrete Contractors,2/14/06 0:00,,False,NR,0.0,1.0,0.0,False,Micro-small,False,10/9/21 4:04,Search,200
1168,704,1000005279,Domino's Pizza(# 1901),215 Oak St SE,,Minneapolis,MN,55414.0,USA,6123313030.0,,https://pizza.dominos.com/minnesota/minneapolis/1901-johnson-st-ne/,50502-000,Pizza ,9/28/16 0:00,,False,A+,97.86,1.0,0.0,False,Micro-small,False,11/20/19 4:40,Search,200
1169,704,1000002103,"DeGroat Family Feedyards, Inc.",230 Maple St N,,Balaton,MN,56115.0,USA,5077346755.0,,https://radaris.com/p/Bruce/Degroat/,50750-000,Transportation Services,1/5/99 0:00,7/8/16 0:00,False,NR,0.0,1.0,0.0,False,Micro-small,False,7/16/19 4:28,Search,200
1170,704,1000005341,Carr Project Services Company,5204 Highland Rd,,Minnetonka,MN,55345.0,USA,9522839838.0,,http://www.carrcm.com/,10035-000,Contractors - General,2/2/99 0:00,,False,A+,100.0,1.0,0.0,False,Micro-small,False,3/26/21 4:05,Search,200
1171,704,1000003024,Schultz Electric Inc,412 25th St Nw,,Minot,ND,58703.0,USA,7018384208.0,,https://schultzelectric.com/,10049-000,Electricians,,,False,NR,0.0,1.0,0.0,False,Micro-small,False,12/16/20 5:07,Search,200
1172,704,1000005494,Battcher & Aero Electric,PO Box 303,,Arlington,MN,55307.0,USA,5079642216.0,,https://start.cortera.com/company/research/k5n7mzj1j/battcher--aero-electric/,10049-000,Electricians,6/22/06 0:00,,False,NR,0.0,1.0,0.0,False,Micro-small,False,12/26/22 8:45,Search,200
1173,704,1000004756,Copper Kitchen,212 S Broadway Ave,,Albert Lea,MN,56007.0,USA,5075521338.0,,https://www.albertleatribune.com/2014/04/ambassadors-welcome-copper-kitchen/,50372-000,Kitchen Accessories,4/1/14 0:00,8/23/16 0:00,False,NR,0.0,1.0,0.0,False,Micro-small,False,8/26/19 4:11,Search,200
1174,704,1000001639,Mitchel&#39;s Barber & Style,741 Railroad Ave,,Albany,MN,56307.0,USA,3208457010.0,,https://www.facebook.com/profile.php?id=100054497408770,60125-000,Barbers,1/1/88 0:00,,False,NR,0.0,2.0,0.0,False,Micro-small,False,1/30/23 8:33,Search,200
1175,704,1000005529,Bolton Construction LLC,1631 Dayton Ave,,Saint Paul,MN,55104.0,USA,,,https://www.facebook.com/BoltonConstruction/,10177-000,Construction & Remodeling Services,11/17/09 0:00,,False,NR,0.0,1.0,0.0,False,Micro-small,False,5/5/22 8:23,Search,200
1176,704,1000005079,Bruce Schmidt Construction Inc,701 County Road 88 SW,,Alexandria,MN,56308.0,USA,3202836100.0,,https://www.andersonfuneral.net/obituaries/bruce-schmidt,10177-000,Construction & Remodeling Services,7/30/01 0:00,,False,NR,0.0,1.0,0.0,False,Micro-small,False,12/20/22 8:57,Search,200
1177,704,1000004813,Vogt Distributing,3004 Lake Chapeau Dr,,Albert Lea,MN,56007.0,USA,5073730327.0,,https://business.albertlea.org/list/member/vogt-distributing-3371,30785-000,Wholesalers & Distributors,11/7/00 0:00,,False,A+,100.0,1.0,0.0,False,Micro-small,False,12/20/19 3:58,Search,200
1178,704,1000003723,Remax Advantage Plus ,11905 Hwy 65 NE,,Blaine ,MN,55434.0,USA,6123960871.0,,https://www.remax.com/real-estate-offices/remax-advantage-plus-blaine-mn/100424740,60729-000,Real Estate,,,False,A+,100.0,,0.0,False,Micro-small,False,1/28/21 4:10,Search,200
1179,704,1000004817,Dave Skoog Construction,22 1st Ave NE,,Hutchinson,MN,55350.0,USA,3205873345.0,,https://www.dandb.com/businessdirectory/daveskoogconstruction-hutchinson-mn-35905564.html,10126-000,Roofing Contractors,1/1/02 0:00,1/2/20 0:00,False,NR,0.0,4.0,,False,Micro-small,False,1/9/23 8:32,Search,200
1180,704,1000001664,Carmex,12800 Whitewater Dr # 110,,Hopkins,MN,55343.0,USA,9529433900.0,,https://www.mycarmex.com/,60539-000,Marketing Programs & Services,,,False,NR,0.0,1.0,0.0,False,Micro-small,False,6/22/22 11:35,Search,200
1181,704,1000005750,"Dan Erdahl Construction, Inc.",53721 GRANT ST,,Osage,MN,56570.0,USA,6122554583.0,,https://www.bizapedia.com/mn/dan-erdahl-construction-inc.html,10177-000,Construction & Remodeling Services,4/1/03 0:00,10/28/20 0:00,False,NR,0.0,1.0,0.0,False,Micro-small,False,3/18/22 8:14,Search,200
1182,704,1000006692,Ovsak Financial Service,720 5th St N,,Breckenridge,MN,56520.0,USA,2186432679.0,,https://www.askifg.com/team/jay-ovsak,20080-000,Insurance Services,1/1/86 0:00,,False,A+,100.0,3.0,0.0,False,Micro-small,False,1/25/20 4:31,Search,200
1183,704,1000005373,"Innovative Resource Group, Inc.",18095 87th Ave N,,Osseo,MN,55311.0,USA,6125593238.0,,https://www.innovative-resource.com/,15035-000,Handyman Services,3/30/11 0:00,1/3/20 0:00,False,NR,0.0,1.0,0.0,False,Micro-small,False,1/9/23 8:32,Search,200
1184,704,1000004807,GoliathTech MN LLC,8830 Xylite St NE,,Minneapolis,MN,55449.0,USA,6126053233.0,,https://goliathtechmn.com/,55433-000,Modular/Mobile Home  - Foundation Services,4/17/15 0:00,,False,NR,0.0,1.0,0.0,False,Micro-small,False,2/7/23 9:00,Search,200
1185,704,1000002243,A Reliable Towing,2751 Hennepin Ave PMB 14,,Minneapolis,MN,55408.0,USA,6128256640.0,,https://www.showmelocal.com/profile.aspx?bid=1195324,60103-000,Auto Repair & Service,1/1/07 0:00,,False,NR,0.0,2.0,0.0,False,Micro-small,False,1/30/23 8:33,Search,200
1186,704,1000005963,Azzone Security-Investigation Agency (ASIA) Inc.,1110 Arcade St,,Saint Paul,MN,55106.0,USA,6517744247.0,,https://opencorporates.com/companies/us_mn/da817de0-aad4-e011-a886-001ec94ffe7f,60476-000,Investigators,1/1/84 0:00,,False,NR,0.0,8.0,0.0,False,Micro-small,False,1/24/23 8:58,Search,200
1187,704,1000002934,Grays Bay Networks Llc,2427 Bantas Point Ln,,Wayzata,MN,55391.0,USA,9524495744.0,,https://www.bizapedia.com/mn/grays-bay-networks-llc.html,60246-000,Computers - Sys Designers & Consult,1/1/09 0:00,,False,NR,0.0,3.0,0.0,False,Micro-small,False,3/13/21 4:08,Search,200
1188,704,1000006717,Countryside Collision,816 6th St N,,Winsted,MN,55395.0,USA,3204854353.0,,https://www.autobody-review.com/shop/i30448/countryside-collision,60094-000,Auto Body Repair & Painting,3/5/93 0:00,,False,NR,0.0,1.0,0.0,False,Micro-small,False,1/31/23 8:46,Search,200
1189,704,1000003909,Nichols Companies,1819 Old West Main ,,Red Wing,MN,55066.0,USA,6513886633.0,,https://www.nicholsinn.com/red-wing/local-area-red-wing-mn/,60447-000,Hotels,10/30/08 0:00,,False,NR,0.0,1.0,0.0,False,Micro-small,False,1/31/23 8:46,Search,200
1190,704,1000002311,Rock Creek Excavating,PO Box 155,,Fifty Lakes,MN,56448.0,USA,2187632773.0,,https://411.info/business/Rock-Creek-Excavating-Landscaping-Fifty-Lakes-MN-17533059,10050-000,Excavating Contractors,1/1/06 0:00,,False,NR,0.0,2.0,0.0,False,Micro-small,False,7/8/22 12:28,Search,200
1191,704,1000004363,Seasoned Executive Solutions,5201 Eden Ave # 120,,Minneapolis,MN,55436.0,USA,7632803613.0,,https://www.facebook.com/seasonedexecutivesolutions/,20012-200,Financial Consultants - No License Required ,3/30/16 0:00,,False,NR,0.0,1.0,0.0,False,Micro-small,False,1/24/23 8:58,Search,200
1192,704,1000006055,Extreme Parts Garage ,916 Adams Ave,,Harvey,ND,58341.0,USA,7013242525.0,,https://www.facebook.com/extremepartsgarage/,60094-000,Auto Body Repair & Painting,9/11/12 0:00,,False,NR,0.0,1.0,0.0,False,Micro-small,False,2/6/23 8:28,Search,200
1193,704,1000003463,Sherri's Hair Care,140 Main St E,,Minnewaukan,ND,58351.0,USA,7014735380.0,,https://www.showmelocal.com/profile.aspx?bid=816189,60134-000,Beauty Salons,11/1/94 0:00,,False,A+,100.0,1.0,0.0,False,Small,False,9/16/20 4:54,Search,200
1194,704,1000004955,Arkhitekton LTD,2428 W 22nd St,,Minneapolis,MN,55405.0,USA,6122034582.0,,https://www.showmelocal.com/profile.aspx?bid=1202204,10177-000,Construction & Remodeling Services,4/21/93 0:00,,False,NR,0.0,1.0,0.0,False,Micro-small,False,12/20/22 8:57,Search,200
1195,704,1000005511,Renville Sibley Sanitation,PO Box 296,,Gibbon,MN,55335.0,USA,5078346168.0,,https://www.cityofgibbon.com/index.asp?SEC=9AF77A2A-023B-4A22-8043-1D0C9C6764B3&DE=6128035A-8301-49FE-8D6D-133B8606AB9C&Type=B_BASIC,70595-000,Sanitation Consultants,9/24/10 0:00,,False,A+,100.0,1.0,0.0,False,Micro-small,False,8/31/21 4:01,Search,200
1196,704,1000005425,Gary R. Dickman Construction,25123 885th Ave,,Austin,MN,55912.0,USA,5074334904.0,,https://radaris.com/p/Gary/Dickman/,10035-000,Contractors - General,1/1/90 0:00,,False,A+,100.0,,0.0,False,Micro-small,False,9/4/20 4:07,Search,200
1197,704,1000004679,At Your Service-Cleaning and More,PO Box 532,,Moorhead,MN,56561.0,USA,7013612746.0,,http://www.atyourservicecc.com/,66002-000,Cleaning Services,8/23/01 0:00,,False,NR,0.0,1.0,0.0,False,Micro-small,False,12/6/22 9:13,Search,200
1198,704,1000004375,Sunrise Senior Living,4950 Olson Memorial Hwy,,Golden Valley,MN,55422.0,USA,7635224000.0,,https://www.aplaceformom.com/community/sunrise-of-golden-valley-137794,85296-200,Senior Housing/Living,1/1/12 0:00,,False,NR,0.0,1.0,0.0,False,Micro-small,False,6/1/22 21:27,Search,200
1199,704,1000005218,Ace Construction of Nashwauk,19 1st St,,Nashwauk,MN,55769.0,USA,2188851799.0,,https://www.facebook.com/CharlieAndersonNK/,10035-000,Contractors - General,1/1/08 0:00,,False,NR,0.0,2.0,0.0,False,Micro-small,False,1/29/23 8:37,Search,200
